{
  "type": "FeatureCollection",
  "generator": "overpass-turbo",
  "copyright": "The data included in this document is from www.openstreetmap.org. The data is made available under ODbL.",
  "timestamp": "2026-06-03T15:52:29Z",
  "features": [
    {
      "type": "Feature",
      "properties": {
        "@id": "way/60352221",
        "name": "Urbanização Nova Vida",
        "place": "neighbourhood",
        "@geometry": "center"
      },
      "geometry": {
        "type": "Point",
        "coordinates": [
          13.2299477,
          -8.9072958
        ]
      },
      "id": "way/60352221"
    },
    {
      "type": "Feature",
      "properties": {
        "@id": "way/63135292",
        "name": "Calemba 2",
        "place": "neighbourhood",
        "@geometry": "center"
      },
      "geometry": {
        "type": "Point",
        "coordinates": [
          13.2695279,
          -8.9013802
        ]
      },
      "id": "way/63135292"
    },
    {
      "type": "Feature",
      "properties": {
        "@id": "way/191684274",
        "name": "Distrito do Kilamba Kiaxe",
        "name:en": "Kilamba Kiaxe",
        "name:pt": "Distrito do Kilamba Kiaxe",
        "old_name": "Municipio do Kilamba-Kiaxe",
        "place": "suburb",
        "@geometry": "center"
      },
      "geometry": {
        "type": "Point",
        "coordinates": [
          13.2505403,
          -8.8659013
        ]
      },
      "id": "way/191684274"
    },
    {
      "type": "Feature",
      "properties": {
        "@id": "way/215029082",
        "name": "Bairro Mande",
        "place": "neighbourhood",
        "@geometry": "center"
      },
      "geometry": {
        "type": "Point",
        "coordinates": [
          13.1512944,
          -8.9847054
        ]
      },
      "id": "way/215029082"
    },
    {
      "type": "Feature",
      "properties": {
        "@id": "way/361607665",
        "access": "yes",
        "name": "Galenha/Mirantes",
        "place": "neighbourhood",
        "@geometry": "center"
      },
      "geometry": {
        "type": "Point",
        "coordinates": [
          13.1742181,
          -8.9166957
        ]
      },
      "id": "way/361607665"
    },
    {
      "type": "Feature",
      "properties": {
        "@id": "way/370490673",
        "name": "Cassenda",
        "place": "neighbourhood",
        "@geometry": "center"
      },
      "geometry": {
        "type": "Point",
        "coordinates": [
          13.2288331,
          -8.8449267
        ]
      },
      "id": "way/370490673"
    },
    {
      "type": "Feature",
      "properties": {
        "@id": "way/377053328",
        "name": "Bairro da Cambamba",
        "name:de": "Cambamba-Nachbarschaft",
        "name:en": "Cambamba District",
        "name:es": "Vecindario de Cambamba",
        "name:fr": "Quartier de Cambamba",
        "name:it": "Quartiere Cambamba",
        "name:nl": "Cambamba Buurt",
        "name:pl": "Sąsiedztwo Cambamba",
        "name:pt": "Bairro da Cambamba",
        "name:ru": "Район Камбамба",
        "place": "neighbourhood",
        "@geometry": "center"
      },
      "geometry": {
        "type": "Point",
        "coordinates": [
          13.2174759,
          -8.9173093
        ]
      },
      "id": "way/377053328"
    },
    {
      "type": "Feature",
      "properties": {
        "@id": "way/424829674",
        "name": "Bairro Neves Bendinha (ex Bairro Popular)",
        "old_name": "Bairro Popular",
        "place": "neighbourhood",
        "@geometry": "center"
      },
      "geometry": {
        "type": "Point",
        "coordinates": [
          13.2666961,
          -8.8482944
        ]
      },
      "id": "way/424829674"
    },
    {
      "type": "Feature",
      "properties": {
        "@id": "way/427192688",
        "name": "Bairro Kifica",
        "place": "neighbourhood",
        "@geometry": "center"
      },
      "geometry": {
        "type": "Point",
        "coordinates": [
          13.1823308,
          -8.9501136
        ]
      },
      "id": "way/427192688"
    },
    {
      "type": "Feature",
      "properties": {
        "@id": "way/529886082",
        "name": "Futungo I",
        "place": "neighbourhood",
        "@geometry": "center"
      },
      "geometry": {
        "type": "Point",
        "coordinates": [
          13.1683794,
          -8.9124279
        ]
      },
      "id": "way/529886082"
    },
    {
      "type": "Feature",
      "properties": {
        "@id": "way/531825413",
        "name": "Futungo II",
        "place": "neighbourhood",
        "@geometry": "center"
      },
      "geometry": {
        "type": "Point",
        "coordinates": [
          13.1712148,
          -8.8992847
        ]
      },
      "id": "way/531825413"
    },
    {
      "type": "Feature",
      "properties": {
        "@id": "way/532434468",
        "name": "Prenda",
        "place": "neighbourhood",
        "@geometry": "center"
      },
      "geometry": {
        "type": "Point",
        "coordinates": [
          13.2218077,
          -8.8385399
        ]
      },
      "id": "way/532434468"
    },
    {
      "type": "Feature",
      "properties": {
        "@id": "way/581024112",
        "name": "Bairro Militar",
        "place": "neighbourhood",
        "@geometry": "center"
      },
      "geometry": {
        "type": "Point",
        "coordinates": [
          13.2202597,
          -8.9035626
        ]
      },
      "id": "way/581024112"
    },
    {
      "type": "Feature",
      "properties": {
        "@id": "way/581402268",
        "area": "yes",
        "name": "Morro Bento II",
        "place": "neighbourhood",
        "@geometry": "center"
      },
      "geometry": {
        "type": "Point",
        "coordinates": [
          13.2099308,
          -8.8896221
        ]
      },
      "id": "way/581402268"
    },
    {
      "type": "Feature",
      "properties": {
        "@id": "way/584430172",
        "name": "Bairro Marçal",
        "place": "neighbourhood",
        "@geometry": "center"
      },
      "geometry": {
        "type": "Point",
        "coordinates": [
          13.2579517,
          -8.8214589
        ]
      },
      "id": "way/584430172"
    },
    {
      "type": "Feature",
      "properties": {
        "@id": "way/584829425",
        "landuse": "residential",
        "name": "Valódia",
        "place": "neighbourhood",
        "@geometry": "center"
      },
      "geometry": {
        "type": "Point",
        "coordinates": [
          13.2507578,
          -8.820963
        ]
      },
      "id": "way/584829425"
    },
    {
      "type": "Feature",
      "properties": {
        "@id": "way/584829426",
        "name": "Combatentes",
        "place": "neighbourhood",
        "@geometry": "center"
      },
      "geometry": {
        "type": "Point",
        "coordinates": [
          13.2516792,
          -8.8181918
        ]
      },
      "id": "way/584829426"
    },
    {
      "type": "Feature",
      "properties": {
        "@id": "way/584973087",
        "name": "Calemba",
        "place": "neighbourhood",
        "@geometry": "center"
      },
      "geometry": {
        "type": "Point",
        "coordinates": [
          13.2495175,
          -8.8386129
        ]
      },
      "id": "way/584973087"
    },
    {
      "type": "Feature",
      "properties": {
        "@id": "way/595668260",
        "name": "Projecto Crédito Jovem",
        "place": "neighbourhood",
        "@geometry": "center"
      },
      "geometry": {
        "type": "Point",
        "coordinates": [
          13.2555106,
          -8.9377805
        ]
      },
      "id": "way/595668260"
    },
    {
      "type": "Feature",
      "properties": {
        "@id": "way/597490659",
        "name": "Chimbicato",
        "place": "neighbourhood",
        "@geometry": "center"
      },
      "geometry": {
        "type": "Point",
        "coordinates": [
          13.2513636,
          -8.9332702
        ]
      },
      "id": "way/597490659"
    },
    {
      "type": "Feature",
      "properties": {
        "@id": "way/597490663",
        "name": "Fubú",
        "place": "neighbourhood",
        "@geometry": "center"
      },
      "geometry": {
        "type": "Point",
        "coordinates": [
          13.2251021,
          -8.9262349
        ]
      },
      "id": "way/597490663"
    },
    {
      "type": "Feature",
      "properties": {
        "@id": "way/597490665",
        "name": "Iraque",
        "place": "neighbourhood",
        "@geometry": "center"
      },
      "geometry": {
        "type": "Point",
        "coordinates": [
          13.2505615,
          -8.9135148
        ]
      },
      "id": "way/597490665"
    },
    {
      "type": "Feature",
      "properties": {
        "@id": "way/604752448",
        "name": "Morro da Luz",
        "place": "neighbourhood",
        "@geometry": "center"
      },
      "geometry": {
        "type": "Point",
        "coordinates": [
          13.2063809,
          -8.8651341
        ]
      },
      "id": "way/604752448"
    },
    {
      "type": "Feature",
      "properties": {
        "@id": "way/605626907",
        "name": "Bairro 30",
        "place": "neighbourhood",
        "@geometry": "center"
      },
      "geometry": {
        "type": "Point",
        "coordinates": [
          13.4762191,
          -8.9765895
        ]
      },
      "id": "way/605626907"
    },
    {
      "type": "Feature",
      "properties": {
        "@id": "way/623961521",
        "name": "Miramar",
        "place": "neighbourhood",
        "@geometry": "center"
      },
      "geometry": {
        "type": "Point",
        "coordinates": [
          13.2488398,
          -8.8087611
        ]
      },
      "id": "way/623961521"
    },
    {
      "type": "Feature",
      "properties": {
        "@id": "way/623971220",
        "name": "Benfica",
        "place": "neighbourhood",
        "@geometry": "center"
      },
      "geometry": {
        "type": "Point",
        "coordinates": [
          13.1901626,
          -8.9640285
        ]
      },
      "id": "way/623971220"
    },
    {
      "type": "Feature",
      "properties": {
        "@id": "way/623971221",
        "alt_name": "Kifica",
        "name": "Quifica",
        "place": "neighbourhood",
        "@geometry": "center"
      },
      "geometry": {
        "type": "Point",
        "coordinates": [
          13.1633226,
          -8.9588913
        ]
      },
      "id": "way/623971221"
    },
    {
      "type": "Feature",
      "properties": {
        "@id": "way/623971222",
        "name": "Vila Alice",
        "place": "neighbourhood",
        "@geometry": "center"
      },
      "geometry": {
        "type": "Point",
        "coordinates": [
          13.2502261,
          -8.8269164
        ]
      },
      "id": "way/623971222"
    },
    {
      "type": "Feature",
      "properties": {
        "@id": "way/623979995",
        "name": "Bairro Operario",
        "place": "neighbourhood",
        "@geometry": "center"
      },
      "geometry": {
        "type": "Point",
        "coordinates": [
          13.2467117,
          -8.8136659
        ]
      },
      "id": "way/623979995"
    },
    {
      "type": "Feature",
      "properties": {
        "@id": "way/663996915",
        "name": "Sapu km 12",
        "place": "neighbourhood",
        "@geometry": "center"
      },
      "geometry": {
        "type": "Point",
        "coordinates": [
          13.3315027,
          -8.8975362
        ]
      },
      "id": "way/663996915"
    },
    {
      "type": "Feature",
      "properties": {
        "@id": "node/769894726",
        "is_in": "Angola;Luanda",
        "name": "Talatona",
        "place": "suburb"
      },
      "geometry": {
        "type": "Point",
        "coordinates": [
          13.1911229,
          -8.9205561
        ]
      },
      "id": "node/769894726"
    },
    {
      "type": "Feature",
      "properties": {
        "@id": "node/769894825",
        "name": "Prenda",
        "place": "suburb"
      },
      "geometry": {
        "type": "Point",
        "coordinates": [
          13.2226291,
          -8.8368115
        ]
      },
      "id": "node/769894825"
    },
    {
      "type": "Feature",
      "properties": {
        "@id": "node/769894875",
        "addr:city": "Luanda",
        "is_in": "Angola;Luanda",
        "name": "Cassenda",
        "place": "suburb"
      },
      "geometry": {
        "type": "Point",
        "coordinates": [
          13.2295263,
          -8.8453029
        ]
      },
      "id": "node/769894875"
    },
    {
      "type": "Feature",
      "properties": {
        "@id": "node/769897719",
        "addr:city": "Luanda",
        "is_in": "Angola;Luanda",
        "name": "Vila Alice",
        "place": "suburb"
      },
      "geometry": {
        "type": "Point",
        "coordinates": [
          13.2476469,
          -8.8267641
        ]
      },
      "id": "node/769897719"
    },
    {
      "type": "Feature",
      "properties": {
        "@id": "node/769989730",
        "addr:city": "Luanda",
        "is_in": "Angola;Luanda",
        "name": "São Paulo",
        "place": "suburb"
      },
      "geometry": {
        "type": "Point",
        "coordinates": [
          13.2559223,
          -8.8135247
        ]
      },
      "id": "node/769989730"
    },
    {
      "type": "Feature",
      "properties": {
        "@id": "node/770026928",
        "addr:city": "Luanda",
        "is_in": "Luanda;Angola",
        "name": "Cuca",
        "place": "suburb"
      },
      "geometry": {
        "type": "Point",
        "coordinates": [
          13.2773103,
          -8.8152316
        ]
      },
      "id": "node/770026928"
    },
    {
      "type": "Feature",
      "properties": {
        "@id": "node/770027266",
        "addr:city": "Luanda",
        "is_in": "Angola;Luanda",
        "name": "Maianga",
        "place": "suburb",
        "wikidata": "Q985130",
        "wikipedia": "en:Maianga"
      },
      "geometry": {
        "type": "Point",
        "coordinates": [
          13.2303908,
          -8.8267755
        ]
      },
      "id": "node/770027266"
    },
    {
      "type": "Feature",
      "properties": {
        "@id": "node/770056992",
        "is_in": "Angola;Luanda",
        "name": "Camama",
        "place": "suburb",
        "wikidata": "Q9675019"
      },
      "geometry": {
        "type": "Point",
        "coordinates": [
          13.2647271,
          -8.9402366
        ]
      },
      "id": "node/770056992"
    },
    {
      "type": "Feature",
      "properties": {
        "@id": "node/770151827",
        "addr:city": "Luanda",
        "is_in": "Luanda;Angola",
        "name": "Boavista",
        "place": "suburb"
      },
      "geometry": {
        "type": "Point",
        "coordinates": [
          13.2633994,
          -8.8016755
        ]
      },
      "id": "node/770151827"
    },
    {
      "type": "Feature",
      "properties": {
        "@id": "node/770151846",
        "addr:city": "Luanda",
        "is_in": "Angola;Luanda",
        "name": "Sambizanga",
        "place": "suburb",
        "wikidata": "Q1021218",
        "wikipedia": "en:Sambizanga"
      },
      "geometry": {
        "type": "Point",
        "coordinates": [
          13.2715131,
          -8.8043556
        ]
      },
      "id": "node/770151846"
    },
    {
      "type": "Feature",
      "properties": {
        "@id": "node/771144172",
        "is_in": "Angola;Luanda",
        "name": "Benfica",
        "place": "suburb"
      },
      "geometry": {
        "type": "Point",
        "coordinates": [
          13.1639942,
          -8.944328
        ]
      },
      "id": "node/771144172"
    },
    {
      "type": "Feature",
      "properties": {
        "@id": "way/844803764",
        "name": "Bairro Mundimba",
        "place": "neighbourhood",
        "@geometry": "center"
      },
      "geometry": {
        "type": "Point",
        "coordinates": [
          13.3933616,
          -8.9883615
        ]
      },
      "id": "way/844803764"
    },
    {
      "type": "Feature",
      "properties": {
        "@id": "way/862881893",
        "designation": "Bairro Nzinga Mbandi",
        "name": "Sector 4",
        "place": "suburb",
        "@geometry": "center"
      },
      "geometry": {
        "type": "Point",
        "coordinates": [
          13.2672128,
          -8.9236816
        ]
      },
      "id": "way/862881893"
    },
    {
      "type": "Feature",
      "properties": {
        "@id": "way/939104077",
        "name": "Vila Chinesa",
        "place": "neighbourhood",
        "@geometry": "center"
      },
      "geometry": {
        "type": "Point",
        "coordinates": [
          13.3768985,
          -8.9429109
        ]
      },
      "id": "way/939104077"
    },
    {
      "type": "Feature",
      "properties": {
        "@id": "way/1088696124",
        "name": "Bairro Cabolombo",
        "place": "neighbourhood",
        "@geometry": "center"
      },
      "geometry": {
        "type": "Point",
        "coordinates": [
          13.1673709,
          -8.9297646
        ]
      },
      "id": "way/1088696124"
    },
    {
      "type": "Feature",
      "properties": {
        "@id": "way/1092025111",
        "name": "Sector 11A",
        "place": "suburb",
        "start_date": "30/09/2021",
        "@geometry": "center"
      },
      "geometry": {
        "type": "Point",
        "coordinates": [
          13.2755452,
          -8.8814105
        ]
      },
      "id": "way/1092025111"
    },
    {
      "type": "Feature",
      "properties": {
        "@id": "node/1178821922",
        "name": "Triangulo",
        "place": "suburb"
      },
      "geometry": {
        "type": "Point",
        "coordinates": [
          13.2676749,
          -8.8314666
        ]
      },
      "id": "node/1178821922"
    },
    {
      "type": "Feature",
      "properties": {
        "@id": "node/1178964664",
        "is_in": "Luanda, Viana",
        "name": "Kapalanga",
        "place": "suburb"
      },
      "geometry": {
        "type": "Point",
        "coordinates": [
          13.3915178,
          -8.911638
        ]
      },
      "id": "node/1178964664"
    },
    {
      "type": "Feature",
      "properties": {
        "@id": "node/1178967726",
        "is_in": "Luanda, Viana",
        "name": "Kapalanga II",
        "place": "suburb"
      },
      "geometry": {
        "type": "Point",
        "coordinates": [
          13.3913462,
          -8.9034976
        ]
      },
      "id": "node/1178967726"
    },
    {
      "type": "Feature",
      "properties": {
        "@id": "node/1485574758",
        "name": "Bairro das Tendas",
        "place": "suburb"
      },
      "geometry": {
        "type": "Point",
        "coordinates": [
          13.1469098,
          -8.9794935
        ]
      },
      "id": "node/1485574758"
    },
    {
      "type": "Feature",
      "properties": {
        "@id": "node/1485574759",
        "name": "Bairro Mande",
        "place": "suburb"
      },
      "geometry": {
        "type": "Point",
        "coordinates": [
          13.1506446,
          -8.9855596
        ]
      },
      "id": "node/1485574759"
    },
    {
      "type": "Feature",
      "properties": {
        "@id": "node/1487121536",
        "name": "Bairro das Tendas",
        "place": "suburb"
      },
      "geometry": {
        "type": "Point",
        "coordinates": [
          13.1554611,
          -8.9718602
        ]
      },
      "id": "node/1487121536"
    },
    {
      "type": "Feature",
      "properties": {
        "@id": "node/1487127430",
        "name": "Zona Verde",
        "place": "suburb"
      },
      "geometry": {
        "type": "Point",
        "coordinates": [
          13.179005,
          -8.9857332
        ]
      },
      "id": "node/1487127430"
    },
    {
      "type": "Feature",
      "properties": {
        "@id": "node/1561178200",
        "int_name": "Bairro Rangel",
        "name": "Precol",
        "place": "suburb"
      },
      "geometry": {
        "type": "Point",
        "coordinates": [
          13.2699647,
          -8.8218393
        ]
      },
      "id": "node/1561178200"
    },
    {
      "type": "Feature",
      "properties": {
        "@id": "node/1561178202",
        "name": "Bairro dos CTT",
        "place": "suburb"
      },
      "geometry": {
        "type": "Point",
        "coordinates": [
          13.2656303,
          -8.8174395
        ]
      },
      "id": "node/1561178202"
    },
    {
      "type": "Feature",
      "properties": {
        "@id": "node/1561190880",
        "name": "Terra Nova",
        "place": "suburb"
      },
      "geometry": {
        "type": "Point",
        "coordinates": [
          13.2680979,
          -8.8367559
        ]
      },
      "id": "node/1561190880"
    },
    {
      "type": "Feature",
      "properties": {
        "@id": "node/1561196645",
        "name": "Bairro Nelito Soares",
        "place": "suburb"
      },
      "geometry": {
        "type": "Point",
        "coordinates": [
          13.2591297,
          -8.8309049
        ]
      },
      "id": "node/1561196645"
    },
    {
      "type": "Feature",
      "properties": {
        "@id": "node/1561196675",
        "name": "Marcal",
        "place": "suburb"
      },
      "geometry": {
        "type": "Point",
        "coordinates": [
          13.2582917,
          -8.8202809
        ]
      },
      "id": "node/1561196675"
    },
    {
      "type": "Feature",
      "properties": {
        "@id": "node/1633559617",
        "name": "Cassequel do Buraco",
        "place": "suburb"
      },
      "geometry": {
        "type": "Point",
        "coordinates": [
          13.2483671,
          -8.8421891
        ]
      },
      "id": "node/1633559617"
    },
    {
      "type": "Feature",
      "properties": {
        "@id": "node/1633560921",
        "name": "Cassequel",
        "place": "suburb"
      },
      "geometry": {
        "type": "Point",
        "coordinates": [
          13.248174,
          -8.8491329
        ]
      },
      "id": "node/1633560921"
    },
    {
      "type": "Feature",
      "properties": {
        "@id": "node/1634150664",
        "name": "Palanca",
        "place": "suburb"
      },
      "geometry": {
        "type": "Point",
        "coordinates": [
          13.2660695,
          -8.8607037
        ]
      },
      "id": "node/1634150664"
    },
    {
      "type": "Feature",
      "properties": {
        "@id": "node/1634854126",
        "name": "Onjo-Yeto",
        "place": "suburb"
      },
      "geometry": {
        "type": "Point",
        "coordinates": [
          13.3029526,
          -8.9115862
        ]
      },
      "id": "node/1634854126"
    },
    {
      "type": "Feature",
      "properties": {
        "@id": "node/1634854277",
        "name": "Sapu",
        "place": "suburb"
      },
      "geometry": {
        "type": "Point",
        "coordinates": [
          13.3080216,
          -8.9339035
        ]
      },
      "id": "node/1634854277"
    },
    {
      "type": "Feature",
      "properties": {
        "@id": "node/1634901386",
        "name": "Projecto Crédito Jovem",
        "place": "neighbourhood"
      },
      "geometry": {
        "type": "Point",
        "coordinates": [
          13.2547882,
          -8.937348
        ]
      },
      "id": "node/1634901386"
    },
    {
      "type": "Feature",
      "properties": {
        "@id": "node/1634902614",
        "name": "Chimbicato",
        "place": "suburb"
      },
      "geometry": {
        "type": "Point",
        "coordinates": [
          13.2483913,
          -8.9311326
        ]
      },
      "id": "node/1634902614"
    },
    {
      "type": "Feature",
      "properties": {
        "@id": "node/1634902615",
        "name": "Iraque",
        "place": "suburb"
      },
      "geometry": {
        "type": "Point",
        "coordinates": [
          13.2484072,
          -8.9211255
        ]
      },
      "id": "node/1634902615"
    },
    {
      "type": "Feature",
      "properties": {
        "@id": "node/1634902616",
        "name": "Fubu",
        "place": "suburb"
      },
      "geometry": {
        "type": "Point",
        "coordinates": [
          13.2304632,
          -8.9313418
        ]
      },
      "id": "node/1634902616"
    },
    {
      "type": "Feature",
      "properties": {
        "@id": "node/1634902967",
        "name": "Dangereux",
        "place": "suburb"
      },
      "geometry": {
        "type": "Point",
        "coordinates": [
          13.2082813,
          -8.9331234
        ]
      },
      "id": "node/1634902967"
    },
    {
      "type": "Feature",
      "properties": {
        "@id": "node/1637376054",
        "name": "Bairro Sossego",
        "place": "suburb"
      },
      "geometry": {
        "type": "Point",
        "coordinates": [
          13.2184942,
          -9.0011476
        ]
      },
      "id": "node/1637376054"
    },
    {
      "type": "Feature",
      "properties": {
        "@id": "node/1637389617",
        "alt_name": "Quifangondo",
        "name": "Kifangondo",
        "place": "suburb"
      },
      "geometry": {
        "type": "Point",
        "coordinates": [
          13.4239856,
          -8.7633837
        ]
      },
      "id": "node/1637389617"
    },
    {
      "type": "Feature",
      "properties": {
        "@id": "node/1637418066",
        "name": "500 casas",
        "place": "suburb"
      },
      "geometry": {
        "type": "Point",
        "coordinates": [
          13.3707156,
          -8.9367855
        ]
      },
      "id": "node/1637418066"
    },
    {
      "type": "Feature",
      "properties": {
        "@id": "node/1637418133",
        "name": "Vila Chinesa",
        "place": "neighbourhood"
      },
      "geometry": {
        "type": "Point",
        "coordinates": [
          13.3766031,
          -8.9427111
        ]
      },
      "id": "node/1637418133"
    },
    {
      "type": "Feature",
      "properties": {
        "@id": "node/1637773884",
        "name": "Zona Verde II",
        "place": "suburb"
      },
      "geometry": {
        "type": "Point",
        "coordinates": [
          13.1880943,
          -9.0062537
        ]
      },
      "id": "node/1637773884"
    },
    {
      "type": "Feature",
      "properties": {
        "@id": "node/1640485990",
        "name": "Tala-Hady",
        "old_name": "Marcelo Caetano",
        "place": "suburb",
        "wikidata": "Q10377926"
      },
      "geometry": {
        "type": "Point",
        "coordinates": [
          13.2795293,
          -8.8383568
        ]
      },
      "id": "node/1640485990"
    },
    {
      "type": "Feature",
      "properties": {
        "@id": "node/1640495073",
        "name": "Cariango",
        "place": "suburb"
      },
      "geometry": {
        "type": "Point",
        "coordinates": [
          13.2813746,
          -8.8356948
        ]
      },
      "id": "node/1640495073"
    },
    {
      "type": "Feature",
      "properties": {
        "@id": "node/1640498135",
        "name": "Cazenga Popular",
        "place": "suburb"
      },
      "geometry": {
        "type": "Point",
        "coordinates": [
          13.287747,
          -8.8335326
        ]
      },
      "id": "node/1640498135"
    },
    {
      "type": "Feature",
      "properties": {
        "@id": "node/1640498595",
        "name": "Patricio",
        "place": "suburb"
      },
      "geometry": {
        "type": "Point",
        "coordinates": [
          13.2868243,
          -8.8210438
        ]
      },
      "id": "node/1640498595"
    },
    {
      "type": "Feature",
      "properties": {
        "@id": "node/1640515675",
        "name": "Mabor",
        "place": "suburb"
      },
      "geometry": {
        "type": "Point",
        "coordinates": [
          13.3067371,
          -8.7941139
        ]
      },
      "id": "node/1640515675"
    },
    {
      "type": "Feature",
      "properties": {
        "@id": "node/1640517417",
        "name": "Bairro Kikolo",
        "place": "suburb"
      },
      "geometry": {
        "type": "Point",
        "coordinates": [
          13.3326579,
          -8.7896501
        ]
      },
      "id": "node/1640517417"
    },
    {
      "type": "Feature",
      "properties": {
        "@id": "node/1655553681",
        "name": "Golf II",
        "place": "suburb"
      },
      "geometry": {
        "type": "Point",
        "coordinates": [
          13.2529023,
          -8.879369
        ]
      },
      "id": "node/1655553681"
    },
    {
      "type": "Feature",
      "properties": {
        "@id": "node/1655555467",
        "name": "Golf",
        "place": "suburb"
      },
      "geometry": {
        "type": "Point",
        "coordinates": [
          13.2567861,
          -8.8620478
        ]
      },
      "id": "node/1655555467"
    },
    {
      "type": "Feature",
      "properties": {
        "@id": "node/1787501536",
        "name": "Bairro Mundial",
        "place": "suburb"
      },
      "geometry": {
        "type": "Point",
        "coordinates": [
          13.1279968,
          -8.9962496
        ]
      },
      "id": "node/1787501536"
    },
    {
      "type": "Feature",
      "properties": {
        "@id": "node/2024975262",
        "place": "suburb"
      },
      "geometry": {
        "type": "Point",
        "coordinates": [
          13.7396277,
          -9.2760495
        ]
      },
      "id": "node/2024975262"
    },
    {
      "type": "Feature",
      "properties": {
        "@id": "node/2027910508",
        "name": "Kinanga",
        "place": "suburb"
      },
      "geometry": {
        "type": "Point",
        "coordinates": [
          13.2239267,
          -8.8185685
        ]
      },
      "id": "node/2027910508"
    },
    {
      "type": "Feature",
      "properties": {
        "@id": "node/2027910822",
        "name": "Praia do Bispo",
        "place": "suburb"
      },
      "geometry": {
        "type": "Point",
        "coordinates": [
          13.2205632,
          -8.8194855
        ]
      },
      "id": "node/2027910822"
    },
    {
      "type": "Feature",
      "properties": {
        "@id": "node/2027912505",
        "name": "Coreia",
        "place": "suburb"
      },
      "geometry": {
        "type": "Point",
        "coordinates": [
          13.2183262,
          -8.8275642
        ]
      },
      "id": "node/2027912505"
    },
    {
      "type": "Feature",
      "properties": {
        "@id": "node/2027912702",
        "name": "Samba",
        "place": "suburb",
        "wikidata": "Q1006431"
      },
      "geometry": {
        "type": "Point",
        "coordinates": [
          13.212125,
          -8.8387912
        ]
      },
      "id": "node/2027912702"
    },
    {
      "type": "Feature",
      "properties": {
        "@id": "node/2027913632",
        "name": "Mabunda",
        "place": "suburb"
      },
      "geometry": {
        "type": "Point",
        "coordinates": [
          13.2076618,
          -8.8483112
        ]
      },
      "id": "node/2027913632"
    },
    {
      "type": "Feature",
      "properties": {
        "@id": "node/2027914050",
        "name": "Corimba",
        "place": "suburb"
      },
      "geometry": {
        "type": "Point",
        "coordinates": [
          13.1997546,
          -8.8651984
        ]
      },
      "id": "node/2027914050"
    },
    {
      "type": "Feature",
      "properties": {
        "@id": "node/2027914561",
        "name": "Gamek a Direita",
        "place": "neighbourhood"
      },
      "geometry": {
        "type": "Point",
        "coordinates": [
          13.202431,
          -8.8840544
        ]
      },
      "id": "node/2027914561"
    },
    {
      "type": "Feature",
      "properties": {
        "@id": "node/2027915822",
        "name": "Gamek",
        "place": "suburb"
      },
      "geometry": {
        "type": "Point",
        "coordinates": [
          13.2080373,
          -8.8894838
        ]
      },
      "id": "node/2027915822"
    },
    {
      "type": "Feature",
      "properties": {
        "@id": "node/2027920661",
        "name": "Bairro das Salinas",
        "place": "suburb"
      },
      "geometry": {
        "type": "Point",
        "coordinates": [
          13.1446148,
          -8.9737469
        ]
      },
      "id": "node/2027920661"
    },
    {
      "type": "Feature",
      "properties": {
        "@id": "node/2038505767",
        "place": "neighbourhood"
      },
      "geometry": {
        "type": "Point",
        "coordinates": [
          13.9917245,
          -9.5590034
        ]
      },
      "id": "node/2038505767"
    },
    {
      "type": "Feature",
      "properties": {
        "@id": "node/2047630764",
        "name": "Comissão do Rangel",
        "place": "neighbourhood"
      },
      "geometry": {
        "type": "Point",
        "coordinates": [
          13.272378,
          -8.8313793
        ]
      },
      "id": "node/2047630764"
    },
    {
      "type": "Feature",
      "properties": {
        "@id": "node/2047639503",
        "name": "Valódia",
        "place": "neighbourhood"
      },
      "geometry": {
        "type": "Point",
        "coordinates": [
          13.2506414,
          -8.8206078
        ]
      },
      "id": "node/2047639503"
    },
    {
      "type": "Feature",
      "properties": {
        "@id": "node/2047639504",
        "name": "Combatentes",
        "place": "neighbourhood"
      },
      "geometry": {
        "type": "Point",
        "coordinates": [
          13.2538707,
          -8.8177877
        ]
      },
      "id": "node/2047639504"
    },
    {
      "type": "Feature",
      "properties": {
        "@id": "node/2047639650",
        "name": "Cruzeiro",
        "place": "neighbourhood"
      },
      "geometry": {
        "type": "Point",
        "coordinates": [
          13.2504375,
          -8.8107161
        ]
      },
      "id": "node/2047639650"
    },
    {
      "type": "Feature",
      "properties": {
        "@id": "node/2047639656",
        "name": "Miramar",
        "place": "neighbourhood"
      },
      "geometry": {
        "type": "Point",
        "coordinates": [
          13.2490368,
          -8.8093346
        ]
      },
      "id": "node/2047639656"
    },
    {
      "type": "Feature",
      "properties": {
        "@id": "node/2047640883",
        "name": "Coqueiros",
        "place": "neighbourhood"
      },
      "geometry": {
        "type": "Point",
        "coordinates": [
          13.2268984,
          -8.8135363
        ]
      },
      "id": "node/2047640883"
    },
    {
      "type": "Feature",
      "properties": {
        "@id": "node/2047640978",
        "name": "Mutamba",
        "place": "neighbourhood"
      },
      "geometry": {
        "type": "Point",
        "coordinates": [
          13.2323702,
          -8.8150577
        ]
      },
      "id": "node/2047640978"
    },
    {
      "type": "Feature",
      "properties": {
        "@id": "node/2047642092",
        "name": "Bairro Operario",
        "place": "neighbourhood"
      },
      "geometry": {
        "type": "Point",
        "coordinates": [
          13.2478456,
          -8.8137964
        ]
      },
      "id": "node/2047642092"
    },
    {
      "type": "Feature",
      "properties": {
        "@id": "node/2047642098",
        "name": "Zangado",
        "place": "neighbourhood"
      },
      "geometry": {
        "type": "Point",
        "coordinates": [
          13.2620568,
          -8.8220285
        ]
      },
      "id": "node/2047642098"
    },
    {
      "type": "Feature",
      "properties": {
        "@id": "node/2047643761",
        "name": "Vila Clotilde",
        "place": "neighbourhood"
      },
      "geometry": {
        "type": "Point",
        "coordinates": [
          13.2445796,
          -8.8204382
        ]
      },
      "id": "node/2047643761"
    },
    {
      "type": "Feature",
      "properties": {
        "@id": "node/2049304773",
        "name": "Martires de Kifangondo",
        "place": "suburb"
      },
      "geometry": {
        "type": "Point",
        "coordinates": [
          13.2367468,
          -8.8411802
        ]
      },
      "id": "node/2049304773"
    },
    {
      "type": "Feature",
      "properties": {
        "@id": "node/2049308475",
        "name": "Alvalade",
        "place": "neighbourhood"
      },
      "geometry": {
        "type": "Point",
        "coordinates": [
          13.235761,
          -8.8307726
        ]
      },
      "id": "node/2049308475"
    },
    {
      "type": "Feature",
      "properties": {
        "@id": "node/2059695892",
        "name": "Calumbo",
        "place": "suburb",
        "wikidata": "Q9674755"
      },
      "geometry": {
        "type": "Point",
        "coordinates": [
          13.4131159,
          -9.15002
        ]
      },
      "id": "node/2059695892"
    },
    {
      "type": "Feature",
      "properties": {
        "@id": "node/2059695947",
        "place": "suburb"
      },
      "geometry": {
        "type": "Point",
        "coordinates": [
          13.459531,
          -9.0711775
        ]
      },
      "id": "node/2059695947"
    },
    {
      "type": "Feature",
      "properties": {
        "@id": "node/2144226415",
        "place": "neighbourhood"
      },
      "geometry": {
        "type": "Point",
        "coordinates": [
          13.7431209,
          -9.2624948
        ]
      },
      "id": "node/2144226415"
    },
    {
      "type": "Feature",
      "properties": {
        "@id": "node/2173441929",
        "name": "Maculusso",
        "place": "neighbourhood"
      },
      "geometry": {
        "type": "Point",
        "coordinates": [
          13.2420405,
          -8.8227802
        ]
      },
      "id": "node/2173441929"
    },
    {
      "type": "Feature",
      "properties": {
        "@id": "node/2334586751",
        "place": "neighbourhood"
      },
      "geometry": {
        "type": "Point",
        "coordinates": [
          13.3093692,
          -8.8237834
        ]
      },
      "id": "node/2334586751"
    },
    {
      "type": "Feature",
      "properties": {
        "@id": "node/2409458544",
        "name": "Bairro dos Saiotes",
        "place": "suburb"
      },
      "geometry": {
        "type": "Point",
        "coordinates": [
          13.2615243,
          -8.8347589
        ]
      },
      "id": "node/2409458544"
    },
    {
      "type": "Feature",
      "properties": {
        "@id": "node/2409458679",
        "name": "Bairro Indigena",
        "place": "suburb"
      },
      "geometry": {
        "type": "Point",
        "coordinates": [
          13.2581448,
          -8.8271469
        ]
      },
      "id": "node/2409458679"
    },
    {
      "type": "Feature",
      "properties": {
        "@id": "node/2496083138",
        "name": "Bairro Azul",
        "place": "neighbourhood"
      },
      "geometry": {
        "type": "Point",
        "coordinates": [
          13.22189,
          -8.8258862
        ]
      },
      "id": "node/2496083138"
    },
    {
      "type": "Feature",
      "properties": {
        "@id": "node/2741584621",
        "place": "suburb"
      },
      "geometry": {
        "type": "Point",
        "coordinates": [
          13.7752832,
          -9.0779419
        ]
      },
      "id": "node/2741584621"
    },
    {
      "type": "Feature",
      "properties": {
        "@id": "node/2741610183",
        "place": "suburb"
      },
      "geometry": {
        "type": "Point",
        "coordinates": [
          13.9395953,
          -9.0808501
        ]
      },
      "id": "node/2741610183"
    },
    {
      "type": "Feature",
      "properties": {
        "@id": "node/2741610349",
        "place": "suburb"
      },
      "geometry": {
        "type": "Point",
        "coordinates": [
          13.9465049,
          -9.0508565
        ]
      },
      "id": "node/2741610349"
    },
    {
      "type": "Feature",
      "properties": {
        "@id": "node/2741646571",
        "place": "suburb"
      },
      "geometry": {
        "type": "Point",
        "coordinates": [
          13.9219142,
          -9.2307869
        ]
      },
      "id": "node/2741646571"
    },
    {
      "type": "Feature",
      "properties": {
        "@id": "node/2741739997",
        "place": "suburb"
      },
      "geometry": {
        "type": "Point",
        "coordinates": [
          14.0049824,
          -9.1739783
        ]
      },
      "id": "node/2741739997"
    },
    {
      "type": "Feature",
      "properties": {
        "@id": "node/2888580448",
        "name": "Quarteirão Hungu- Bloco A",
        "place": "neighbourhood"
      },
      "geometry": {
        "type": "Point",
        "coordinates": [
          13.2537649,
          -8.9927716
        ]
      },
      "id": "node/2888580448"
    },
    {
      "type": "Feature",
      "properties": {
        "@id": "node/2888596927",
        "name": "Quarteirão- Bloco B",
        "place": "neighbourhood"
      },
      "geometry": {
        "type": "Point",
        "coordinates": [
          13.2578843,
          -8.9926868
        ]
      },
      "id": "node/2888596927"
    },
    {
      "type": "Feature",
      "properties": {
        "@id": "node/2888598801",
        "name": "Quarteirão Marimba- Bloco C",
        "place": "neighbourhood"
      },
      "geometry": {
        "type": "Point",
        "coordinates": [
          13.261972,
          -8.992814
        ]
      },
      "id": "node/2888598801"
    },
    {
      "type": "Feature",
      "properties": {
        "@id": "node/2888612819",
        "name": "Quarteirão Serra da Kanda- Bloco H",
        "place": "neighbourhood"
      },
      "geometry": {
        "type": "Point",
        "coordinates": [
          13.2611137,
          -9.0009942
        ]
      },
      "id": "node/2888612819"
    },
    {
      "type": "Feature",
      "properties": {
        "@id": "node/2888612821",
        "name": "Quarteirão Rio Kwanza- Bloco U",
        "place": "neighbourhood"
      },
      "geometry": {
        "type": "Point",
        "coordinates": [
          13.2713275,
          -9.0003796
        ]
      },
      "id": "node/2888612821"
    },
    {
      "type": "Feature",
      "properties": {
        "@id": "node/2888612822",
        "name": "Quarteirão Ngoma- Bloco F",
        "place": "neighbourhood"
      },
      "geometry": {
        "type": "Point",
        "coordinates": [
          13.2620149,
          -8.9965435
        ]
      },
      "id": "node/2888612822"
    },
    {
      "type": "Feature",
      "properties": {
        "@id": "node/2888612823",
        "name": "Quarteirão Miradouro Da Lua- Bloco G",
        "place": "neighbourhood"
      },
      "geometry": {
        "type": "Point",
        "coordinates": [
          13.2579283,
          -9.0007833
        ]
      },
      "id": "node/2888612823"
    },
    {
      "type": "Feature",
      "properties": {
        "@id": "node/2888612824",
        "name": "Quarteirão Rio Chivango- Bloco Y",
        "place": "neighbourhood"
      },
      "geometry": {
        "type": "Point",
        "coordinates": [
          13.2750611,
          -9.0049256
        ]
      },
      "id": "node/2888612824"
    },
    {
      "type": "Feature",
      "properties": {
        "@id": "node/2888612825",
        "name": "Quarteirão Vale do Pembe- Bloco K",
        "place": "neighbourhood"
      },
      "geometry": {
        "type": "Point",
        "coordinates": [
          13.2619087,
          -9.0042802
        ]
      },
      "id": "node/2888612825"
    },
    {
      "type": "Feature",
      "properties": {
        "@id": "node/2888612826",
        "name": "Quarteirão Rio Curoca- Bloco X",
        "place": "neighbourhood"
      },
      "geometry": {
        "type": "Point",
        "coordinates": [
          13.2700186,
          -9.004693
        ]
      },
      "id": "node/2888612826"
    },
    {
      "type": "Feature",
      "properties": {
        "@id": "node/2888612827",
        "name": "Quarteirão Olombendo- Bloco E",
        "place": "neighbourhood"
      },
      "geometry": {
        "type": "Point",
        "coordinates": [
          13.2576087,
          -8.9964443
        ]
      },
      "id": "node/2888612827"
    },
    {
      "type": "Feature",
      "properties": {
        "@id": "node/2888612828",
        "name": "Quarteirão Batuque- Bloco D",
        "place": "neighbourhood"
      },
      "geometry": {
        "type": "Point",
        "coordinates": [
          13.2541399,
          -8.9962256
        ]
      },
      "id": "node/2888612828"
    },
    {
      "type": "Feature",
      "properties": {
        "@id": "node/2888616789",
        "name": "Quarteirão Rio Chivango - Bloco W",
        "place": "neighbourhood"
      },
      "geometry": {
        "type": "Point",
        "coordinates": [
          13.2789664,
          -9.0009624
        ]
      },
      "id": "node/2888616789"
    },
    {
      "type": "Feature",
      "properties": {
        "@id": "node/2888616790",
        "name": "Quarteirão Rio Cunene- Bloco V",
        "place": "neighbourhood"
      },
      "geometry": {
        "type": "Point",
        "coordinates": [
          13.2750933,
          -9.0006127
        ]
      },
      "id": "node/2888616790"
    },
    {
      "type": "Feature",
      "properties": {
        "@id": "node/2888616791",
        "name": "Quarteirão Ekuikui II- Bloco T",
        "place": "neighbourhood"
      },
      "geometry": {
        "type": "Point",
        "coordinates": [
          13.2789235,
          -8.996427
        ]
      },
      "id": "node/2888616791"
    },
    {
      "type": "Feature",
      "properties": {
        "@id": "node/2888616792",
        "name": "Quarteirão Rio Longa- Bloco Z",
        "place": "neighbourhood"
      },
      "geometry": {
        "type": "Point",
        "coordinates": [
          13.2787948,
          -9.0045653
        ]
      },
      "id": "node/2888616792"
    },
    {
      "type": "Feature",
      "properties": {
        "@id": "node/2888622142",
        "name": "Quarteirão Nzinga Mbandi- Bloco L",
        "place": "neighbourhood"
      },
      "geometry": {
        "type": "Point",
        "coordinates": [
          13.2678846,
          -8.992814
        ]
      },
      "id": "node/2888622142"
    },
    {
      "type": "Feature",
      "properties": {
        "@id": "node/2888622143",
        "name": "Quarteirão Nhaca Tolo- Bloco N",
        "place": "neighbourhood"
      },
      "geometry": {
        "type": "Point",
        "coordinates": [
          13.2754903,
          -8.992877
        ]
      },
      "id": "node/2888622143"
    },
    {
      "type": "Feature",
      "properties": {
        "@id": "node/2888622144",
        "name": "Quarteirão Mini-Ya-Lukene- Bloco Q",
        "place": "neighbourhood"
      },
      "geometry": {
        "type": "Point",
        "coordinates": [
          13.2682054,
          -8.9963104
        ]
      },
      "id": "node/2888622144"
    },
    {
      "type": "Feature",
      "properties": {
        "@id": "node/2888622145",
        "name": "Quarteirão Bula Matadi- Bloco R",
        "place": "neighbourhood"
      },
      "geometry": {
        "type": "Point",
        "coordinates": [
          13.2715957,
          -8.9964487
        ]
      },
      "id": "node/2888622145"
    },
    {
      "type": "Feature",
      "properties": {
        "@id": "node/2888622146",
        "name": "Quarteirão Kimpavita- Bloco P",
        "place": "neighbourhood"
      },
      "geometry": {
        "type": "Point",
        "coordinates": [
          13.278827,
          -8.9930042
        ]
      },
      "id": "node/2888622146"
    },
    {
      "type": "Feature",
      "properties": {
        "@id": "node/2888622147",
        "name": "Quarteirão N'gola M'bandi- Bloco M",
        "place": "neighbourhood"
      },
      "geometry": {
        "type": "Point",
        "coordinates": [
          13.2717888,
          -8.9930148
        ]
      },
      "id": "node/2888622147"
    },
    {
      "type": "Feature",
      "properties": {
        "@id": "node/2888622148",
        "name": "Quarteirão Rei Katiavala- Bloco S",
        "place": "neighbourhood"
      },
      "geometry": {
        "type": "Point",
        "coordinates": [
          13.2749431,
          -8.99648
        ]
      },
      "id": "node/2888622148"
    },
    {
      "type": "Feature",
      "properties": {
        "@id": "node/2985906527",
        "name": "Jacinto Chipa",
        "place": "suburb"
      },
      "geometry": {
        "type": "Point",
        "coordinates": [
          13.3327631,
          -8.9235683
        ]
      },
      "id": "node/2985906527"
    },
    {
      "type": "Feature",
      "properties": {
        "@id": "node/3066930121",
        "name": "Rocha Pinto",
        "place": "suburb"
      },
      "geometry": {
        "type": "Point",
        "coordinates": [
          13.2131886,
          -8.8579198
        ]
      },
      "id": "node/3066930121"
    },
    {
      "type": "Feature",
      "properties": {
        "@id": "node/3068041551",
        "name": "Grafanil Bar",
        "place": "suburb"
      },
      "geometry": {
        "type": "Point",
        "coordinates": [
          13.3108054,
          -8.8648487
        ]
      },
      "id": "node/3068041551"
    },
    {
      "type": "Feature",
      "properties": {
        "@id": "node/3079627351",
        "name": "Calemba",
        "place": "suburb"
      },
      "geometry": {
        "type": "Point",
        "coordinates": [
          13.2497256,
          -8.8386404
        ]
      },
      "id": "node/3079627351"
    },
    {
      "type": "Feature",
      "properties": {
        "@id": "node/3103327312",
        "name": "Bairro da Bandeira",
        "place": "suburb"
      },
      "geometry": {
        "type": "Point",
        "coordinates": [
          13.1351915,
          -9.004073
        ]
      },
      "id": "node/3103327312"
    },
    {
      "type": "Feature",
      "properties": {
        "@id": "node/3207286984",
        "name": "Estalagem",
        "place": "suburb"
      },
      "geometry": {
        "type": "Point",
        "coordinates": [
          13.3355037,
          -8.8811816
        ]
      },
      "id": "node/3207286984"
    },
    {
      "type": "Feature",
      "properties": {
        "@id": "node/3769013450",
        "name": "Bairro Matadouro",
        "place": "suburb"
      },
      "geometry": {
        "type": "Point",
        "coordinates": [
          13.1139522,
          -8.9791031
        ]
      },
      "id": "node/3769013450"
    },
    {
      "type": "Feature",
      "properties": {
        "@id": "node/3771391187",
        "name": "Bairro do Chinguar",
        "place": "suburb"
      },
      "geometry": {
        "type": "Point",
        "coordinates": [
          13.1556327,
          -8.9613013
        ]
      },
      "id": "node/3771391187"
    },
    {
      "type": "Feature",
      "properties": {
        "@id": "node/4191329620",
        "designation": "Bacia Aguas Residuais",
        "name": "Bacia de Retenção do Coelho",
        "old_name": "Rio Coelho",
        "place": "suburb"
      },
      "geometry": {
        "type": "Point",
        "coordinates": [
          13.3235601,
          -8.8739265
        ]
      },
      "id": "node/4191329620"
    },
    {
      "type": "Feature",
      "properties": {
        "@id": "node/4314589818",
        "name": "Bairro Neves Bendinha (Ex Bairro Popular)",
        "place": "neighbourhood"
      },
      "geometry": {
        "type": "Point",
        "coordinates": [
          13.2608733,
          -8.8437378
        ]
      },
      "id": "node/4314589818"
    },
    {
      "type": "Feature",
      "properties": {
        "@id": "node/4780449586",
        "name": "Morro Bento II",
        "place": "neighbourhood"
      },
      "geometry": {
        "type": "Point",
        "coordinates": [
          13.2105969,
          -8.8919363
        ]
      },
      "id": "node/4780449586"
    },
    {
      "type": "Feature",
      "properties": {
        "@id": "node/5563069763",
        "name": "Morro Bento I",
        "place": "neighbourhood"
      },
      "geometry": {
        "type": "Point",
        "coordinates": [
          13.1888278,
          -8.8991811
        ]
      },
      "id": "node/5563069763"
    },
    {
      "type": "Feature",
      "properties": {
        "@id": "node/7179696135",
        "name": "Centralidade do Zango V",
        "name:de": "Zango V Zentralität",
        "name:en": "Zango V Centrality",
        "name:es": "Centralidad de Zango V",
        "name:fr": "Centralité de Zango V",
        "name:it": "Centralità di Zango V",
        "name:nl": "Zango V Centraliteit",
        "name:pl": "Zango V Centralność",
        "name:pt": "Centralidade do Zango V",
        "name:ru": "Занго V Центральность",
        "place": "neighbourhood"
      },
      "geometry": {
        "type": "Point",
        "coordinates": [
          13.4599173,
          -9.0849985
        ]
      },
      "id": "node/7179696135"
    },
    {
      "type": "Feature",
      "properties": {
        "@id": "node/7179777912",
        "name": "Urbanização Nova Vida",
        "name:de": "Neues Leben Urbanisierung",
        "name:en": "New Life Urbanization",
        "name:es": "Urbanización Nueva Vida",
        "name:fr": "Urbanisation Nouvelle Vie",
        "name:it": "Urbanizzazione Nuova Vita",
        "name:nl": "Nieuw Leven Verstedelijking",
        "name:pl": "Nowe Życie Urbanizacja",
        "name:pt": "Urbanização Nova Vida",
        "name:ru": "Урбанизация Новая Жизнь",
        "place": "neighbourhood"
      },
      "geometry": {
        "type": "Point",
        "coordinates": [
          13.2305372,
          -8.9071488
        ]
      },
      "id": "node/7179777912"
    },
    {
      "type": "Feature",
      "properties": {
        "@id": "node/8600398369",
        "name": "Bairro Vitrona",
        "place": "neighbourhood"
      },
      "geometry": {
        "type": "Point",
        "coordinates": [
          13.1487969,
          -9.106279
        ]
      },
      "id": "node/8600398369"
    },
    {
      "type": "Feature",
      "properties": {
        "@id": "node/9812019148",
        "name": "Xuxa Dela",
        "place": "suburb"
      },
      "geometry": {
        "type": "Point",
        "coordinates": [
          13.1420172,
          -8.9844154
        ]
      },
      "id": "node/9812019148"
    },
    {
      "type": "Feature",
      "properties": {
        "@id": "node/9997679499",
        "name": "Bairro Cabolombo",
        "place": "neighbourhood"
      },
      "geometry": {
        "type": "Point",
        "coordinates": [
          13.1680179,
          -8.9294643
        ]
      },
      "id": "node/9997679499"
    },
    {
      "type": "Feature",
      "properties": {
        "@id": "node/10044109286",
        "name": "Bairro da Nzinga Mbandi",
        "place": "neighbourhood"
      },
      "geometry": {
        "type": "Point",
        "coordinates": [
          13.2452436,
          -9.100911
        ]
      },
      "id": "node/10044109286"
    },
    {
      "type": "Feature",
      "properties": {
        "@id": "node/10046403528",
        "name": "Bairro da Mabor",
        "place": "neighbourhood"
      },
      "geometry": {
        "type": "Point",
        "coordinates": [
          13.3147313,
          -8.8155037
        ]
      },
      "id": "node/10046403528"
    },
    {
      "type": "Feature",
      "properties": {
        "@id": "node/10046425556",
        "name": "Bairro São Pedro da Barra",
        "place": "neighbourhood"
      },
      "geometry": {
        "type": "Point",
        "coordinates": [
          13.2938437,
          -8.7887346
        ]
      },
      "id": "node/10046425556"
    },
    {
      "type": "Feature",
      "properties": {
        "@id": "node/11495808212",
        "name": "Bairro Militar",
        "place": "neighbourhood"
      },
      "geometry": {
        "type": "Point",
        "coordinates": [
          13.2116539,
          -8.9100644
        ]
      },
      "id": "node/11495808212"
    },
    {
      "type": "Feature",
      "properties": {
        "@id": "node/11993337586",
        "name": "Caxicane",
        "place": "neighbourhood"
      },
      "geometry": {
        "type": "Point",
        "coordinates": [
          13.7274407,
          -9.2171095
        ]
      },
      "id": "node/11993337586"
    },
    {
      "type": "Feature",
      "properties": {
        "@id": "node/11993349760",
        "name:pt": "Bairro Rotunda",
        "place": "neighbourhood"
      },
      "geometry": {
        "type": "Point",
        "coordinates": [
          13.6874964,
          -9.1044306
        ]
      },
      "id": "node/11993349760"
    },
    {
      "type": "Feature",
      "properties": {
        "@id": "node/11993349761",
        "name": "Tari",
        "place": "neighbourhood"
      },
      "geometry": {
        "type": "Point",
        "coordinates": [
          13.6948756,
          -9.1143314
        ]
      },
      "id": "node/11993349761"
    },
    {
      "type": "Feature",
      "properties": {
        "@id": "node/12839621670",
        "is_in": "Angola;Luanda",
        "name": "Patriota",
        "place": "suburb"
      },
      "geometry": {
        "type": "Point",
        "coordinates": [
          13.2014057,
          -8.9505281
        ]
      },
      "id": "node/12839621670"
    },
    {
      "type": "Feature",
      "properties": {
        "@id": "node/13072124633",
        "alt_name": "Praia da Areia Branca",
        "name": "Areia Branca",
        "place": "neighbourhood"
      },
      "geometry": {
        "type": "Point",
        "coordinates": [
          13.2085007,
          -8.8263796
        ]
      },
      "id": "node/13072124633"
    }
  ]
}
