{
"type": "FeatureCollection",
"name": "bairros_com_municipio",
"crs": { "type": "name", "properties": { "name": "urn:ogc:def:crs:OGC:1.3:CRS84" } },
"features": [
{ "type": "Feature", "properties": { "name": "Urbanização Nova Vida", "municipality": "Maianga", "risk": "Alto", "population": 50000 }, "geometry": { "type": "Point", "coordinates": [ 13.2299477, -8.9072958 ] } },
{ "type": "Feature", "properties": { "name": "Calemba 2", "municipality": "Viana", "risk": "Alto", "population": 50000 }, "geometry": { "type": "Point", "coordinates": [ 13.2695279, -8.9013802 ] } },
{ "type": "Feature", "properties": { "name": "Distrito do Kilamba Kiaxe", "municipality": "Maianga", "risk": "Alto", "population": 50000 }, "geometry": { "type": "Point", "coordinates": [ 13.2505403, -8.8659013 ] } },
{ "type": "Feature", "properties": { "name": "Bairro Mande", "municipality": "Samba", "risk": "Alto", "population": 50000 }, "geometry": { "type": "Point", "coordinates": [ 13.1512944, -8.9847054 ] } },
{ "type": "Feature", "properties": { "name": "Galenha/Mirantes", "municipality": "Samba", "risk": "Alto", "population": 50000 }, "geometry": { "type": "Point", "coordinates": [ 13.1742181, -8.9166957 ] } },
{ "type": "Feature", "properties": { "name": "Cassenda", "municipality": "Maianga", "risk": "Alto", "population": 50000 }, "geometry": { "type": "Point", "coordinates": [ 13.2288331, -8.8449267 ] } },
{ "type": "Feature", "properties": { "name": "Bairro da Cambamba", "municipality": "Camama", "risk": "Alto", "population": 50000 }, "geometry": { "type": "Point", "coordinates": [ 13.2174759, -8.9173093 ] } },
{ "type": "Feature", "properties": { "name": "Bairro Neves Bendinha", "municipality": "Rangel", "risk": "Muito Alto", "population": 50000 }, "geometry": { "type": "Point", "coordinates": [ 13.2666961, -8.8482944 ] } },
{ "type": "Feature", "properties": { "name": "Bairro Kifica", "municipality": "Samba", "risk": "Alto", "population": 50000 }, "geometry": { "type": "Point", "coordinates": [ 13.1823308, -8.9501136 ] } },
{ "type": "Feature", "properties": { "name": "Futungo I", "municipality": "Samba", "risk": "Alto", "population": 50000 }, "geometry": { "type": "Point", "coordinates": [ 13.1683794, -8.9124279 ] } },
{ "type": "Feature", "properties": { "name": "Futungo II", "municipality": "Samba", "risk": "Alto", "population": 50000 }, "geometry": { "type": "Point", "coordinates": [ 13.1712148, -8.8992847 ] } },
{ "type": "Feature", "properties": { "name": "Prenda", "municipality": "Maianga", "risk": "Alto", "population": 50000 }, "geometry": { "type": "Point", "coordinates": [ 13.2218077, -8.8385399 ] } },
{ "type": "Feature", "properties": { "name": "Bairro Militar", "municipality": "Maianga", "risk": "Alto", "population": 50000 }, "geometry": { "type": "Point", "coordinates": [ 13.2202597, -8.9035626 ] } },
{ "type": "Feature", "properties": { "name": "Morro Bento II", "municipality": "Maianga", "risk": "Alto", "population": 50000 }, "geometry": { "type": "Point", "coordinates": [ 13.2099308, -8.8896221 ] } },
{ "type": "Feature", "properties": { "name": "Bairro Marçal", "municipality": "Rangel", "risk": "Muito Alto", "population": 50000 }, "geometry": { "type": "Point", "coordinates": [ 13.2579517, -8.8214589 ] } },
{ "type": "Feature", "properties": { "name": "Valódia", "municipality": "Ingombota", "risk": "Médio", "population": 50000 }, "geometry": { "type": "Point", "coordinates": [ 13.2507578, -8.820963 ] } },
{ "type": "Feature", "properties": { "name": "Combatentes", "municipality": "Ingombota", "risk": "Médio", "population": 50000 }, "geometry": { "type": "Point", "coordinates": [ 13.2516792, -8.8181918 ] } },
{ "type": "Feature", "properties": { "name": "Calemba", "municipality": "Maianga", "risk": "Alto", "population": 50000 }, "geometry": { "type": "Point", "coordinates": [ 13.2495175, -8.8386129 ] } },
{ "type": "Feature", "properties": { "name": "Projecto Crédito Jovem", "municipality": "Viana", "risk": "Alto", "population": 50000 }, "geometry": { "type": "Point", "coordinates": [ 13.2555106, -8.9377805 ] } },
{ "type": "Feature", "properties": { "name": "Chimbicato", "municipality": "Viana", "risk": "Alto", "population": 50000 }, "geometry": { "type": "Point", "coordinates": [ 13.2513636, -8.9332702 ] } },
{ "type": "Feature", "properties": { "name": "Fubú", "municipality": "Camama", "risk": "Alto", "population": 50000 }, "geometry": { "type": "Point", "coordinates": [ 13.2251021, -8.9262349 ] } },
{ "type": "Feature", "properties": { "name": "Iraque", "municipality": "Viana", "risk": "Alto", "population": 50000 }, "geometry": { "type": "Point", "coordinates": [ 13.2505615, -8.9135148 ] } },
{ "type": "Feature", "properties": { "name": "Morro da Luz", "municipality": "Maianga", "risk": "Alto", "population": 50000 }, "geometry": { "type": "Point", "coordinates": [ 13.2063809, -8.8651341 ] } },
{ "type": "Feature", "properties": { "name": "Bairro 30", "municipality": "Viana", "risk": "Alto", "population": 50000 }, "geometry": { "type": "Point", "coordinates": [ 13.4762191, -8.9765895 ] } },
{ "type": "Feature", "properties": { "name": "Miramar", "municipality": "Ingombota", "risk": "Médio", "population": 50000 }, "geometry": { "type": "Point", "coordinates": [ 13.2488398, -8.8087611 ] } },
{ "type": "Feature", "properties": { "name": "Benfica", "municipality": "Samba", "risk": "Alto", "population": 50000 }, "geometry": { "type": "Point", "coordinates": [ 13.1901626, -8.9640285 ] } },
{ "type": "Feature", "properties": { "name": "Quifica", "municipality": "Samba", "risk": "Alto", "population": 50000 }, "geometry": { "type": "Point", "coordinates": [ 13.1633226, -8.9588913 ] } },
{ "type": "Feature", "properties": { "name": "Vila Alice", "municipality": "Rangel", "risk": "Muito Alto", "population": 50000 }, "geometry": { "type": "Point", "coordinates": [ 13.2502261, -8.8269164 ] } },
{ "type": "Feature", "properties": { "name": "Bairro Operario", "municipality": "Ingombota", "risk": "Médio", "population": 50000 }, "geometry": { "type": "Point", "coordinates": [ 13.2467117, -8.8136659 ] } },
{ "type": "Feature", "properties": { "name": "Sapu km 12", "municipality": "Viana", "risk": "Alto", "population": 50000 }, "geometry": { "type": "Point", "coordinates": [ 13.3315027, -8.8975362 ] } },
{ "type": "Feature", "properties": { "name": "Talatona", "municipality": "Samba", "risk": "Alto", "population": 50000 }, "geometry": { "type": "Point", "coordinates": [ 13.1911229, -8.9205561 ] } },
{ "type": "Feature", "properties": { "name": "Prenda", "municipality": "Maianga", "risk": "Alto", "population": 50000 }, "geometry": { "type": "Point", "coordinates": [ 13.2226291, -8.8368115 ] } },
{ "type": "Feature", "properties": { "name": "Cassenda", "municipality": "Maianga", "risk": "Alto", "population": 50000 }, "geometry": { "type": "Point", "coordinates": [ 13.2295263, -8.8453029 ] } },
{ "type": "Feature", "properties": { "name": "Vila Alice", "municipality": "Rangel", "risk": "Muito Alto", "population": 50000 }, "geometry": { "type": "Point", "coordinates": [ 13.2476469, -8.8267641 ] } },
{ "type": "Feature", "properties": { "name": "São Paulo", "municipality": "Sambizanga", "risk": "Muito Alto", "population": 50000 }, "geometry": { "type": "Point", "coordinates": [ 13.2559223, -8.8135247 ] } },
{ "type": "Feature", "properties": { "name": "Cuca", "municipality": "Cazenga", "risk": "Muito Alto", "population": 50000 }, "geometry": { "type": "Point", "coordinates": [ 13.2773103, -8.8152316 ] } },
{ "type": "Feature", "properties": { "name": "Maianga", "municipality": "Maianga", "risk": "Alto", "population": 50000 }, "geometry": { "type": "Point", "coordinates": [ 13.2303908, -8.8267755 ] } },
{ "type": "Feature", "properties": { "name": "Camama", "municipality": "Viana", "risk": "Alto", "population": 50000 }, "geometry": { "type": "Point", "coordinates": [ 13.2647271, -8.9402366 ] } },
{ "type": "Feature", "properties": { "name": "Boavista", "municipality": "Ingombota", "risk": "Médio", "population": 50000 }, "geometry": { "type": "Point", "coordinates": [ 13.2633994, -8.8016755 ] } },
{ "type": "Feature", "properties": { "name": "Sambizanga", "municipality": "Sambizanga", "risk": "Muito Alto", "population": 50000 }, "geometry": { "type": "Point", "coordinates": [ 13.2715131, -8.8043556 ] } },
{ "type": "Feature", "properties": { "name": "Benfica", "municipality": "Samba", "risk": "Alto", "population": 50000 }, "geometry": { "type": "Point", "coordinates": [ 13.1639942, -8.944328 ] } },
{ "type": "Feature", "properties": { "name": "Bairro Mundimba", "municipality": "Viana", "risk": "Alto", "population": 50000 }, "geometry": { "type": "Point", "coordinates": [ 13.3933616, -8.9883615 ] } },
{ "type": "Feature", "properties": { "name": "Sector 4", "municipality": "Viana", "risk": "Alto", "population": 50000 }, "geometry": { "type": "Point", "coordinates": [ 13.2672128, -8.9236816 ] } },
{ "type": "Feature", "properties": { "name": "Vila Chinesa", "municipality": "Viana", "risk": "Alto", "population": 50000 }, "geometry": { "type": "Point", "coordinates": [ 13.3768985, -8.9429109 ] } },
{ "type": "Feature", "properties": { "name": "Bairro Cabolombo", "municipality": "Samba", "risk": "Alto", "population": 50000 }, "geometry": { "type": "Point", "coordinates": [ 13.1673709, -8.9297646 ] } },
{ "type": "Feature", "properties": { "name": "Sector 11A", "municipality": "Rangel", "risk": "Muito Alto", "population": 50000 }, "geometry": { "type": "Point", "coordinates": [ 13.2755452, -8.8814105 ] } },
{ "type": "Feature", "properties": { "name": "Triangulo", "municipality": "Rangel", "risk": "Muito Alto", "population": 50000 }, "geometry": { "type": "Point", "coordinates": [ 13.2676749, -8.8314666 ] } },
{ "type": "Feature", "properties": { "name": "Kapalanga", "municipality": "Viana", "risk": "Alto", "population": 50000 }, "geometry": { "type": "Point", "coordinates": [ 13.3915178, -8.911638 ] } },
{ "type": "Feature", "properties": { "name": "Kapalanga II", "municipality": "Viana", "risk": "Alto", "population": 50000 }, "geometry": { "type": "Point", "coordinates": [ 13.3913462, -8.9034976 ] } },
{ "type": "Feature", "properties": { "name": "Bairro das Tendas", "municipality": "Samba", "risk": "Alto", "population": 50000 }, "geometry": { "type": "Point", "coordinates": [ 13.1469098, -8.9794935 ] } },
{ "type": "Feature", "properties": { "name": "Bairro Mande", "municipality": "Samba", "risk": "Alto", "population": 50000 }, "geometry": { "type": "Point", "coordinates": [ 13.1506446, -8.9855596 ] } },
{ "type": "Feature", "properties": { "name": "Bairro das Tendas", "municipality": "Samba", "risk": "Alto", "population": 50000 }, "geometry": { "type": "Point", "coordinates": [ 13.1554611, -8.9718602 ] } },
{ "type": "Feature", "properties": { "name": "Zona Verde", "municipality": "Samba", "risk": "Alto", "population": 50000 }, "geometry": { "type": "Point", "coordinates": [ 13.179005, -8.9857332 ] } },
{ "type": "Feature", "properties": { "name": "Precol", "municipality": "Rangel", "risk": "Muito Alto", "population": 50000 }, "geometry": { "type": "Point", "coordinates": [ 13.2699647, -8.8218393 ] } },
{ "type": "Feature", "properties": { "name": "Bairro dos CTT", "municipality": "Rangel", "risk": "Muito Alto", "population": 50000 }, "geometry": { "type": "Point", "coordinates": [ 13.2656303, -8.8174395 ] } },
{ "type": "Feature", "properties": { "name": "Terra Nova", "municipality": "Rangel", "risk": "Muito Alto", "population": 50000 }, "geometry": { "type": "Point", "coordinates": [ 13.2680979, -8.8367559 ] } },
{ "type": "Feature", "properties": { "name": "Bairro Nelito Soares", "municipality": "Rangel", "risk": "Muito Alto", "population": 50000 }, "geometry": { "type": "Point", "coordinates": [ 13.2591297, -8.8309049 ] } },
{ "type": "Feature", "properties": { "name": "Marcal", "municipality": "Rangel", "risk": "Muito Alto", "population": 50000 }, "geometry": { "type": "Point", "coordinates": [ 13.2582917, -8.8202809 ] } },
{ "type": "Feature", "properties": { "name": "Cassequel do Buraco", "municipality": "Maianga", "risk": "Alto", "population": 50000 }, "geometry": { "type": "Point", "coordinates": [ 13.2483671, -8.8421891 ] } },
{ "type": "Feature", "properties": { "name": "Cassequel", "municipality": "Maianga", "risk": "Alto", "population": 50000 }, "geometry": { "type": "Point", "coordinates": [ 13.248174, -8.8491329 ] } },
{ "type": "Feature", "properties": { "name": "Palanca", "municipality": "Rangel", "risk": "Muito Alto", "population": 50000 }, "geometry": { "type": "Point", "coordinates": [ 13.2660695, -8.8607037 ] } },
{ "type": "Feature", "properties": { "name": "Onjo-Yeto", "municipality": "Viana", "risk": "Alto", "population": 50000 }, "geometry": { "type": "Point", "coordinates": [ 13.3029526, -8.9115862 ] } },
{ "type": "Feature", "properties": { "name": "Sapu", "municipality": "Viana", "risk": "Alto", "population": 50000 }, "geometry": { "type": "Point", "coordinates": [ 13.3080216, -8.9339035 ] } },
{ "type": "Feature", "properties": { "name": "Projecto Crédito Jovem", "municipality": "Viana", "risk": "Alto", "population": 50000 }, "geometry": { "type": "Point", "coordinates": [ 13.2547882, -8.937348 ] } },
{ "type": "Feature", "properties": { "name": "Chimbicato", "municipality": "Viana", "risk": "Alto", "population": 50000 }, "geometry": { "type": "Point", "coordinates": [ 13.2483913, -8.9311326 ] } },
{ "type": "Feature", "properties": { "name": "Iraque", "municipality": "Viana", "risk": "Alto", "population": 50000 }, "geometry": { "type": "Point", "coordinates": [ 13.2484072, -8.9211255 ] } },
{ "type": "Feature", "properties": { "name": "Fubu", "municipality": "Camama", "risk": "Alto", "population": 50000 }, "geometry": { "type": "Point", "coordinates": [ 13.2304632, -8.9313418 ] } },
{ "type": "Feature", "properties": { "name": "Dangereux", "municipality": "Samba", "risk": "Alto", "population": 50000 }, "geometry": { "type": "Point", "coordinates": [ 13.2082813, -8.9331234 ] } },
{ "type": "Feature", "properties": { "name": "Bairro Sossego", "municipality": "Samba", "risk": "Alto", "population": 50000 }, "geometry": { "type": "Point", "coordinates": [ 13.2184942, -9.0011476 ] } },
{ "type": "Feature", "properties": { "name": "Kifangondo", "municipality": "Cacuaco", "risk": "Muito Alto", "population": 50000 }, "geometry": { "type": "Point", "coordinates": [ 13.4239856, -8.7633837 ] } },
{ "type": "Feature", "properties": { "name": "500 casas", "municipality": "Viana", "risk": "Alto", "population": 50000 }, "geometry": { "type": "Point", "coordinates": [ 13.3707156, -8.9367855 ] } },
{ "type": "Feature", "properties": { "name": "Vila Chinesa", "municipality": "Viana", "risk": "Alto", "population": 50000 }, "geometry": { "type": "Point", "coordinates": [ 13.3766031, -8.9427111 ] } },
{ "type": "Feature", "properties": { "name": "Zona Verde II", "municipality": "Samba", "risk": "Alto", "population": 50000 }, "geometry": { "type": "Point", "coordinates": [ 13.1880943, -9.0062537 ] } },
{ "type": "Feature", "properties": { "name": "Tala-Hady", "municipality": "Cazenga", "risk": "Muito Alto", "population": 50000 }, "geometry": { "type": "Point", "coordinates": [ 13.2795293, -8.8383568 ] } },
{ "type": "Feature", "properties": { "name": "Cariango", "municipality": "Cazenga", "risk": "Muito Alto", "population": 50000 }, "geometry": { "type": "Point", "coordinates": [ 13.2813746, -8.8356948 ] } },
{ "type": "Feature", "properties": { "name": "Cazenga Popular", "municipality": "Cazenga", "risk": "Muito Alto", "population": 50000 }, "geometry": { "type": "Point", "coordinates": [ 13.287747, -8.8335326 ] } },
{ "type": "Feature", "properties": { "name": "Patricio", "municipality": "Cazenga", "risk": "Muito Alto", "population": 50000 }, "geometry": { "type": "Point", "coordinates": [ 13.2868243, -8.8210438 ] } },
{ "type": "Feature", "properties": { "name": "Mabor", "municipality": "Cazenga", "risk": "Muito Alto", "population": 50000 }, "geometry": { "type": "Point", "coordinates": [ 13.3067371, -8.7941139 ] } },
{ "type": "Feature", "properties": { "name": "Bairro Kikolo", "municipality": "Cacuaco", "risk": "Muito Alto", "population": 50000 }, "geometry": { "type": "Point", "coordinates": [ 13.3326579, -8.7896501 ] } },
{ "type": "Feature", "properties": { "name": "Golf II", "municipality": "Maianga", "risk": "Alto", "population": 50000 }, "geometry": { "type": "Point", "coordinates": [ 13.2529023, -8.879369 ] } },
{ "type": "Feature", "properties": { "name": "Golf", "municipality": "Rangel", "risk": "Muito Alto", "population": 50000 }, "geometry": { "type": "Point", "coordinates": [ 13.2567861, -8.8620478 ] } },
{ "type": "Feature", "properties": { "name": "Bairro Mundial", "municipality": "Samba", "risk": "Alto", "population": 50000 }, "geometry": { "type": "Point", "coordinates": [ 13.1279968, -8.9962496 ] } },
{ "type": "Feature", "properties": { "name": "Kinanga", "municipality": "Ingombota", "risk": "Médio", "population": 50000 }, "geometry": { "type": "Point", "coordinates": [ 13.2239267, -8.8185685 ] } },
{ "type": "Feature", "properties": { "name": "Praia do Bispo", "municipality": "Ingombota", "risk": "Médio", "population": 50000 }, "geometry": { "type": "Point", "coordinates": [ 13.2205632, -8.8194855 ] } },
{ "type": "Feature", "properties": { "name": "Coreia", "municipality": "Ingombota", "risk": "Médio", "population": 50000 }, "geometry": { "type": "Point", "coordinates": [ 13.2183262, -8.8275642 ] } },
{ "type": "Feature", "properties": { "name": "Samba", "municipality": "Samba", "risk": "Alto", "population": 50000 }, "geometry": { "type": "Point", "coordinates": [ 13.212125, -8.8387912 ] } },
{ "type": "Feature", "properties": { "name": "Mabunda", "municipality": "Samba", "risk": "Alto", "population": 50000 }, "geometry": { "type": "Point", "coordinates": [ 13.2076618, -8.8483112 ] } },
{ "type": "Feature", "properties": { "name": "Corimba", "municipality": "Maianga", "risk": "Alto", "population": 50000 }, "geometry": { "type": "Point", "coordinates": [ 13.1997546, -8.8651984 ] } },
{ "type": "Feature", "properties": { "name": "Gamek a Direita", "municipality": "Maianga", "risk": "Alto", "population": 50000 }, "geometry": { "type": "Point", "coordinates": [ 13.202431, -8.8840544 ] } },
{ "type": "Feature", "properties": { "name": "Gamek", "municipality": "Maianga", "risk": "Alto", "population": 50000 }, "geometry": { "type": "Point", "coordinates": [ 13.2080373, -8.8894838 ] } },
{ "type": "Feature", "properties": { "name": "Bairro das Salinas", "municipality": "Samba", "risk": "Alto", "population": 50000 }, "geometry": { "type": "Point", "coordinates": [ 13.1446148, -8.9737469 ] } },
{ "type": "Feature", "properties": { "name": "Comissão do Rangel", "municipality": "Rangel", "risk": "Muito Alto", "population": 50000 }, "geometry": { "type": "Point", "coordinates": [ 13.272378, -8.8313793 ] } },
{ "type": "Feature", "properties": { "name": "Valódia", "municipality": "Ingombota", "risk": "Médio", "population": 50000 }, "geometry": { "type": "Point", "coordinates": [ 13.2506414, -8.8206078 ] } },
{ "type": "Feature", "properties": { "name": "Combatentes", "municipality": "Ingombota", "risk": "Médio", "population": 50000 }, "geometry": { "type": "Point", "coordinates": [ 13.2538707, -8.8177877 ] } },
{ "type": "Feature", "properties": { "name": "Cruzeiro", "municipality": "Ingombota", "risk": "Médio", "population": 50000 }, "geometry": { "type": "Point", "coordinates": [ 13.2504375, -8.8107161 ] } },
{ "type": "Feature", "properties": { "name": "Miramar", "municipality": "Ingombota", "risk": "Médio", "population": 50000 }, "geometry": { "type": "Point", "coordinates": [ 13.2490368, -8.8093346 ] } },
{ "type": "Feature", "properties": { "name": "Coqueiros", "municipality": "Ingombota", "risk": "Médio", "population": 50000 }, "geometry": { "type": "Point", "coordinates": [ 13.2268984, -8.8135363 ] } },
{ "type": "Feature", "properties": { "name": "Mutamba", "municipality": "Ingombota", "risk": "Médio", "population": 50000 }, "geometry": { "type": "Point", "coordinates": [ 13.2323702, -8.8150577 ] } },
{ "type": "Feature", "properties": { "name": "Bairro Operario", "municipality": "Ingombota", "risk": "Médio", "population": 50000 }, "geometry": { "type": "Point", "coordinates": [ 13.2478456, -8.8137964 ] } },
{ "type": "Feature", "properties": { "name": "Zangado", "municipality": "Rangel", "risk": "Muito Alto", "population": 50000 }, "geometry": { "type": "Point", "coordinates": [ 13.2620568, -8.8220285 ] } },
{ "type": "Feature", "properties": { "name": "Vila Clotilde", "municipality": "Ingombota", "risk": "Médio", "population": 50000 }, "geometry": { "type": "Point", "coordinates": [ 13.2445796, -8.8204382 ] } },
{ "type": "Feature", "properties": { "name": "Martires de Kifangondo", "municipality": "Maianga", "risk": "Alto", "population": 50000 }, "geometry": { "type": "Point", "coordinates": [ 13.2367468, -8.8411802 ] } },
{ "type": "Feature", "properties": { "name": "Alvalade", "municipality": "Maianga", "risk": "Alto", "population": 50000 }, "geometry": { "type": "Point", "coordinates": [ 13.235761, -8.8307726 ] } },
{ "type": "Feature", "properties": { "name": "Calumbo", "municipality": "Viana", "risk": "Alto", "population": 50000 }, "geometry": { "type": "Point", "coordinates": [ 13.4131159, -9.15002 ] } },
{ "type": "Feature", "properties": { "name": "Maculusso", "municipality": "Ingombota", "risk": "Médio", "population": 50000 }, "geometry": { "type": "Point", "coordinates": [ 13.2420405, -8.8227802 ] } },
{ "type": "Feature", "properties": { "name": "Bairro dos Saiotes", "municipality": "Rangel", "risk": "Muito Alto", "population": 50000 }, "geometry": { "type": "Point", "coordinates": [ 13.2615243, -8.8347589 ] } },
{ "type": "Feature", "properties": { "name": "Bairro Indigena", "municipality": "Rangel", "risk": "Muito Alto", "population": 50000 }, "geometry": { "type": "Point", "coordinates": [ 13.2581448, -8.8271469 ] } },
{ "type": "Feature", "properties": { "name": "Bairro Azul", "municipality": "Ingombota", "risk": "Médio", "population": 50000 }, "geometry": { "type": "Point", "coordinates": [ 13.22189, -8.8258862 ] } },
{ "type": "Feature", "properties": { "name": "Jacinto Chipa", "municipality": "Viana", "risk": "Alto", "population": 50000 }, "geometry": { "type": "Point", "coordinates": [ 13.3327631, -8.9235683 ] } },
{ "type": "Feature", "properties": { "name": "Rocha Pinto", "municipality": "Maianga", "risk": "Alto", "population": 50000 }, "geometry": { "type": "Point", "coordinates": [ 13.2131886, -8.8579198 ] } },
{ "type": "Feature", "properties": { "name": "Grafanil Bar", "municipality": "Viana", "risk": "Alto", "population": 50000 }, "geometry": { "type": "Point", "coordinates": [ 13.3108054, -8.8648487 ] } },
{ "type": "Feature", "properties": { "name": "Calemba", "municipality": "Maianga", "risk": "Alto", "population": 50000 }, "geometry": { "type": "Point", "coordinates": [ 13.2497256, -8.8386404 ] } },
{ "type": "Feature", "properties": { "name": "Bairro da Bandeira", "municipality": "Samba", "risk": "Alto", "population": 50000 }, "geometry": { "type": "Point", "coordinates": [ 13.1351915, -9.004073 ] } },
{ "type": "Feature", "properties": { "name": "Estalagem", "municipality": "Viana", "risk": "Alto", "population": 50000 }, "geometry": { "type": "Point", "coordinates": [ 13.3355037, -8.8811816 ] } },
{ "type": "Feature", "properties": { "name": "Bairro Matadouro", "municipality": "Samba", "risk": "Alto", "population": 50000 }, "geometry": { "type": "Point", "coordinates": [ 13.1139522, -8.9791031 ] } },
{ "type": "Feature", "properties": { "name": "Bairro do Chinguar", "municipality": "Samba", "risk": "Alto", "population": 50000 }, "geometry": { "type": "Point", "coordinates": [ 13.1556327, -8.9613013 ] } },
{ "type": "Feature", "properties": { "name": "Bacia de Retenção do Coelho", "municipality": "Viana", "risk": "Alto", "population": 50000 }, "geometry": { "type": "Point", "coordinates": [ 13.3235601, -8.8739265 ] } },
{ "type": "Feature", "properties": { "name": "Bairro Neves Bendinha", "municipality": "Rangel", "risk": "Muito Alto", "population": 50000 }, "geometry": { "type": "Point", "coordinates": [ 13.2608733, -8.8437378 ] } },
{ "type": "Feature", "properties": { "name": "Morro Bento II", "municipality": "Maianga", "risk": "Alto", "population": 50000 }, "geometry": { "type": "Point", "coordinates": [ 13.2105969, -8.8919363 ] } },
{ "type": "Feature", "properties": { "name": "Morro Bento I", "municipality": "Samba", "risk": "Alto", "population": 50000 }, "geometry": { "type": "Point", "coordinates": [ 13.1888278, -8.8991811 ] } },
{ "type": "Feature", "properties": { "name": "Centralidade do Zango V", "municipality": "Viana", "risk": "Alto", "population": 50000 }, "geometry": { "type": "Point", "coordinates": [ 13.4599173, -9.0849985 ] } },
{ "type": "Feature", "properties": { "name": "Urbanização Nova Vida", "municipality": "Maianga", "risk": "Alto", "population": 50000 }, "geometry": { "type": "Point", "coordinates": [ 13.2305372, -8.9071488 ] } },
{ "type": "Feature", "properties": { "name": "Quarteirão Hungu- Bloco A", "municipality": "Viana", "risk": "Alto", "population": 50000 }, "geometry": { "type": "Point", "coordinates": [ 13.2537649, -8.9927716 ] } },
{ "type": "Feature", "properties": { "name": "Quarteirão- Bloco B", "municipality": "Viana", "risk": "Alto", "population": 50000 }, "geometry": { "type": "Point", "coordinates": [ 13.2578843, -8.9926868 ] } },
{ "type": "Feature", "properties": { "name": "Quarteirão Marimba- Bloco C", "municipality": "Viana", "risk": "Alto", "population": 50000 }, "geometry": { "type": "Point", "coordinates": [ 13.261972, -8.992814 ] } },
{ "type": "Feature", "properties": { "name": "Quarteirão Serra da Kanda- Bloco H", "municipality": "Viana", "risk": "Alto", "population": 50000 }, "geometry": { "type": "Point", "coordinates": [ 13.2611137, -9.0009942 ] } },
{ "type": "Feature", "properties": { "name": "Quarteirão Rio Kwanza- Bloco U", "municipality": "Viana", "risk": "Alto", "population": 50000 }, "geometry": { "type": "Point", "coordinates": [ 13.2713275, -9.0003796 ] } },
{ "type": "Feature", "properties": { "name": "Quarteirão Ngoma- Bloco F", "municipality": "Viana", "risk": "Alto", "population": 50000 }, "geometry": { "type": "Point", "coordinates": [ 13.2620149, -8.9965435 ] } },
{ "type": "Feature", "properties": { "name": "Quarteirão Miradouro Da Lua- Bloco G", "municipality": "Viana", "risk": "Alto", "population": 50000 }, "geometry": { "type": "Point", "coordinates": [ 13.2579283, -9.0007833 ] } },
{ "type": "Feature", "properties": { "name": "Quarteirão Rio Chivango- Bloco Y", "municipality": "Viana", "risk": "Alto", "population": 50000 }, "geometry": { "type": "Point", "coordinates": [ 13.2750611, -9.0049256 ] } },
{ "type": "Feature", "properties": { "name": "Quarteirão Vale do Pembe- Bloco K", "municipality": "Viana", "risk": "Alto", "population": 50000 }, "geometry": { "type": "Point", "coordinates": [ 13.2619087, -9.0042802 ] } },
{ "type": "Feature", "properties": { "name": "Quarteirão Rio Curoca- Bloco X", "municipality": "Viana", "risk": "Alto", "population": 50000 }, "geometry": { "type": "Point", "coordinates": [ 13.2700186, -9.004693 ] } },
{ "type": "Feature", "properties": { "name": "Quarteirão Olombendo- Bloco E", "municipality": "Viana", "risk": "Alto", "population": 50000 }, "geometry": { "type": "Point", "coordinates": [ 13.2576087, -8.9964443 ] } },
{ "type": "Feature", "properties": { "name": "Quarteirão Batuque- Bloco D", "municipality": "Viana", "risk": "Alto", "population": 50000 }, "geometry": { "type": "Point", "coordinates": [ 13.2541399, -8.9962256 ] } },
{ "type": "Feature", "properties": { "name": "Quarteirão Rio Chivango - Bloco W", "municipality": "Viana", "risk": "Alto", "population": 50000 }, "geometry": { "type": "Point", "coordinates": [ 13.2789664, -9.0009624 ] } },
{ "type": "Feature", "properties": { "name": "Quarteirão Rio Cunene- Bloco V", "municipality": "Viana", "risk": "Alto", "population": 50000 }, "geometry": { "type": "Point", "coordinates": [ 13.2750933, -9.0006127 ] } },
{ "type": "Feature", "properties": { "name": "Quarteirão Ekuikui II- Bloco T", "municipality": "Viana", "risk": "Alto", "population": 50000 }, "geometry": { "type": "Point", "coordinates": [ 13.2789235, -8.996427 ] } },
{ "type": "Feature", "properties": { "name": "Quarteirão Rio Longa- Bloco Z", "municipality": "Viana", "risk": "Alto", "population": 50000 }, "geometry": { "type": "Point", "coordinates": [ 13.2787948, -9.0045653 ] } },
{ "type": "Feature", "properties": { "name": "Quarteirão Nzinga Mbandi- Bloco L", "municipality": "Viana", "risk": "Alto", "population": 50000 }, "geometry": { "type": "Point", "coordinates": [ 13.2678846, -8.992814 ] } },
{ "type": "Feature", "properties": { "name": "Quarteirão Nhaca Tolo- Bloco N", "municipality": "Viana", "risk": "Alto", "population": 50000 }, "geometry": { "type": "Point", "coordinates": [ 13.2754903, -8.992877 ] } },
{ "type": "Feature", "properties": { "name": "Quarteirão Mini-Ya-Lukene- Bloco Q", "municipality": "Viana", "risk": "Alto", "population": 50000 }, "geometry": { "type": "Point", "coordinates": [ 13.2682054, -8.9963104 ] } },
{ "type": "Feature", "properties": { "name": "Quarteirão Bula Matadi- Bloco R", "municipality": "Viana", "risk": "Alto", "population": 50000 }, "geometry": { "type": "Point", "coordinates": [ 13.2715957, -8.9964487 ] } },
{ "type": "Feature", "properties": { "name": "Quarteirão Kimpavita- Bloco P", "municipality": "Viana", "risk": "Alto", "population": 50000 }, "geometry": { "type": "Point", "coordinates": [ 13.278827, -8.9930042 ] } },
{ "type": "Feature", "properties": { "name": "Quarteirão N'gola M'bandi- Bloco M", "municipality": "Viana", "risk": "Alto", "population": 50000 }, "geometry": { "type": "Point", "coordinates": [ 13.2717888, -8.9930148 ] } },
{ "type": "Feature", "properties": { "name": "Quarteirão Rei Katiavala- Bloco S", "municipality": "Viana", "risk": "Alto", "population": 50000 }, "geometry": { "type": "Point", "coordinates": [ 13.2749431, -8.99648 ] } },
{ "type": "Feature", "properties": { "name": "Patriota", "municipality": "Samba", "risk": "Alto", "population": 50000 }, "geometry": { "type": "Point", "coordinates": [ 13.2014057, -8.9505281 ] } },
{ "type": "Feature", "properties": { "name": "Areia Branca", "municipality": "Maianga", "risk": "Alto", "population": 50000 }, "geometry": { "type": "Point", "coordinates": [ 13.2085007, -8.8263796 ] } },
{ "type": "Feature", "properties": { "name": "Bairro Vitrona", "municipality": "Viana", "risk": "Alto", "population": 50000 }, "geometry": { "type": "Point", "coordinates": [ 13.1487969, -9.106279 ] } },
{ "type": "Feature", "properties": { "name": "Xuxa Dela", "municipality": "Samba", "risk": "Alto", "population": 50000 }, "geometry": { "type": "Point", "coordinates": [ 13.1420172, -8.9844154 ] } },
{ "type": "Feature", "properties": { "name": "Bairro Cabolombo", "municipality": "Samba", "risk": "Alto", "population": 50000 }, "geometry": { "type": "Point", "coordinates": [ 13.1680179, -8.9294643 ] } },
{ "type": "Feature", "properties": { "name": "Bairro da Nzinga Mbandi", "municipality": "Viana", "risk": "Alto", "population": 50000 }, "geometry": { "type": "Point", "coordinates": [ 13.2452436, -9.100911 ] } },
{ "type": "Feature", "properties": { "name": "Bairro da Mabor", "municipality": "Cazenga", "risk": "Muito Alto", "population": 50000 }, "geometry": { "type": "Point", "coordinates": [ 13.3147313, -8.8155037 ] } },
{ "type": "Feature", "properties": { "name": "Bairro São Pedro da Barra", "municipality": "Sambizanga", "risk": "Muito Alto", "population": 50000 }, "geometry": { "type": "Point", "coordinates": [ 13.2938437, -8.7887346 ] } },
{ "type": "Feature", "properties": { "name": "Bairro Militar", "municipality": "Maianga", "risk": "Alto", "population": 50000 }, "geometry": { "type": "Point", "coordinates": [ 13.2116539, -8.9100644 ] } }
]
}
