{
"type": "FeatureCollection",
"name": "bairro_catchments",
"crs": { "type": "name", "properties": { "name": "urn:ogc:def:crs:OGC:1.3:CRS84" } },
"features": [
{ "type": "Feature", "properties": { "name": "Bairro da Nzinga Mbandi", "municipality": "Belas" }, "geometry": { "type": "Polygon", "coordinates": [ [ [ 13.194965954004198, -9.066685523543539 ], [ 13.243274283892102, -9.037519392275662 ], [ 13.264018140324215, -9.094017768855288 ], [ 13.264603853804282, -9.095892975225871 ], [ 13.265002767009571, -9.097816598751317 ], [ 13.26521103096697, -9.099770079065284 ], [ 13.265226636210855, -9.101734567723783 ], [ 13.26504943217172, -9.103691110067183 ], [ 13.26468112862897, -9.105620828107055 ], [ 13.264125279213856, -9.107505102673226 ], [ 13.263387247121745, -9.109325753063615 ], [ 13.262474153364529, -9.111065212463412 ], [ 13.261394808062494, -9.112706697441102 ], [ 13.260159625438565, -9.114234369885883 ], [ 13.258780523335135, -9.115633489824031 ], [ 13.257270808223, -9.116890557639703 ], [ 13.255645046811908, -9.117993444327995 ], [ 13.2539189255015, -9.118931508523431 ], [ 13.252109099028759, -9.119695699174757 ], [ 13.250233029772323, -9.120278642875348 ], [ 13.24830881926413, -9.120674715006619 ], [ 13.246355033534115, -9.120880094007973 ], [ 13.198131683534116, -9.123564094007973 ], [ 13.194965954004198, -9.066685523543539 ] ] ] } },
{ "type": "Feature", "properties": { "name": "Bairro Vitrona", "municipality": "Belas" }, "geometry": { "type": "Polygon", "coordinates": [ [ [ 13.159678371425727, -9.052821928556879 ], [ 13.194965954004198, -9.066685523543539 ], [ 13.198131683534116, -9.123564094007973 ], [ 13.149908333534116, -9.126248094007973 ], [ 13.147967756492056, -9.126261805634927 ], [ 13.146034985892639, -9.126087377784755 ], [ 13.144128218902802, -9.125726452707557 ], [ 13.142265407863722, -9.125182428537537 ], [ 13.140464091268306, -9.124460427299336 ], [ 13.138741228635082, -9.123567246683825 ], [ 13.137113040833176, -9.122511296047382 ], [ 13.135594857361722, -9.121302517237222 ], [ 13.134200972021588, -9.119952290988238 ], [ 13.132944508338262, -9.118473329772598 ], [ 13.131837296002965, -9.116879558110957 ], [ 13.130889759495306, -9.115185981472143 ], [ 13.130110819936087, -9.11340854499565 ], [ 13.129507811094355, -9.111563983367057 ], [ 13.115041212984163, -9.058763912349033 ], [ 13.159678371425727, -9.052821928556879 ] ] ] } },
{ "type": "Feature", "properties": { "name": "Bairro Kifica", "municipality": "Belas" }, "geometry": { "type": "Polygon", "coordinates": [ [ [ 13.176536586231714, -8.962536246947909 ], [ 13.168319040406995, -8.944741066599361 ], [ 13.186433516526161, -8.931423913358655 ], [ 13.20285659010351, -8.927436964178396 ], [ 13.209029030660297, -8.94424834503875 ], [ 13.176536586231714, -8.962536246947909 ] ] ] } },
{ "type": "Feature", "properties": { "name": "Benfica", "municipality": "Belas" }, "geometry": { "type": "Polygon", "coordinates": [ [ [ 13.20616635752055, -8.985975660976022 ], [ 13.175106328105318, -8.970008825027891 ], [ 13.176536586231714, -8.962536246947909 ], [ 13.209029030660297, -8.94424834503875 ], [ 13.224682569849584, -8.986882633162304 ], [ 13.20616635752055, -8.985975660976022 ] ] ] } },
{ "type": "Feature", "properties": { "name": "Futungo I", "municipality": "Belas" }, "geometry": { "type": "Polygon", "coordinates": [ [ [ 13.132431654168983, -8.91903445245228 ], [ 13.145626623164052, -8.900641970915711 ], [ 13.176590754647231, -8.907321904144103 ], [ 13.166577565103191, -8.921020767678195 ], [ 13.132431654168983, -8.91903445245228 ] ] ] } },
{ "type": "Feature", "properties": { "name": "Futungo II", "municipality": "Belas" }, "geometry": { "type": "Polygon", "coordinates": [ [ [ 13.145626623164052, -8.900641970915711 ], [ 13.154964186760626, -8.887626330931203 ], [ 13.156189689247318, -8.886084470953893 ], [ 13.157560904827417, -8.884670626419506 ], [ 13.159064535491526, -8.883398508751808 ], [ 13.160685999072568, -8.882280454911479 ], [ 13.162409570663209, -8.881327307752613 ], [ 13.164218535115568, -8.880548310869038 ], [ 13.166095349144237, -8.8799510189502 ], [ 13.168021811460562, -8.879541224516007 ], [ 13.169979239288221, -8.879322901741139 ], [ 13.171948649548247, -8.879298167913605 ], [ 13.17391094295639, -8.879467262901358 ], [ 13.175847089247421, -8.879828546826051 ], [ 13.17773831173011, -8.880378515966539 ], [ 13.179566269383029, -8.881111836737864 ], [ 13.181313234725254, -8.882021397416203 ], [ 13.182962265736974, -8.883098377108169 ], [ 13.184497370162701, -8.884332331295582 ], [ 13.185903660603719, -8.885711293126098 ], [ 13.187167498895638, -8.887221889467414 ], [ 13.188276628370931, -8.88884947059951 ], [ 13.189220292723737, -8.89057825228722 ], [ 13.189989340324214, -8.892391468855289 ], [ 13.194346645920374, -8.904259112330845 ], [ 13.176590754647231, -8.907321904144103 ], [ 13.145626623164052, -8.900641970915711 ] ] ] } },
{ "type": "Feature", "properties": { "name": "Bairro Cabolombo", "municipality": "Belas" }, "geometry": { "type": "Polygon", "coordinates": [ [ [ 13.186433516526161, -8.931423913358655 ], [ 13.168319040406995, -8.944741066599361 ], [ 13.154043522027621, -8.942756922118345 ], [ 13.12355430261519, -8.931408602373192 ], [ 13.132431654168983, -8.91903445245228 ], [ 13.166577565103191, -8.921020767678195 ], [ 13.186433516526161, -8.931423913358655 ] ] ] } },
{ "type": "Feature", "properties": { "name": "Galenha/Mirantes", "municipality": "Belas" }, "geometry": { "type": "Polygon", "coordinates": [ [ [ 13.186433516526161, -8.931423913358655 ], [ 13.166577565103191, -8.921020767678195 ], [ 13.176590754647231, -8.907321904144103 ], [ 13.194346645920374, -8.904259112330845 ], [ 13.20285659010351, -8.927436964178396 ], [ 13.186433516526161, -8.931423913358655 ] ] ] } },
{ "type": "Feature", "properties": { "name": "Zona Verde II", "municipality": "Belas" }, "geometry": { "type": "Polygon", "coordinates": [ [ [ 13.20616635752055, -8.985975660976022 ], [ 13.224682569849584, -8.986882633162304 ], [ 13.243274283892102, -9.037519392275662 ], [ 13.194965954004198, -9.066685523543539 ], [ 13.159678371425727, -9.052821928556879 ], [ 13.161462587748053, -9.009537644035044 ], [ 13.16443606866471, -9.004459572893246 ], [ 13.20616635752055, -8.985975660976022 ] ] ] } },
{ "type": "Feature", "properties": { "name": "Zona Verde", "municipality": "Belas" }, "geometry": { "type": "Polygon", "coordinates": [ [ [ 13.165505819639485, -8.975617929225603 ], [ 13.175106328105318, -8.970008825027891 ], [ 13.20616635752055, -8.985975660976022 ], [ 13.16443606866471, -9.004459572893246 ], [ 13.165505819639485, -8.975617929225603 ] ] ] } },
{ "type": "Feature", "properties": { "name": "Quifica", "municipality": "Belas" }, "geometry": { "type": "Polygon", "coordinates": [ [ [ 13.165505819639485, -8.975617929225603 ], [ 13.175106328105318, -8.970008825027891 ], [ 13.176536586231714, -8.962536246947909 ], [ 13.168319040406995, -8.944741066599361 ], [ 13.154043522027621, -8.942756922118345 ], [ 13.164143102358471, -8.974982964768214 ], [ 13.165505819639485, -8.975617929225603 ] ] ] } },
{ "type": "Feature", "properties": { "name": "Bairro Mundial", "municipality": "Belas" }, "geometry": { "type": "Polygon", "coordinates": [ [ [ 13.127945477749519, -8.981966462028643 ], [ 13.138186192845991, -8.994099003471119 ], [ 13.105547711410816, -9.02411460824419 ], [ 13.100221492826572, -9.004675019381384 ], [ 13.127945477749519, -8.981966462028643 ] ] ] } },
{ "type": "Feature", "properties": { "name": "Bairro da Bandeira", "municipality": "Belas" }, "geometry": { "type": "Polygon", "coordinates": [ [ [ 13.161462587748053, -9.009537644035044 ], [ 13.159678371425727, -9.052821928556879 ], [ 13.115041212984163, -9.058763912349033 ], [ 13.105547711410816, -9.02411460824419 ], [ 13.138186192845991, -8.994099003471119 ], [ 13.146269886654435, -8.996905900998199 ], [ 13.161462587748053, -9.009537644035044 ] ] ] } },
{ "type": "Feature", "properties": { "name": "Bairro Matadouro", "municipality": "Belas" }, "geometry": { "type": "Polygon", "coordinates": [ [ [ 13.123631888268525, -8.944071258564374 ], [ 13.129144748272036, -8.975630688970938 ], [ 13.127945477749519, -8.981966462028643 ], [ 13.100221492826572, -9.004675019381384 ], [ 13.094663111094354, -8.984388083367056 ], [ 13.094235670093489, -8.982458461149815 ], [ 13.094000768288009, -8.98049607259189 ], [ 13.093960699580785, -8.978520081142213 ], [ 13.094115855257542, -8.976549783086979 ], [ 13.094464720165798, -8.974604419114279 ], [ 13.095003887510899, -8.972702986421684 ], [ 13.095728092124617, -8.97086405320159 ], [ 13.096630261881467, -8.969105577315968 ], [ 13.097701586760627, -8.967444730931202 ], [ 13.120212906904657, -8.93606617746377 ], [ 13.123631888268525, -8.944071258564374 ] ] ] } },
{ "type": "Feature", "properties": { "name": "Bairro das Tendas", "municipality": "Belas" }, "geometry": { "type": "Polygon", "coordinates": [ [ [ 13.15584848042675, -8.972592116597745 ], [ 13.141007560790017, -8.978519083946493 ], [ 13.146668736443772, -8.984146558702898 ], [ 13.158749723916618, -8.97398322140298 ], [ 13.15584848042675, -8.972592116597745 ] ] ] } },
{ "type": "Feature", "properties": { "name": "Xuxa Dela", "municipality": "Belas" }, "geometry": { "type": "Polygon", "coordinates": [ [ [ 13.141007560790017, -8.978519083946493 ], [ 13.129144748272036, -8.975630688970938 ], [ 13.127945477749519, -8.981966462028643 ], [ 13.138186192845991, -8.994099003471119 ], [ 13.146269886654435, -8.996905900998199 ], [ 13.146668736443772, -8.984146558702898 ], [ 13.141007560790017, -8.978519083946493 ] ] ] } },
{ "type": "Feature", "properties": { "name": "Bairro Mande", "municipality": "Belas" }, "geometry": { "type": "Polygon", "coordinates": [ [ [ 13.158749723916618, -8.97398322140298 ], [ 13.164143102358471, -8.974982964768214 ], [ 13.165505819639485, -8.975617929225603 ], [ 13.16443606866471, -9.004459572893246 ], [ 13.161462587748053, -9.009537644035044 ], [ 13.146269886654435, -8.996905900998199 ], [ 13.146668736443772, -8.984146558702898 ], [ 13.158749723916618, -8.97398322140298 ] ] ] } },
{ "type": "Feature", "properties": { "name": "Bairro das Salinas", "municipality": "Belas" }, "geometry": { "type": "Polygon", "coordinates": [ [ [ 13.15584848042675, -8.972592116597745 ], [ 13.123631888268525, -8.944071258564374 ], [ 13.129144748272036, -8.975630688970938 ], [ 13.141007560790017, -8.978519083946493 ], [ 13.15584848042675, -8.972592116597745 ] ] ] } },
{ "type": "Feature", "properties": { "name": "Bairro do Chinguar", "municipality": "Belas" }, "geometry": { "type": "Polygon", "coordinates": [ [ [ 13.123631888268525, -8.944071258564374 ], [ 13.120212906904657, -8.93606617746377 ], [ 13.12355430261519, -8.931408602373192 ], [ 13.154043522027621, -8.942756922118345 ], [ 13.164143102358471, -8.974982964768214 ], [ 13.158749723916618, -8.97398322140298 ], [ 13.15584848042675, -8.972592116597745 ], [ 13.123631888268525, -8.944071258564374 ] ] ] } },
{ "type": "Feature", "properties": { "name": "Kifangondo", "municipality": "Cacuaco" }, "geometry": { "type": "MultiPolygon", "coordinates": [ [ [ [ 13.3356, -8.8468 ], [ 13.3217, -8.8493 ], [ 13.3215, -8.8416 ], [ 13.3191, -8.8369 ], [ 13.3218, -8.8189 ], [ 13.317, -8.8051 ], [ 13.3111, -8.7957 ], [ 13.3111, -8.7901 ], [ 13.3033, -8.758 ], [ 13.3095, -8.7577 ], [ 13.3188, -8.7604 ], [ 13.3392, -8.7718 ], [ 13.3509, -8.7711 ], [ 13.3657, -8.7755 ], [ 13.3759, -8.7694 ], [ 13.3963, -8.7492 ], [ 13.3991, -8.7433 ], [ 13.4007, -8.7292 ], [ 13.4101, -8.7012 ], [ 13.4155, -8.678 ], [ 13.4157, -8.6573 ], [ 13.4115, -8.6364 ], [ 13.4755, -8.6758 ], [ 13.4976, -8.6641 ], [ 13.5021, -8.6574 ], [ 13.5171, -8.651 ], [ 13.5236, -8.6509 ], [ 13.6078, -8.7998 ], [ 13.6193, -8.8232 ], [ 13.6314, -8.8408 ], [ 13.634, -8.8533 ], [ 13.6053, -8.8569 ], [ 13.5348, -8.8886 ], [ 13.366, -8.8544 ], [ 13.3545, -8.8516 ], [ 13.3446, -8.8451 ], [ 13.3356, -8.8468 ] ] ] ] } },
{ "type": "Feature", "properties": { "name": "Projecto Crédito Jovem", "municipality": "Camama" }, "geometry": { "type": "Polygon", "coordinates": [ [ [ 13.259937270164, -8.929548761819587 ], [ 13.262150289562001, -8.931385585656857 ], [ 13.254968794527009, -8.958334101185546 ], [ 13.250360544527009, -8.957106051185546 ], [ 13.248560284204762, -8.956533982619144 ], [ 13.246822024168877, -8.955794623626391 ], [ 13.245161270566578, -8.954894569658576 ], [ 13.24359283814902, -8.953841849646382 ], [ 13.242130718116295, -8.952645854377819 ], [ 13.24078795330896, -8.951317252727698 ], [ 13.23871445330896, -8.949062102727698 ], [ 13.259937270164, -8.929548761819587 ] ] ] } },
{ "type": "Feature", "properties": { "name": "Sector 4", "municipality": "Camama" }, "geometry": { "type": "Polygon", "coordinates": [ [ [ 13.259937270164, -8.929548761819587 ], [ 13.248935573579796, -8.911363824550083 ], [ 13.241010973579796, -8.916158124550083 ], [ 13.251939900733918, -8.909546238088305 ], [ 13.254501278596914, -8.907996631308333 ], [ 13.256860173579796, -8.906569524550083 ], [ 13.258591923389929, -8.90563498019257 ], [ 13.260407130409963, -8.904875142028567 ], [ 13.262288221935853, -8.904297365919435 ], [ 13.264216987447087, -8.903907245215386 ], [ 13.266174754899581, -8.90370855660723 ], [ 13.268142571486489, -8.903703223564891 ], [ 13.270101387117045, -8.903891297716628 ], [ 13.27203223883717, -8.904270958349226 ], [ 13.273916434406553, -8.904838530034008 ], [ 13.275735733254981, -8.905588518208024 ], [ 13.277472523066127, -8.906513662365958 ], [ 13.279109990279331, -8.907605006347817 ], [ 13.280632282858759, -8.90885198504197 ], [ 13.282024663754221, -8.910242526664149 ], [ 13.283273653567976, -8.911763169622304 ], [ 13.284367161046463, -8.913399192835938 ], [ 13.285294600133611, -8.915134758248328 ], [ 13.286046992452619, -8.916953064152008 ], [ 13.286617054224058, -8.918836507843176 ], [ 13.286999266778881, -8.920766856030419 ], [ 13.287189929983697, -8.922725421348039 ], [ 13.287187198061117, -8.924693243265198 ], [ 13.28699109745841, -8.926651271639527 ], [ 13.285748247458411, -8.934928771639527 ], [ 13.262150289562001, -8.931385585656857 ], [ 13.259937270164, -8.929548761819587 ] ] ] } },
{ "type": "Feature", "properties": { "name": "Chimbicato", "municipality": "Camama" }, "geometry": { "type": "Polygon", "coordinates": [ [ [ 13.235382989549805, -8.945296009313271 ], [ 13.234279455331466, -8.943668853804443 ], [ 13.233341014719823, -8.941941210311308 ], [ 13.232576736389268, -8.940129774015327 ], [ 13.231994005987048, -8.938252049834494 ], [ 13.231642653619259, -8.936541379417353 ], [ 13.231598454761656, -8.93632618326356 ], [ 13.231393905144921, -8.934370785024008 ], [ 13.231382333813738, -8.932404751218284 ], [ 13.231563852588325, -8.930447080726239 ], [ 13.231936707351647, -8.928516691608362 ], [ 13.232497295000426, -8.926632238290026 ], [ 13.233240198263937, -8.924811931293386 ], [ 13.234158238054109, -8.923073361258956 ], [ 13.23524254284105, -8.921433328957454 ], [ 13.236482634383592, -8.919907682934594 ], [ 13.237866528986361, -8.91851116635776 ], [ 13.239380853304912, -8.917257274544564 ], [ 13.241010973579796, -8.916158124550083 ], [ 13.248935573579796, -8.911363824550083 ], [ 13.259937270164, -8.929548761819587 ], [ 13.23871445330896, -8.949062102727698 ], [ 13.23664095330896, -8.946806952727698 ], [ 13.235382989549805, -8.945296009313271 ] ] ] } },
{ "type": "Feature", "properties": { "name": "Camama", "municipality": "Camama" }, "geometry": { "type": "Polygon", "coordinates": [ [ [ 13.283535448927266, -8.947037041943743 ], [ 13.282771615957863, -8.948861879348893 ], [ 13.281831241202317, -8.950602329773211 ], [ 13.280723524987161, -8.952241365205122 ], [ 13.279459304854376, -8.953762949844977 ], [ 13.278050949530328, -8.955152196994193 ], [ 13.276512237914103, -8.95639551470197 ], [ 13.274858224269153, -8.9574807387446 ], [ 13.273105090937186, -8.958397251636338 ], [ 13.271269990015297, -8.959136086507515 ], [ 13.269370875545329, -8.959690014833511 ], [ 13.267426327857251, -8.960053617156339 ], [ 13.265455371785137, -8.960223336106903 ], [ 13.263477290534269, -8.960197511209145 ], [ 13.261511437020401, -8.959976395125626 ], [ 13.260983392032967, -8.959863315987405 ], [ 13.25957704452701, -8.959562151185546 ], [ 13.254968794527009, -8.958334101185546 ], [ 13.262150289562001, -8.931385585656857 ], [ 13.285748247458411, -8.934928771639527 ], [ 13.284668891634752, -8.94211738477091 ], [ 13.28450539745841, -8.943206271639527 ], [ 13.28411526701249, -8.94514567118463 ], [ 13.283535448927266, -8.947037041943743 ] ] ] } },
{ "type": "Feature", "properties": { "name": "Triangulo", "municipality": "Cazenga" }, "geometry": { "type": "Polygon", "coordinates": [ [ [ 13.275846061811421, -8.840384247245689 ], [ 13.2752, -8.8378 ], [ 13.2724, -8.8343 ], [ 13.2749, -8.822 ], [ 13.2712, -8.8171 ], [ 13.2781, -8.7984 ], [ 13.281156944095192, -8.799020249526562 ], [ 13.276893122926733, -8.840445150240713 ], [ 13.275846061811421, -8.840384247245689 ] ] ] } },
{ "type": "Feature", "properties": { "name": "Cazenga Popular", "municipality": "Cazenga" }, "geometry": { "type": "Polygon", "coordinates": [ [ [ 13.281156944095192, -8.799020249526562 ], [ 13.2781, -8.7984 ], [ 13.285, -8.7998 ], [ 13.3046, -8.7875 ], [ 13.3111, -8.7901 ], [ 13.3111, -8.7957 ], [ 13.317, -8.8051 ], [ 13.3218, -8.8189 ], [ 13.3191, -8.8369 ], [ 13.3215, -8.8416 ], [ 13.3205, -8.8537 ], [ 13.3141, -8.8628 ], [ 13.3092, -8.8646 ], [ 13.296556970517369, -8.856904242923616 ], [ 13.282386279622154, -8.848278604987399 ], [ 13.282386279622154, -8.848278604987398 ], [ 13.282386279622152, -8.848278604987398 ], [ 13.276893122926733, -8.840445150240713 ], [ 13.281156944095192, -8.799020249526562 ] ] ] } },
{ "type": "Feature", "properties": { "name": "Bairro Neves Bendinha", "municipality": "Cazenga" }, "geometry": { "type": "Polygon", "coordinates": [ [ [ 13.276893122926733, -8.840445150240713 ], [ 13.282386279622154, -8.848278604987399 ], [ 13.277, -8.845 ], [ 13.275846061811421, -8.840384247245689 ], [ 13.276893122926733, -8.840445150240713 ] ] ] } },
{ "type": "Feature", "properties": { "name": "Mabor", "municipality": "Hoji Ya Henda" }, "geometry": { "type": "Polygon", "coordinates": [ [ [ 13.321246996806527, -8.800879759044463 ], [ 13.298977054571695, -8.809202902421854 ], [ 13.294312060148066, -8.805753461430283 ], [ 13.3096040551785, -8.769100772655644 ], [ 13.315799528359049, -8.769246903599907 ], [ 13.321246996806527, -8.800879759044463 ] ] ] } },
{ "type": "Feature", "properties": { "name": "Bairro São Pedro da Barra", "municipality": "Hoji Ya Henda" }, "geometry": { "type": "Polygon", "coordinates": [ [ [ 13.269663560705709, -8.800398402283486 ], [ 13.274627259511416, -8.783191278346994 ], [ 13.275284420660912, -8.781281201418569 ], [ 13.276130898274916, -8.779447153900675 ], [ 13.277158057742881, -8.777707844245588 ], [ 13.278355421384321, -8.776081014519074 ], [ 13.279710775327823, -8.774583259420021 ], [ 13.281210294100315, -8.773229857003942 ], [ 13.282838681655692, -8.772034612837087 ], [ 13.284579327404222, -8.771009719170877 ], [ 13.286414475651133, -8.770165630573178 ], [ 13.288325406716012, -8.769510957285053 ], [ 13.290292627885458, -8.769052377390819 ], [ 13.292296072251162, -8.768794568697341 ], [ 13.29431530340516, -8.768740161017417 ], [ 13.3096040551785, -8.769100772655644 ], [ 13.294312060148066, -8.805753461430283 ], [ 13.269663560705709, -8.800398402283486 ] ] ] } },
{ "type": "Feature", "properties": { "name": "Bairro Kikolo", "municipality": "Hoji Ya Henda" }, "geometry": { "type": "Polygon", "coordinates": [ [ [ 13.315799528359049, -8.769246903599907 ], [ 13.333129503405159, -8.769655661017417 ], [ 13.335081294939956, -8.769797463979435 ], [ 13.337009884902047, -8.770129335993119 ], [ 13.338896808979449, -8.770648099717237 ], [ 13.340724001769182, -8.771348788510132 ], [ 13.342473969735355, -8.772224693980322 ], [ 13.344129958692205, -8.773267430212613 ], [ 13.345676114208601, -8.77446701405481 ], [ 13.347097633398292, -8.775811960696386 ], [ 13.348380906642687, -8.777289393623986 ], [ 13.349513647889276, -8.778885167901137 ], [ 13.35048501227825, -8.780584005591788 ], [ 13.351285699971138, -8.782369642031213 ], [ 13.351908045187416, -8.78422498154384 ], [ 13.35234608959667, -8.786132261117174 ], [ 13.352595639363615, -8.788073220464806 ], [ 13.352654305299858, -8.79002927685031 ], [ 13.352521525737975, -8.791981702998283 ], [ 13.352198571908923, -8.793911806389204 ], [ 13.351688535771268, -8.795801108221529 ], [ 13.350996300408791, -8.797631520327661 ], [ 13.35012849327987, -8.799385518349991 ], [ 13.349093422766213, -8.801046309519013 ], [ 13.340130122766213, -8.813973109519013 ], [ 13.321246996806527, -8.800879759044463 ], [ 13.315799528359049, -8.769246903599907 ] ] ] } },
{ "type": "Feature", "properties": { "name": "Cariango", "municipality": "Hoji Ya Henda" }, "geometry": { "type": "Polygon", "coordinates": [ [ [ 13.308732808691428, -8.843242906978192 ], [ 13.29876021769806, -8.849717102172514 ], [ 13.262656270921497, -8.824689824566656 ], [ 13.263775621771128, -8.820809490656005 ], [ 13.304271538501844, -8.835872667054023 ], [ 13.308732808691428, -8.843242906978192 ] ] ] } },
{ "type": "Feature", "properties": { "name": "Bairro da Mabor", "municipality": "Hoji Ya Henda" }, "geometry": { "type": "Polygon", "coordinates": [ [ [ 13.304271538501844, -8.835872667054023 ], [ 13.298977054571695, -8.809202902421854 ], [ 13.321246996806527, -8.800879759044463 ], [ 13.340130122766213, -8.813973109519013 ], [ 13.331166822766214, -8.826899909519014 ], [ 13.329983569119724, -8.828440789576081 ], [ 13.328656395041145, -8.829859595238371 ], [ 13.327197823746884, -8.831142938653732 ], [ 13.325621618317648, -8.832278710191959 ], [ 13.308732808691428, -8.843242906978192 ], [ 13.304271538501844, -8.835872667054023 ] ] ] } },
{ "type": "Feature", "properties": { "name": "Tala-Hady", "municipality": "Hoji Ya Henda" }, "geometry": { "type": "Polygon", "coordinates": [ [ [ 13.286977709164441, -8.856918082308049 ], [ 13.285143190900513, -8.857552743033807 ], [ 13.283255786254601, -8.858006565906857 ], [ 13.281333275765169, -8.858275275630396 ], [ 13.279393770689788, -8.85835634078988 ], [ 13.277455542385725, -8.858248997700537 ], [ 13.275536850182249, -8.857954257601758 ], [ 13.273655769366284, -8.857474897130594 ], [ 13.271830020901835, -8.856815432164073 ], [ 13.270076804487363, -8.855982075276817 ], [ 13.26841263652382, -8.854982677214672 ], [ 13.266853194519754, -8.853826652935748 ], [ 13.265413169399334, -8.852524892915596 ], [ 13.264106127104602, -8.851089660552079 ], [ 13.262944380795769, -8.849534476636453 ], [ 13.261938874853504, -8.84787399197902 ], [ 13.261099081775988, -8.846123849389267 ], [ 13.260432912942029, -8.844300536310785 ], [ 13.259946644080889, -8.842421229499166 ], [ 13.259644856150979, -8.840503633206183 ], [ 13.259530392184349, -8.838565812394588 ], [ 13.25960433050353, -8.836626022554821 ], [ 13.259865974563068, -8.834702537726804 ], [ 13.260312859511416, -8.832813478346994 ], [ 13.262656270921497, -8.824689824566656 ], [ 13.29876021769806, -8.849717102172514 ], [ 13.295050780600331, -8.852125264689931 ], [ 13.290419618317648, -8.855131810191958 ], [ 13.288742058730898, -8.856108562632658 ], [ 13.286977709164441, -8.856918082308049 ] ] ] } },
{ "type": "Feature", "properties": { "name": "Patricio", "municipality": "Hoji Ya Henda" }, "geometry": { "type": "Polygon", "coordinates": [ [ [ 13.294312060148066, -8.805753461430283 ], [ 13.298977054571695, -8.809202902421854 ], [ 13.304271538501844, -8.835872667054023 ], [ 13.263775621771128, -8.820809490656005 ], [ 13.269663560705709, -8.800398402283486 ], [ 13.294312060148066, -8.805753461430283 ] ] ] } },
{ "type": "Feature", "properties": { "name": "Areia Branca", "municipality": "Ingombota" }, "geometry": { "type": "Polygon", "coordinates": [ [ [ 13.213430891977399, -8.826827229943497 ], [ 13.2133, -8.8265 ], [ 13.213533493267915, -8.825976217804406 ], [ 13.213430891977399, -8.826827229943497 ] ] ] } },
{ "type": "Feature", "properties": { "name": "Coreia", "municipality": "Ingombota" }, "geometry": { "type": "Polygon", "coordinates": [ [ [ 13.213533493267915, -8.825976217804406 ], [ 13.215155696763997, -8.822337220772656 ], [ 13.21847477194215, -8.823256275963903 ], [ 13.221548856500382, -8.829785133263444 ], [ 13.221, -8.8308 ], [ 13.2149, -8.8305 ], [ 13.213430891977399, -8.826827229943497 ], [ 13.213533493267915, -8.825976217804406 ] ] ] } },
{ "type": "Feature", "properties": { "name": "Praia do Bispo", "municipality": "Ingombota" }, "geometry": { "type": "Polygon", "coordinates": [ [ [ 13.220670509990285, -8.81325205019338 ], [ 13.223134641065595, -8.822290332496316 ], [ 13.21847477194215, -8.823256275963903 ], [ 13.215155696763997, -8.822337220772656 ], [ 13.217, -8.8182 ], [ 13.2161, -8.812 ], [ 13.217642269647023, -8.810027329521251 ], [ 13.220670509990285, -8.81325205019338 ] ] ] } },
{ "type": "Feature", "properties": { "name": "Mutamba", "municipality": "Ingombota" }, "geometry": { "type": "Polygon", "coordinates": [ [ [ 13.228619634313556, -8.817946301763563 ], [ 13.230793093569442, -8.810129334262344 ], [ 13.233, -8.8109 ], [ 13.2384, -8.8076 ], [ 13.239647052381242, -8.805576095315692 ], [ 13.241546930122174, -8.813482319083139 ], [ 13.23302577917214, -8.82415270898694 ], [ 13.230758310095343, -8.823089832857191 ], [ 13.228619634313556, -8.817946301763563 ] ] ] } },
{ "type": "Feature", "properties": { "name": "Kinanga", "municipality": "Ingombota" }, "geometry": { "type": "Polygon", "coordinates": [ [ [ 13.223134641065595, -8.822290332496316 ], [ 13.220670509990285, -8.81325205019338 ], [ 13.228619634313556, -8.817946301763563 ], [ 13.230758310095343, -8.823089832857191 ], [ 13.2263, -8.821 ], [ 13.22527934091646, -8.822887256418621 ], [ 13.223134641065595, -8.822290332496316 ] ] ] } },
{ "type": "Feature", "properties": { "name": "Coqueiros", "municipality": "Ingombota" }, "geometry": { "type": "Polygon", "coordinates": [ [ [ 13.220670509990285, -8.81325205019338 ], [ 13.217642269647023, -8.810027329521251 ], [ 13.2204, -8.8065 ], [ 13.230793093569442, -8.810129334262344 ], [ 13.228619634313556, -8.817946301763563 ], [ 13.220670509990285, -8.81325205019338 ] ] ] } },
{ "type": "Feature", "properties": { "name": "Maculusso", "municipality": "Ingombota" }, "geometry": { "type": "Polygon", "coordinates": [ [ [ 13.241546930122174, -8.813482319083139 ], [ 13.253027156107716, -8.821472924068228 ], [ 13.2523, -8.8227 ], [ 13.2449, -8.8193 ], [ 13.2452, -8.8236 ], [ 13.2435, -8.8276 ], [ 13.2385, -8.8313 ], [ 13.2359, -8.8255 ], [ 13.23302577917214, -8.82415270898694 ], [ 13.241546930122174, -8.813482319083139 ] ] ] } },
{ "type": "Feature", "properties": { "name": "Cruzeiro", "municipality": "Ingombota" }, "geometry": { "type": "Polygon", "coordinates": [ [ [ 13.239647052381242, -8.805576095315692 ], [ 13.2384, -8.8076 ], [ 13.242436676177098, -8.80104867308963 ], [ 13.243312646166938, -8.79962701687661 ], [ 13.2445, -8.7977 ], [ 13.2494, -8.7992 ], [ 13.2549, -8.7978 ], [ 13.2687, -8.7994 ], [ 13.2647, -8.8047 ], [ 13.2561, -8.8095 ], [ 13.2555, -8.8173 ], [ 13.253027156107716, -8.821472924068228 ], [ 13.241546930122174, -8.813482319083139 ], [ 13.239647052381242, -8.805576095315692 ] ] ] } },
{ "type": "Feature", "properties": { "name": "Bairro Azul", "municipality": "Ingombota" }, "geometry": { "type": "Polygon", "coordinates": [ [ [ 13.21847477194215, -8.823256275963903 ], [ 13.223134641065595, -8.822290332496316 ], [ 13.22527934091646, -8.822887256418621 ], [ 13.221548856500382, -8.829785133263444 ], [ 13.21847477194215, -8.823256275963903 ] ] ] } },
{ "type": "Feature", "properties": { "name": "Quarteirão Rio Longa- Bloco Z", "municipality": "Kilamba" }, "geometry": { "type": "Polygon", "coordinates": [ [ [ 13.276860099816892, -9.002667617012289 ], [ 13.298857953972282, -9.00371533739672 ], [ 13.298943753972283, -9.00191388739672 ], [ 13.298772153972283, -9.005516787396719 ], [ 13.298591438946769, -9.007410135041139 ], [ 13.298231691867592, -9.009277755254699 ], [ 13.297696166128349, -9.01110275810557 ], [ 13.296989704787155, -9.012868639074513 ], [ 13.296118696768165, -9.014559428314463 ], [ 13.295091019082966, -9.016159835074767 ], [ 13.293915965594369, -9.017655385983968 ], [ 13.292604162966819, -9.019032555940592 ], [ 13.29116747456354, -9.020278890428184 ], [ 13.289618893159515, -9.021383118148444 ], [ 13.288307180196224, -9.022141666910514 ], [ 13.287972423440582, -9.022335252953873 ], [ 13.286242955351231, -9.023126684158083 ], [ 13.284446129436539, -9.023750254407027 ], [ 13.282598195395984, -9.024200324406957 ], [ 13.28071586512835, -9.024472823923698 ], [ 13.278849015128351, -9.024652973923699 ], [ 13.276738434992456, -9.002781552737545 ], [ 13.276860099816892, -9.002667617012289 ] ] ] } },
{ "type": "Feature", "properties": { "name": "Quarteirão Rio Chivango - Bloco W", "municipality": "Kilamba" }, "geometry": { "type": "Polygon", "coordinates": [ [ [ 13.276860099816892, -9.002667617012289 ], [ 13.277217336786089, -8.998711041360604 ], [ 13.298944055347764, -8.998505529999687 ], [ 13.298965505347764, -9.000773229999686 ], [ 13.298943753972283, -9.00191388739672 ], [ 13.298857953972282, -9.00371533739672 ], [ 13.276860099816892, -9.002667617012289 ] ] ] } },
{ "type": "Feature", "properties": { "name": "Quarteirão Marimba- Bloco C", "municipality": "Kilamba" }, "geometry": { "type": "Polygon", "coordinates": [ [ [ 13.2649283, -8.994644990765517 ], [ 13.25986738308702, -8.994703205897725 ], [ 13.260551623601701, -8.972714448414472 ], [ 13.2649283, -8.972761730241743 ], [ 13.2649283, -8.994644990765517 ] ] ] } },
{ "type": "Feature", "properties": { "name": "Quarteirão Rio Cunene- Bloco V", "municipality": "Kilamba" }, "geometry": { "type": "Polygon", "coordinates": [ [ [ 13.273327287040413, -8.998607805011622 ], [ 13.273070630434516, -9.002754169003452 ], [ 13.276738434992456, -9.002781552737545 ], [ 13.276860099816892, -9.002667617012289 ], [ 13.277217336786089, -8.998711041360604 ], [ 13.276960226998989, -8.998475768429779 ], [ 13.273327287040413, -8.998607805011622 ] ] ] } },
{ "type": "Feature", "properties": { "name": "Quarteirão Rio Curoca- Bloco X", "municipality": "Kilamba" }, "geometry": { "type": "Polygon", "coordinates": [ [ [ 13.266114473774227, -9.001523504732042 ], [ 13.266251142464458, -9.001194473419282 ], [ 13.27261748156106, -9.003126337202733 ], [ 13.271618271684119, -9.024788056052559 ], [ 13.269097021684118, -9.024671756052559 ], [ 13.26900190120489, -9.024667141372284 ], [ 13.264946951204889, -9.024460741372284 ], [ 13.266114473774227, -9.001523504732042 ] ] ] } },
{ "type": "Feature", "properties": { "name": "Quarteirão Vale do Pembe- Bloco K", "municipality": "Kilamba" }, "geometry": { "type": "Polygon", "coordinates": [ [ [ 13.259370955307199, -9.003155001135354 ], [ 13.266114473774227, -9.001523504732042 ], [ 13.264946951204889, -9.024460741372284 ], [ 13.260892001204889, -9.024254341372284 ], [ 13.258987849953284, -9.024065766330146 ], [ 13.257110434355992, -9.023696086454384 ], [ 13.255276939113903, -9.023148685565875 ], [ 13.253504146908153, -9.022428574233697 ], [ 13.251808284781832, -9.021542343911479 ], [ 13.250204875607684, -9.020498106603316 ], [ 13.248708596001322, -9.019305420611495 ], [ 13.246718396001322, -9.017556970611494 ], [ 13.259370955307199, -9.003155001135354 ] ] ] } },
{ "type": "Feature", "properties": { "name": "Quarteirão Rio Chivango- Bloco Y", "municipality": "Kilamba" }, "geometry": { "type": "Polygon", "coordinates": [ [ [ 13.27261748156106, -9.003126337202733 ], [ 13.273070630434516, -9.002754169003452 ], [ 13.276738434992456, -9.002781552737545 ], [ 13.278849015128351, -9.024652973923699 ], [ 13.27698216512835, -9.024833123923699 ], [ 13.274139521684118, -9.024904356052559 ], [ 13.271618271684119, -9.024788056052559 ], [ 13.27261748156106, -9.003126337202733 ] ] ] } },
{ "type": "Feature", "properties": { "name": "Quarteirão Mini-Ya-Lukene- Bloco Q", "municipality": "Kilamba" }, "geometry": { "type": "Polygon", "coordinates": [ [ [ 13.26997171523141, -8.99463499841614 ], [ 13.269822115946395, -8.998302290216445 ], [ 13.266242379698399, -9.001048848394925 ], [ 13.265226253442508, -8.999510340651446 ], [ 13.265050280148136, -8.994836970085938 ], [ 13.269760043891619, -8.994404842123204 ], [ 13.26997171523141, -8.99463499841614 ] ] ] } },
{ "type": "Feature", "properties": { "name": "Quarteirão Rio Kwanza- Bloco U", "municipality": "Kilamba" }, "geometry": { "type": "Polygon", "coordinates": [ [ [ 13.266242379698399, -9.001048848394925 ], [ 13.266251142464458, -9.001194473419282 ], [ 13.27261748156106, -9.003126337202733 ], [ 13.273070630434516, -9.002754169003452 ], [ 13.273327287040413, -8.998607805011622 ], [ 13.273250027344186, -8.998536171983188 ], [ 13.269822115946395, -8.998302290216445 ], [ 13.266242379698399, -9.001048848394925 ] ] ] } },
{ "type": "Feature", "properties": { "name": "Quarteirão Bula Matadi- Bloco R", "municipality": "Kilamba" }, "geometry": { "type": "Polygon", "coordinates": [ [ [ 13.26997171523141, -8.99463499841614 ], [ 13.273284763382538, -8.994821302501286 ], [ 13.273250027344186, -8.998536171983188 ], [ 13.269822115946395, -8.998302290216445 ], [ 13.26997171523141, -8.99463499841614 ] ] ] } },
{ "type": "Feature", "properties": { "name": "Quarteirão Ngoma- Bloco F", "municipality": "Kilamba" }, "geometry": { "type": "Polygon", "coordinates": [ [ [ 13.259768767668772, -8.998405281631674 ], [ 13.265226253442508, -8.999510340651446 ], [ 13.265050280148136, -8.994836970085938 ], [ 13.2649283, -8.994644990765517 ], [ 13.25986738308702, -8.994703205897725 ], [ 13.25985173795938, -8.994719962130834 ], [ 13.259768767668772, -8.998405281631674 ] ] ] } },
{ "type": "Feature", "properties": { "name": "Quarteirão Serra da Kanda- Bloco H", "municipality": "Kilamba" }, "geometry": { "type": "Polygon", "coordinates": [ [ [ 13.259680947140156, -8.998472933877393 ], [ 13.259370955307199, -9.003155001135354 ], [ 13.266114473774227, -9.001523504732042 ], [ 13.266251142464458, -9.001194473419282 ], [ 13.266242379698399, -9.001048848394925 ], [ 13.265226253442508, -8.999510340651446 ], [ 13.259768767668772, -8.998405281631674 ], [ 13.259680947140156, -8.998472933877393 ] ] ] } },
{ "type": "Feature", "properties": { "name": "Quarteirão Nhaca Tolo- Bloco N", "municipality": "Kilamba" }, "geometry": { "type": "Polygon", "coordinates": [ [ [ 13.273695450398526, -8.994447462591749 ], [ 13.272891333264171, -8.972847755967454 ], [ 13.275706350098906, -8.972878166975176 ], [ 13.276252176548738, -8.972891516665227 ], [ 13.277920526548739, -8.972955116665227 ], [ 13.277089064602931, -8.994765958446539 ], [ 13.27691309594683, -8.994936137486013 ], [ 13.273695450398526, -8.994447462591749 ] ] ] } },
{ "type": "Feature", "properties": { "name": "Quarteirão Ekuikui II- Bloco T", "municipality": "Kilamba" }, "geometry": { "type": "Polygon", "coordinates": [ [ [ 13.276960226998989, -8.998475768429779 ], [ 13.27691309594683, -8.994936137486013 ], [ 13.277089064602931, -8.994765958446539 ], [ 13.29886730611824, -8.994151958123348 ], [ 13.29891555611824, -8.99586335812335 ], [ 13.298922605347764, -8.996237829999686 ], [ 13.298944055347764, -8.998505529999687 ], [ 13.277217336786089, -8.998711041360604 ], [ 13.276960226998989, -8.998475768429779 ] ] ] } },
{ "type": "Feature", "properties": { "name": "Quarteirão Kimpavita- Bloco P", "municipality": "Kilamba" }, "geometry": { "type": "Polygon", "coordinates": [ [ [ 13.281586242017784, -8.973195449825209 ], [ 13.283555872252242, -8.973571295759459 ], [ 13.285477969004523, -8.974142476555393 ], [ 13.287333211822137, -8.974903250841546 ], [ 13.289102952252195, -8.975845971498472 ], [ 13.290769401291168, -8.976961162525734 ], [ 13.292315808195653, -8.978237614292366 ], [ 13.293726628856799, -8.97966249621339 ], [ 13.294987682045941, -8.981221485719749 ], [ 13.296086291960878, -8.982898912225316 ], [ 13.297011415639988, -8.984677914643843 ], [ 13.297454667073264, -8.985790133624166 ], [ 13.297753753963404, -8.986540610872531 ], [ 13.298305845125524, -8.988468277538603 ], [ 13.29866213963928, -8.990441538202136 ], [ 13.298819056118241, -8.992440558123349 ], [ 13.29891555611824, -8.99586335812335 ], [ 13.29886730611824, -8.994151958123348 ], [ 13.277089064602931, -8.994765958446539 ], [ 13.277920526548739, -8.972955116665227 ], [ 13.276252176548738, -8.972891516665227 ], [ 13.279588876548738, -8.973018716665226 ], [ 13.281586242017784, -8.973195449825209 ] ] ] } },
{ "type": "Feature", "properties": { "name": "Quarteirão Rei Katiavala- Bloco S", "municipality": "Kilamba" }, "geometry": { "type": "Polygon", "coordinates": [ [ [ 13.273695450398526, -8.994447462591749 ], [ 13.273284763382538, -8.994821302501286 ], [ 13.273250027344186, -8.998536171983188 ], [ 13.273327287040413, -8.998607805011622 ], [ 13.276960226998989, -8.998475768429779 ], [ 13.27691309594683, -8.994936137486013 ], [ 13.273695450398526, -8.994447462591749 ] ] ] } },
{ "type": "Feature", "properties": { "name": "Quarteirão N'gola M'bandi- Bloco M", "municipality": "Kilamba" }, "geometry": { "type": "Polygon", "coordinates": [ [ [ 13.273695450398526, -8.994447462591749 ], [ 13.273284763382538, -8.994821302501286 ], [ 13.26997171523141, -8.99463499841614 ], [ 13.269760043891619, -8.994404842123204 ], [ 13.27086988661555, -8.972825918005817 ], [ 13.272891333264171, -8.972847755967454 ], [ 13.273695450398526, -8.994447462591749 ] ] ] } },
{ "type": "Feature", "properties": { "name": "Quarteirão Nzinga Mbandi- Bloco L", "municipality": "Kilamba" }, "geometry": { "type": "Polygon", "coordinates": [ [ [ 13.269760043891619, -8.994404842123204 ], [ 13.265050280148136, -8.994836970085938 ], [ 13.2649283, -8.994644990765517 ], [ 13.2649283, -8.972761730241743 ], [ 13.27086988661555, -8.972825918005817 ], [ 13.269760043891619, -8.994404842123204 ] ] ] } },
{ "type": "Feature", "properties": { "name": "Quarteirão Batuque- Bloco D", "municipality": "Kilamba" }, "geometry": { "type": "Polygon", "coordinates": [ [ [ 13.255856767826538, -8.994291843215127 ], [ 13.255993961006855, -8.994437007153291 ], [ 13.255721115727377, -8.998764605257785 ], [ 13.24065361559707, -9.011288842810423 ], [ 13.23875941559707, -9.009009992810423 ], [ 13.237587328348992, -9.007451123227817 ], [ 13.23657265038362, -9.005785502767067 ], [ 13.235725030940602, -9.004028970907834 ], [ 13.235052530590307, -9.002198231666016 ], [ 13.234561544580552, -9.000310694744282 ], [ 13.234256742019996, -8.998384309971772 ], [ 13.234069242019995, -8.996657309971772 ], [ 13.255856767826538, -8.994291843215127 ] ] ] } },
{ "type": "Feature", "properties": { "name": "Quarteirão- Bloco B", "municipality": "Kilamba" }, "geometry": { "type": "Polygon", "coordinates": [ [ [ 13.255993961006855, -8.994437007153291 ], [ 13.255856767826538, -8.994291843215127 ], [ 13.255412976762992, -8.972733436290884 ], [ 13.257472676762994, -8.972691036290884 ], [ 13.258100350098907, -8.972687966975176 ], [ 13.260551623601701, -8.972714448414472 ], [ 13.25986738308702, -8.994703205897725 ], [ 13.25985173795938, -8.994719962130834 ], [ 13.255993961006855, -8.994437007153291 ] ] ] } },
{ "type": "Feature", "properties": { "name": "Quarteirão Hungu- Bloco A", "municipality": "Kilamba" }, "geometry": { "type": "Polygon", "coordinates": [ [ [ 13.251407727566844, -8.972910992302339 ], [ 13.253353276762994, -8.972775836290884 ], [ 13.255412976762992, -8.972733436290884 ], [ 13.255856767826538, -8.994291843215127 ], [ 13.234069242019995, -8.996657309971772 ], [ 13.233881742019996, -8.994930309971771 ], [ 13.233766022656701, -8.992983508017019 ], [ 13.233840464059647, -8.991034691119618 ], [ 13.233998865233447, -8.989874837488722 ], [ 13.233998865233449, -8.989874837488721 ], [ 13.23410435839739, -8.98910238974546 ], [ 13.234555196411605, -8.987204977321392 ], [ 13.235188691276548, -8.985360495530166 ], [ 13.235998819360651, -8.983586482759803 ], [ 13.236977877502651, -8.981899807338552 ], [ 13.238116556257658, -8.980316507141191 ], [ 13.239404028416685, -8.978851637091733 ], [ 13.240828051957935, -8.977519126012591 ], [ 13.242375086450961, -8.97633164418138 ], [ 13.244030421806814, -8.975300482854655 ], [ 13.245778318149984, -8.97443544690419 ], [ 13.24760215548215, -8.97374476158665 ], [ 13.249484591714623, -8.973234994333145 ], [ 13.251407727566844, -8.972910992302339 ] ] ] } },
{ "type": "Feature", "properties": { "name": "Quarteirão Olombendo- Bloco E", "municipality": "Kilamba" }, "geometry": { "type": "Polygon", "coordinates": [ [ [ 13.255721115727377, -8.998764605257785 ], [ 13.259680947140156, -8.998472933877393 ], [ 13.259768767668772, -8.998405281631674 ], [ 13.25985173795938, -8.994719962130834 ], [ 13.255993961006855, -8.994437007153291 ], [ 13.255721115727377, -8.998764605257785 ] ] ] } },
{ "type": "Feature", "properties": { "name": "Quarteirão Miradouro Da Lua- Bloco G", "municipality": "Kilamba" }, "geometry": { "type": "Polygon", "coordinates": [ [ [ 13.255721115727377, -8.998764605257785 ], [ 13.259680947140156, -8.998472933877393 ], [ 13.259370955307199, -9.003155001135354 ], [ 13.246718396001322, -9.017556970611494 ], [ 13.244728196001322, -9.015808520611495 ], [ 13.243594150717463, -9.014730778780983 ], [ 13.242547815597069, -9.013567692810422 ], [ 13.24065361559707, -9.011288842810423 ], [ 13.255721115727377, -8.998764605257785 ] ] ] } },
{ "type": "Feature", "properties": { "name": "Calemba 2", "municipality": "Kilamba Kiaxi" }, "geometry": { "type": "MultiPolygon", "coordinates": [ [ [ [ 13.249712478789117, -8.899062812328435 ], [ 13.2342, -8.9671 ], [ 13.214097846375067, -8.925963418958833 ], [ 13.249712478789117, -8.899062812328435 ] ] ], [ [ [ 13.263477585425214, -8.888665689187075 ], [ 13.271813372066495, -8.891177440938808 ], [ 13.2513, -8.8921 ], [ 13.25941390203802, -8.891735089061781 ], [ 13.263477585425214, -8.888665689187075 ] ] ] ] } },
{ "type": "Feature", "properties": { "name": "Sector 11A", "municipality": "Kilamba Kiaxi" }, "geometry": { "type": "Polygon", "coordinates": [ [ [ 13.263477585425214, -8.888665689187075 ], [ 13.264818078767384, -8.873797868125394 ], [ 13.29877911993988, -8.858256855615579 ], [ 13.3092, -8.8646 ], [ 13.3071, -8.8716 ], [ 13.2956, -8.8888 ], [ 13.2891, -8.8904 ], [ 13.271813372066495, -8.891177440938808 ], [ 13.263477585425214, -8.888665689187075 ] ] ] } },
{ "type": "Feature", "properties": { "name": "Golf", "municipality": "Kilamba Kiaxi" }, "geometry": { "type": "Polygon", "coordinates": [ [ [ 13.258295227897008, -8.871482197551346 ], [ 13.245925623182991, -8.851433390720478 ], [ 13.2521, -8.8495 ], [ 13.2552, -8.8406 ], [ 13.258085548442951, -8.83829156124564 ], [ 13.263045271087776, -8.872547263351885 ], [ 13.258295227897008, -8.871482197551346 ] ] ] } },
{ "type": "Feature", "properties": { "name": "Golf II", "municipality": "Kilamba Kiaxi" }, "geometry": { "type": "Polygon", "coordinates": [ [ [ 13.258295227897008, -8.871482197551346 ], [ 13.263045271087776, -8.872547263351885 ], [ 13.264818078767384, -8.873797868125394 ], [ 13.263477585425214, -8.888665689187075 ], [ 13.25941390203802, -8.891735089061781 ], [ 13.2513, -8.8921 ], [ 13.249712478789117, -8.899062812328435 ], [ 13.214097846375067, -8.925963418958833 ], [ 13.1997, -8.8965 ], [ 13.1924, -8.8946 ], [ 13.2027, -8.8893 ], [ 13.213403240507315, -8.879355470212191 ], [ 13.258295227897008, -8.871482197551346 ] ] ] } },
{ "type": "Feature", "properties": { "name": "Distrito do Kilamba Kiaxe", "municipality": "Kilamba Kiaxi" }, "geometry": { "type": "Polygon", "coordinates": [ [ [ 13.258295227897008, -8.871482197551346 ], [ 13.213403240507315, -8.879355470212191 ], [ 13.2422, -8.8526 ], [ 13.245925623182991, -8.851433390720478 ], [ 13.258295227897008, -8.871482197551346 ] ] ] } },
{ "type": "Feature", "properties": { "name": "Palanca", "municipality": "Kilamba Kiaxi" }, "geometry": { "type": "Polygon", "coordinates": [ [ [ 13.263045271087776, -8.872547263351885 ], [ 13.258085548442951, -8.83829156124564 ], [ 13.2597, -8.837 ], [ 13.277, -8.845 ], [ 13.29877911993988, -8.858256855615579 ], [ 13.264818078767384, -8.873797868125394 ], [ 13.263045271087776, -8.872547263351885 ] ] ] } },
{ "type": "Feature", "properties": { "name": "Cassenda", "municipality": "Maianga" }, "geometry": { "type": "Polygon", "coordinates": [ [ [ 13.229821166280605, -8.836782513467188 ], [ 13.237297609631689, -8.852574940998878 ], [ 13.236081691616199, -8.858165961099152 ], [ 13.199, -8.8919 ], [ 13.1924, -8.8946 ], [ 13.1808, -8.8916 ], [ 13.180361614020539, -8.891187401431095 ], [ 13.229821166280605, -8.836782513467188 ] ] ] } },
{ "type": "Feature", "properties": { "name": "Alvalade", "municipality": "Maianga" }, "geometry": { "type": "Polygon", "coordinates": [ [ [ 13.235612959371604, -8.825365449705439 ], [ 13.2359, -8.8255 ], [ 13.2385, -8.8313 ], [ 13.2427998955351, -8.828118077304026 ], [ 13.243942854105949, -8.832405461263154 ], [ 13.242230281349981, -8.835410321678888 ], [ 13.229856542170666, -8.836582352894823 ], [ 13.228747279435112, -8.834589655853636 ], [ 13.235612959371604, -8.825365449705439 ] ] ] } },
{ "type": "Feature", "properties": { "name": "Maianga", "municipality": "Maianga" }, "geometry": { "type": "Polygon", "coordinates": [ [ [ 13.221722328078151, -8.829464374497006 ], [ 13.2263, -8.821 ], [ 13.235612959371604, -8.825365449705439 ], [ 13.228747279435112, -8.834589655853636 ], [ 13.221722328078151, -8.829464374497006 ] ] ] } },
{ "type": "Feature", "properties": { "name": "Vila Alice", "municipality": "Maianga" }, "geometry": { "type": "Polygon", "coordinates": [ [ [ 13.243942854105949, -8.832405461263154 ], [ 13.2427998955351, -8.828118077304026 ], [ 13.2435, -8.8276 ], [ 13.252695606869263, -8.832935722504388 ], [ 13.243942854105949, -8.832405461263154 ] ] ] } },
{ "type": "Feature", "properties": { "name": "Prenda", "municipality": "Maianga" }, "geometry": { "type": "Polygon", "coordinates": [ [ [ 13.228747279435112, -8.834589655853636 ], [ 13.229856542170666, -8.836582352894823 ], [ 13.229821166280605, -8.836782513467188 ], [ 13.180361614020539, -8.891187401431095 ], [ 13.1774, -8.8884 ], [ 13.1813, -8.8807 ], [ 13.1907, -8.8749 ], [ 13.201, -8.8633 ], [ 13.21, -8.8498 ], [ 13.2149, -8.8369 ], [ 13.221, -8.8308 ], [ 13.221722328078151, -8.829464374497006 ], [ 13.228747279435112, -8.834589655853636 ] ] ] } },
{ "type": "Feature", "properties": { "name": "Cassequel do Buraco", "municipality": "Maianga" }, "geometry": { "type": "Polygon", "coordinates": [ [ [ 13.242226307989357, -8.845492915790743 ], [ 13.242838863172446, -8.838437632815163 ], [ 13.254631822805177, -8.842231218398041 ], [ 13.253387614485742, -8.845803300347388 ], [ 13.242226307989357, -8.845492915790743 ] ] ] } },
{ "type": "Feature", "properties": { "name": "Martires de Kifangondo", "municipality": "Maianga" }, "geometry": { "type": "Polygon", "coordinates": [ [ [ 13.242838863172446, -8.838437632815163 ], [ 13.242230281349981, -8.835410321678888 ], [ 13.229856542170666, -8.836582352894823 ], [ 13.229821166280605, -8.836782513467188 ], [ 13.237297609631689, -8.852574940998878 ], [ 13.242226307989357, -8.845492915790743 ], [ 13.242838863172446, -8.838437632815163 ] ] ] } },
{ "type": "Feature", "properties": { "name": "Cassequel", "municipality": "Maianga" }, "geometry": { "type": "Polygon", "coordinates": [ [ [ 13.237297609631689, -8.852574940998878 ], [ 13.242226307989357, -8.845492915790743 ], [ 13.253387614485742, -8.845803300347388 ], [ 13.2521, -8.8495 ], [ 13.2422, -8.8526 ], [ 13.236081691616199, -8.858165961099152 ], [ 13.237297609631689, -8.852574940998878 ] ] ] } },
{ "type": "Feature", "properties": { "name": "Calemba", "municipality": "Maianga" }, "geometry": { "type": "Polygon", "coordinates": [ [ [ 13.242838863172446, -8.838437632815163 ], [ 13.242230281349981, -8.835410321678888 ], [ 13.243942854105949, -8.832405461263154 ], [ 13.252695606869263, -8.832935722504388 ], [ 13.2597, -8.837 ], [ 13.2552, -8.8406 ], [ 13.254631822805177, -8.842231218398041 ], [ 13.242838863172446, -8.838437632815163 ] ] ] } },
{ "type": "Feature", "properties": { "name": "Bairro Marçal", "municipality": "Rangel" }, "geometry": { "type": "Polygon", "coordinates": [ [ [ 13.267903547266721, -8.822439071403295 ], [ 13.267759552804032, -8.82340980322016 ], [ 13.267521103357321, -8.824361746772544 ], [ 13.267190495325112, -8.82528573432365 ], [ 13.266770912643484, -8.82617286736826 ], [ 13.266266396123026, -8.827014602330197 ], [ 13.265681804533626, -8.827802832841636 ], [ 13.265022767811866, -8.828529967811866 ], [ 13.264295632841636, -8.829189004533626 ], [ 13.263507402330196, -8.829773596123026 ], [ 13.26266566736826, -8.830278112643484 ], [ 13.26177853432365, -8.830697695325112 ], [ 13.260854546772544, -8.831028303357321 ], [ 13.25990260322016, -8.831266752804032 ], [ 13.258931871403295, -8.831410747266721 ], [ 13.2579517, -8.8314589 ], [ 13.256971528596704, -8.831410747266721 ], [ 13.256000796779839, -8.831266752804032 ], [ 13.255048853227455, -8.831028303357321 ], [ 13.254124865676349, -8.830697695325112 ], [ 13.253237732631739, -8.830278112643484 ], [ 13.252395997669803, -8.829773596123026 ], [ 13.251607767158363, -8.829189004533626 ], [ 13.250880632188133, -8.828529967811866 ], [ 13.250221595466373, -8.827802832841636 ], [ 13.249637003876973, -8.827014602330197 ], [ 13.249132487356515, -8.82617286736826 ], [ 13.248712904674887, -8.82528573432365 ], [ 13.248382296642678, -8.824361746772544 ], [ 13.248143847195967, -8.82340980322016 ], [ 13.247999852733278, -8.822439071403295 ], [ 13.2479517, -8.8214589 ], [ 13.247988056964619, -8.820718836983744 ], [ 13.2523, -8.8227 ], [ 13.2555, -8.8173 ], [ 13.2617, -8.8159 ], [ 13.26663836709135, -8.816523793737854 ], [ 13.266770912643484, -8.816744932631739 ], [ 13.267190495325112, -8.817632065676349 ], [ 13.267521103357321, -8.818556053227455 ], [ 13.267759552804032, -8.819507996779839 ], [ 13.267903547266721, -8.820478728596704 ], [ 13.2679517, -8.8214589 ], [ 13.267903547266721, -8.822439071403295 ] ] ] } },
{ "type": "Feature", "properties": { "name": "Valódia", "municipality": "Rangel" }, "geometry": { "type": "Polygon", "coordinates": [ [ [ 13.260709647266722, -8.821943171403296 ], [ 13.260565652804033, -8.822913903220162 ], [ 13.260327203357322, -8.823865846772545 ], [ 13.259996595325113, -8.824789834323651 ], [ 13.259577012643485, -8.825676967368262 ], [ 13.259072496123027, -8.826518702330198 ], [ 13.258487904533627, -8.827306932841637 ], [ 13.257828867811867, -8.828034067811867 ], [ 13.257101732841637, -8.828693104533627 ], [ 13.256313502330197, -8.829277696123027 ], [ 13.255471767368261, -8.829782212643485 ], [ 13.254584634323651, -8.830201795325113 ], [ 13.253660646772545, -8.830532403357322 ], [ 13.252708703220161, -8.830770852804033 ], [ 13.251737971403296, -8.830914847266722 ], [ 13.2507578, -8.830963 ], [ 13.24989294007082, -8.830920512156188 ], [ 13.2435, -8.8276 ], [ 13.2452, -8.8236 ], [ 13.2449, -8.8193 ], [ 13.2523, -8.8227 ], [ 13.2555, -8.8173 ], [ 13.259632715393497, -8.816366806201467 ], [ 13.259996595325113, -8.817136165676351 ], [ 13.260327203357322, -8.818060153227457 ], [ 13.260565652804033, -8.81901209677984 ], [ 13.260709647266722, -8.819982828596705 ], [ 13.2607578, -8.820963 ], [ 13.260709647266722, -8.821943171403296 ] ] ] } },
{ "type": "Feature", "properties": { "name": "Combatentes", "municipality": "Rangel" }, "geometry": { "type": "Polygon", "coordinates": [ [ [ 13.261631047266722, -8.819171971403295 ], [ 13.261487052804032, -8.82014270322016 ], [ 13.261248603357322, -8.821094646772544 ], [ 13.260917995325112, -8.82201863432365 ], [ 13.260498412643484, -8.82290576736826 ], [ 13.259993896123026, -8.823747502330196 ], [ 13.259409304533627, -8.824535732841635 ], [ 13.258750267811866, -8.825262867811865 ], [ 13.258023132841636, -8.825921904533626 ], [ 13.257234902330197, -8.826506496123026 ], [ 13.256393167368261, -8.827011012643483 ], [ 13.25550603432365, -8.827430595325112 ], [ 13.254582046772544, -8.827761203357321 ], [ 13.253630103220161, -8.827999652804031 ], [ 13.252659371403295, -8.828143647266721 ], [ 13.2516792, -8.8281918 ], [ 13.250699028596705, -8.828143647266721 ], [ 13.249728296779839, -8.827999652804031 ], [ 13.248776353227456, -8.827761203357321 ], [ 13.24785236567635, -8.827430595325112 ], [ 13.246965232631739, -8.827011012643483 ], [ 13.246123497669803, -8.826506496123026 ], [ 13.245335267158364, -8.825921904533626 ], [ 13.244608132188134, -8.825262867811865 ], [ 13.244529944553427, -8.825176601050762 ], [ 13.2452, -8.8236 ], [ 13.2449, -8.8193 ], [ 13.2523, -8.8227 ], [ 13.2555, -8.8173 ], [ 13.261417633688284, -8.815963760134903 ], [ 13.261487052804032, -8.816240896779838 ], [ 13.261631047266722, -8.817211628596704 ], [ 13.2616792, -8.8181918 ], [ 13.261631047266722, -8.819171971403295 ] ] ] } },
{ "type": "Feature", "properties": { "name": "Cuca", "municipality": "Rangel" }, "geometry": { "type": "Polygon", "coordinates": [ [ [ 13.27348346567635, -8.824470395325113 ], [ 13.272596332631739, -8.824050812643485 ], [ 13.271754597669803, -8.823546296123027 ], [ 13.270966367158364, -8.822961704533627 ], [ 13.270239232188134, -8.822302667811867 ], [ 13.269580195466373, -8.821575532841637 ], [ 13.268995603876974, -8.820787302330197 ], [ 13.268491087356516, -8.819945567368261 ], [ 13.268071504674888, -8.819058434323651 ], [ 13.267740896642678, -8.818134446772545 ], [ 13.267502447195968, -8.817182503220161 ], [ 13.267419370677125, -8.816622446822374 ], [ 13.2712, -8.8171 ], [ 13.2749, -8.822 ], [ 13.2743358944668, -8.824775399223348 ], [ 13.27348346567635, -8.824470395325113 ] ] ] } },
{ "type": "Feature", "properties": { "name": "Precol", "municipality": "Rangel" }, "geometry": { "type": "Polygon", "coordinates": [ [ [ 13.272867546772543, -8.831408703357322 ], [ 13.27191560322016, -8.831647152804033 ], [ 13.270944871403294, -8.831791147266722 ], [ 13.2699647, -8.8318393 ], [ 13.268984528596704, -8.831791147266722 ], [ 13.268013796779838, -8.831647152804033 ], [ 13.267061853227455, -8.831408703357322 ], [ 13.266137865676349, -8.831078095325113 ], [ 13.265250732631738, -8.830658512643485 ], [ 13.264408997669802, -8.830153996123027 ], [ 13.263620767158363, -8.829569404533627 ], [ 13.262893632188133, -8.828910367811867 ], [ 13.262234595466373, -8.828183232841637 ], [ 13.261650003876973, -8.827395002330197 ], [ 13.261145487356515, -8.826553267368261 ], [ 13.260725904674887, -8.825666134323651 ], [ 13.260395296642677, -8.824742146772545 ], [ 13.260156847195967, -8.823790203220161 ], [ 13.260012852733277, -8.822819471403296 ], [ 13.2599647, -8.8218393 ], [ 13.260012852733277, -8.820859128596705 ], [ 13.260156847195967, -8.81988839677984 ], [ 13.260395296642677, -8.818936453227456 ], [ 13.260725904674887, -8.81801246567635 ], [ 13.261145487356515, -8.81712533263174 ], [ 13.261650003876973, -8.816283597669804 ], [ 13.261914412654654, -8.815927083703745 ], [ 13.2712, -8.8171 ], [ 13.2749, -8.822 ], [ 13.272997082361268, -8.831362354782563 ], [ 13.272867546772543, -8.831408703357322 ] ] ] } },
{ "type": "Feature", "properties": { "name": "Bairro dos CTT", "municipality": "Rangel" }, "geometry": { "type": "Polygon", "coordinates": [ [ [ 13.274449512643484, -8.822153467368262 ], [ 13.273944996123026, -8.822995202330198 ], [ 13.273360404533626, -8.823783432841637 ], [ 13.272701367811866, -8.824510567811867 ], [ 13.271974232841636, -8.825169604533627 ], [ 13.271186002330197, -8.825754196123027 ], [ 13.270344267368261, -8.826258712643485 ], [ 13.26945713432365, -8.826678295325113 ], [ 13.268533146772544, -8.827008903357322 ], [ 13.267581203220161, -8.827247352804033 ], [ 13.266610471403295, -8.827391347266722 ], [ 13.2656303, -8.8274395 ], [ 13.264650128596704, -8.827391347266722 ], [ 13.263679396779839, -8.827247352804033 ], [ 13.262727453227455, -8.827008903357322 ], [ 13.261803465676349, -8.826678295325113 ], [ 13.260916332631739, -8.826258712643485 ], [ 13.260074597669803, -8.825754196123027 ], [ 13.259286367158364, -8.825169604533627 ], [ 13.258559232188134, -8.824510567811867 ], [ 13.257900195466373, -8.823783432841637 ], [ 13.257315603876973, -8.822995202330198 ], [ 13.256811087356516, -8.822153467368262 ], [ 13.256391504674887, -8.821266334323651 ], [ 13.256060896642678, -8.820342346772545 ], [ 13.255822447195968, -8.819390403220162 ], [ 13.255678452733278, -8.818419671403296 ], [ 13.2556303, -8.8174395 ], [ 13.255638691724988, -8.817268682513712 ], [ 13.2617, -8.8159 ], [ 13.2712, -8.8171 ], [ 13.274667638784866, -8.821692278390769 ], [ 13.274449512643484, -8.822153467368262 ] ] ] } },
{ "type": "Feature", "properties": { "name": "Terra Nova", "municipality": "Rangel" }, "geometry": { "type": "Polygon", "coordinates": [ [ [ 13.275828004533627, -8.843099832841636 ], [ 13.275168967811867, -8.843826967811866 ], [ 13.275013268299428, -8.843968085624182 ], [ 13.258224352748485, -8.835247872770855 ], [ 13.258290047195969, -8.834804996779839 ], [ 13.258528496642679, -8.833853053227456 ], [ 13.258859104674888, -8.83292906567635 ], [ 13.259278687356517, -8.832041932631739 ], [ 13.259783203876975, -8.831200197669803 ], [ 13.260367795466374, -8.830411967158364 ], [ 13.261026832188135, -8.829684832188134 ], [ 13.261753967158365, -8.829025795466373 ], [ 13.262542197669804, -8.828441203876974 ], [ 13.26338393263174, -8.827936687356516 ], [ 13.264271065676351, -8.827517104674888 ], [ 13.265195053227457, -8.827186496642678 ], [ 13.26614699677984, -8.826948047195968 ], [ 13.267117728596705, -8.826804052733278 ], [ 13.2680979, -8.8267559 ], [ 13.269078071403296, -8.826804052733278 ], [ 13.270048803220162, -8.826948047195968 ], [ 13.271000746772545, -8.827186496642678 ], [ 13.271924734323651, -8.827517104674888 ], [ 13.272811867368262, -8.827936687356516 ], [ 13.273597630914356, -8.828407655901373 ], [ 13.2724, -8.8343 ], [ 13.2752, -8.8378 ], [ 13.276349252746574, -8.842397010986296 ], [ 13.275828004533627, -8.843099832841636 ] ] ] } },
{ "type": "Feature", "properties": { "name": "Bairro Nelito Soares", "municipality": "Rangel" }, "geometry": { "type": "Polygon", "coordinates": [ [ [ 13.269081547266723, -8.831885071403295 ], [ 13.268937552804033, -8.832855803220161 ], [ 13.268699103357322, -8.833807746772544 ], [ 13.268368495325113, -8.83473173432365 ], [ 13.267948912643485, -8.835618867368261 ], [ 13.267444396123027, -8.836460602330197 ], [ 13.266859804533627, -8.837248832841636 ], [ 13.266200767811867, -8.837975967811866 ], [ 13.265473632841637, -8.838635004533627 ], [ 13.265173751870803, -8.838857411419463 ], [ 13.24914794284433, -8.830533558372876 ], [ 13.249177852733279, -8.829924728596705 ], [ 13.249321847195969, -8.828953996779839 ], [ 13.249560296642679, -8.828002053227456 ], [ 13.249890904674889, -8.82707806567635 ], [ 13.250310487356517, -8.826190932631739 ], [ 13.250815003876975, -8.825349197669803 ], [ 13.251399595466374, -8.824560967158364 ], [ 13.252058632188135, -8.823833832188134 ], [ 13.252785767158365, -8.823174795466374 ], [ 13.253573997669804, -8.822590203876974 ], [ 13.25441573263174, -8.822085687356516 ], [ 13.255302865676351, -8.821666104674888 ], [ 13.256226853227457, -8.821335496642678 ], [ 13.25717879677984, -8.821097047195968 ], [ 13.258149528596705, -8.820953052733278 ], [ 13.2591297, -8.8209049 ], [ 13.260109871403296, -8.820953052733278 ], [ 13.261080603220162, -8.821097047195968 ], [ 13.262032546772545, -8.821335496642678 ], [ 13.262956534323651, -8.821666104674888 ], [ 13.263843667368262, -8.822085687356516 ], [ 13.264685402330198, -8.822590203876974 ], [ 13.265473632841637, -8.823174795466374 ], [ 13.266200767811867, -8.823833832188134 ], [ 13.266859804533627, -8.824560967158364 ], [ 13.267444396123027, -8.825349197669803 ], [ 13.267948912643485, -8.826190932631739 ], [ 13.268368495325113, -8.82707806567635 ], [ 13.268699103357322, -8.828002053227456 ], [ 13.268937552804033, -8.828953996779839 ], [ 13.269081547266723, -8.829924728596705 ], [ 13.2691297, -8.8309049 ], [ 13.269081547266723, -8.831885071403295 ] ] ] } },
{ "type": "Feature", "properties": { "name": "Marcal", "municipality": "Rangel" }, "geometry": { "type": "Polygon", "coordinates": [ [ [ 13.268243547266721, -8.821261071403296 ], [ 13.268099552804031, -8.822231803220161 ], [ 13.267861103357321, -8.823183746772544 ], [ 13.267530495325111, -8.82410773432365 ], [ 13.267110912643483, -8.824994867368261 ], [ 13.266606396123025, -8.825836602330197 ], [ 13.266021804533626, -8.826624832841636 ], [ 13.265362767811865, -8.827351967811866 ], [ 13.264635632841635, -8.828011004533627 ], [ 13.263847402330196, -8.828595596123026 ], [ 13.26300566736826, -8.829100112643484 ], [ 13.262118534323649, -8.829519695325112 ], [ 13.261194546772543, -8.829850303357322 ], [ 13.26024260322016, -8.830088752804032 ], [ 13.259271871403294, -8.830232747266722 ], [ 13.2582917, -8.8302809 ], [ 13.257311528596704, -8.830232747266722 ], [ 13.256340796779838, -8.830088752804032 ], [ 13.255388853227455, -8.829850303357322 ], [ 13.254464865676349, -8.829519695325112 ], [ 13.253577732631738, -8.829100112643484 ], [ 13.252735997669802, -8.828595596123026 ], [ 13.251947767158363, -8.828011004533627 ], [ 13.251220632188133, -8.827351967811866 ], [ 13.250561595466372, -8.826624832841636 ], [ 13.249977003876973, -8.825836602330197 ], [ 13.249472487356515, -8.824994867368261 ], [ 13.249052904674887, -8.82410773432365 ], [ 13.248722296642677, -8.823183746772544 ], [ 13.248483847195967, -8.822231803220161 ], [ 13.248339852733277, -8.821261071403296 ], [ 13.24832072334196, -8.820871683697657 ], [ 13.2523, -8.8227 ], [ 13.2555, -8.8173 ], [ 13.2617, -8.8159 ], [ 13.267598855133956, -8.816645118543237 ], [ 13.267861103357321, -8.817378053227456 ], [ 13.268099552804031, -8.818329996779839 ], [ 13.268243547266721, -8.819300728596705 ], [ 13.2682917, -8.8202809 ], [ 13.268243547266721, -8.821261071403296 ] ] ] } },
{ "type": "Feature", "properties": { "name": "Comissão do Rangel", "municipality": "Rangel" }, "geometry": { "type": "Polygon", "coordinates": [ [ [ 13.275280846772544, -8.840948703357322 ], [ 13.274328903220161, -8.841187152804032 ], [ 13.273358171403295, -8.841331147266722 ], [ 13.272378, -8.8413793 ], [ 13.271397828596704, -8.841331147266722 ], [ 13.270427096779839, -8.841187152804032 ], [ 13.269475153227456, -8.840948703357322 ], [ 13.268591049354244, -8.840632365933249 ], [ 13.267068314101554, -8.839841452697524 ], [ 13.266822297669803, -8.839693996123026 ], [ 13.266034067158364, -8.839109404533627 ], [ 13.265306932188134, -8.838450367811866 ], [ 13.264647895466373, -8.837723232841636 ], [ 13.264063303876974, -8.836935002330197 ], [ 13.263558787356516, -8.836093267368261 ], [ 13.263139204674887, -8.83520613432365 ], [ 13.262808596642678, -8.834282146772544 ], [ 13.262570147195968, -8.833330203220161 ], [ 13.262426152733278, -8.832359471403295 ], [ 13.262378, -8.8313793 ], [ 13.262426152733278, -8.830399128596705 ], [ 13.262570147195968, -8.829428396779839 ], [ 13.262808596642678, -8.828476453227456 ], [ 13.263139204674887, -8.82755246567635 ], [ 13.263558787356516, -8.826665332631739 ], [ 13.264063303876974, -8.825823597669803 ], [ 13.264647895466373, -8.825035367158364 ], [ 13.265306932188134, -8.824308232188134 ], [ 13.266034067158364, -8.823649195466373 ], [ 13.266822297669803, -8.823064603876974 ], [ 13.267664032631739, -8.822560087356516 ], [ 13.26855116567635, -8.822140504674888 ], [ 13.269475153227456, -8.821809896642678 ], [ 13.270427096779839, -8.821571447195968 ], [ 13.271397828596704, -8.821427452733278 ], [ 13.272378, -8.8213793 ], [ 13.273358171403295, -8.821427452733278 ], [ 13.274328903220161, -8.821571447195968 ], [ 13.274634130588849, -8.821647902671717 ], [ 13.2749, -8.822 ], [ 13.2724, -8.8343 ], [ 13.2752, -8.8378 ], [ 13.275929181381249, -8.840716725525001 ], [ 13.275280846772544, -8.840948703357322 ] ] ] } },
{ "type": "Feature", "properties": { "name": "Zangado", "municipality": "Rangel" }, "geometry": { "type": "Polygon", "coordinates": [ [ [ 13.272008647266722, -8.823008671403295 ], [ 13.271864652804032, -8.823979403220161 ], [ 13.271626203357322, -8.824931346772544 ], [ 13.271295595325112, -8.82585533432365 ], [ 13.270876012643484, -8.826742467368261 ], [ 13.270371496123026, -8.827584202330197 ], [ 13.269786904533627, -8.828372432841636 ], [ 13.269127867811866, -8.829099567811866 ], [ 13.268400732841636, -8.829758604533627 ], [ 13.267612502330197, -8.830343196123026 ], [ 13.266770767368261, -8.830847712643484 ], [ 13.26588363432365, -8.831267295325112 ], [ 13.264959646772544, -8.831597903357322 ], [ 13.264007703220161, -8.831836352804032 ], [ 13.263036971403295, -8.831980347266722 ], [ 13.2620568, -8.8320285 ], [ 13.261076628596705, -8.831980347266722 ], [ 13.260105896779839, -8.831836352804032 ], [ 13.259153953227456, -8.831597903357322 ], [ 13.25822996567635, -8.831267295325112 ], [ 13.257342832631739, -8.830847712643484 ], [ 13.256501097669803, -8.830343196123026 ], [ 13.255712867158364, -8.829758604533627 ], [ 13.254985732188134, -8.829099567811866 ], [ 13.254326695466373, -8.828372432841636 ], [ 13.253742103876974, -8.827584202330197 ], [ 13.253237587356516, -8.826742467368261 ], [ 13.252818004674888, -8.82585533432365 ], [ 13.252487396642678, -8.824931346772544 ], [ 13.252248947195968, -8.823979403220161 ], [ 13.252104952733278, -8.823008671403295 ], [ 13.252084934259637, -8.822601186011184 ], [ 13.2523, -8.8227 ], [ 13.2555, -8.8173 ], [ 13.2617, -8.8159 ], [ 13.270710355359457, -8.817038150150667 ], [ 13.270876012643484, -8.817314532631739 ], [ 13.271295595325112, -8.81820166567635 ], [ 13.271626203357322, -8.819125653227456 ], [ 13.271864652804032, -8.820077596779839 ], [ 13.272008647266722, -8.821048328596705 ], [ 13.2720568, -8.8220285 ], [ 13.272008647266722, -8.823008671403295 ] ] ] } },
{ "type": "Feature", "properties": { "name": "Vila Clotilde", "municipality": "Rangel" }, "geometry": { "type": "Polygon", "coordinates": [ [ [ 13.254531447266722, -8.821418371403295 ], [ 13.254387452804032, -8.822389103220161 ], [ 13.254149003357321, -8.823341046772544 ], [ 13.253818395325112, -8.82426503432365 ], [ 13.253398812643484, -8.825152167368261 ], [ 13.252894296123026, -8.825993902330197 ], [ 13.252309704533626, -8.826782132841636 ], [ 13.251650667811866, -8.827509267811866 ], [ 13.250923532841636, -8.828168304533627 ], [ 13.250135302330197, -8.828752896123026 ], [ 13.249293567368261, -8.829257412643484 ], [ 13.24840643432365, -8.829676995325112 ], [ 13.247869023665011, -8.829869283933469 ], [ 13.2435, -8.8276 ], [ 13.2452, -8.8236 ], [ 13.2449, -8.8193 ], [ 13.2523, -8.8227 ], [ 13.254469328531899, -8.819039258102418 ], [ 13.254531447266722, -8.819458028596705 ], [ 13.2545796, -8.8204382 ], [ 13.254531447266722, -8.821418371403295 ] ] ] } },
{ "type": "Feature", "properties": { "name": "Bairro dos Saiotes", "municipality": "Rangel" }, "geometry": { "type": "Polygon", "coordinates": [ [ [ 13.271476147266721, -8.835739071403296 ], [ 13.271332152804032, -8.836709803220161 ], [ 13.271093703357321, -8.837661746772545 ], [ 13.270763095325112, -8.838585734323651 ], [ 13.270343512643484, -8.839472867368261 ], [ 13.269838996123026, -8.840314602330198 ], [ 13.269321821723905, -8.841011931283461 ], [ 13.251924875248138, -8.831975905352765 ], [ 13.251954896642678, -8.831856053227456 ], [ 13.252285504674887, -8.83093206567635 ], [ 13.252705087356516, -8.83004493263174 ], [ 13.253209603876973, -8.829203197669804 ], [ 13.253794195466373, -8.828414967158364 ], [ 13.254453232188133, -8.827687832188134 ], [ 13.255180367158363, -8.827028795466374 ], [ 13.255968597669803, -8.826444203876974 ], [ 13.256810332631739, -8.825939687356517 ], [ 13.257697465676349, -8.825520104674888 ], [ 13.258621453227455, -8.825189496642679 ], [ 13.259573396779839, -8.824951047195968 ], [ 13.260544128596704, -8.824807052733279 ], [ 13.2615243, -8.8247589 ], [ 13.262504471403295, -8.824807052733279 ], [ 13.26347520322016, -8.824951047195968 ], [ 13.264427146772544, -8.825189496642679 ], [ 13.26535113432365, -8.825520104674888 ], [ 13.26623826736826, -8.825939687356517 ], [ 13.267080002330196, -8.826444203876974 ], [ 13.267868232841636, -8.827028795466374 ], [ 13.268595367811866, -8.827687832188134 ], [ 13.269254404533626, -8.828414967158364 ], [ 13.269838996123026, -8.829203197669804 ], [ 13.270343512643484, -8.83004493263174 ], [ 13.270763095325112, -8.83093206567635 ], [ 13.271093703357321, -8.831856053227456 ], [ 13.271332152804032, -8.83280799677984 ], [ 13.271476147266721, -8.833778728596705 ], [ 13.2715243, -8.8347589 ], [ 13.271476147266721, -8.835739071403296 ] ] ] } },
{ "type": "Feature", "properties": { "name": "Bairro Indigena", "municipality": "Rangel" }, "geometry": { "type": "Polygon", "coordinates": [ [ [ 13.268096647266722, -8.828127071403296 ], [ 13.267952652804032, -8.829097803220161 ], [ 13.267714203357322, -8.830049746772545 ], [ 13.267383595325112, -8.830973734323651 ], [ 13.266964012643484, -8.831860867368261 ], [ 13.266459496123026, -8.832702602330198 ], [ 13.265874904533627, -8.833490832841637 ], [ 13.265215867811866, -8.834217967811867 ], [ 13.264488732841636, -8.834877004533627 ], [ 13.263700502330197, -8.835461596123027 ], [ 13.262858767368261, -8.835966112643485 ], [ 13.26197163432365, -8.836385695325113 ], [ 13.261049930428204, -8.836715486252261 ], [ 13.248657328870944, -8.83027873201058 ], [ 13.248575396642678, -8.830049746772545 ], [ 13.248336947195968, -8.829097803220161 ], [ 13.248192952733278, -8.828127071403296 ], [ 13.2481448, -8.8271469 ], [ 13.248192952733278, -8.826166728596705 ], [ 13.248336947195968, -8.82519599677984 ], [ 13.248575396642678, -8.824244053227456 ], [ 13.248906004674888, -8.82332006567635 ], [ 13.249325587356516, -8.82243293263174 ], [ 13.249830103876974, -8.821591197669804 ], [ 13.249844494162886, -8.82157179461538 ], [ 13.2523, -8.8227 ], [ 13.255351873792971, -8.817549962974361 ], [ 13.256193896779839, -8.817339047195969 ], [ 13.257164628596705, -8.817195052733279 ], [ 13.2581448, -8.8171469 ], [ 13.259124971403295, -8.817195052733279 ], [ 13.260095703220161, -8.817339047195969 ], [ 13.261047646772544, -8.817577496642679 ], [ 13.26197163432365, -8.817908104674888 ], [ 13.262858767368261, -8.818327687356517 ], [ 13.263700502330197, -8.818832203876974 ], [ 13.264488732841636, -8.819416795466374 ], [ 13.265215867811866, -8.820075832188135 ], [ 13.265874904533627, -8.820802967158365 ], [ 13.266459496123026, -8.821591197669804 ], [ 13.266964012643484, -8.82243293263174 ], [ 13.267383595325112, -8.82332006567635 ], [ 13.267714203357322, -8.824244053227456 ], [ 13.267952652804032, -8.82519599677984 ], [ 13.268096647266722, -8.826166728596705 ], [ 13.2681448, -8.8271469 ], [ 13.268096647266722, -8.828127071403296 ] ] ] } },
{ "type": "Feature", "properties": { "name": "Morro da Luz", "municipality": "Samba" }, "geometry": { "type": "Polygon", "coordinates": [ ] } },
{ "type": "Feature", "properties": { "name": "Samba", "municipality": "Samba" }, "geometry": { "type": "Polygon", "coordinates": [ [ [ 13.21017409677984, -8.848599052804031 ], [ 13.209222153227456, -8.848360603357321 ], [ 13.20829816567635, -8.848029995325112 ], [ 13.20741103263174, -8.847610412643483 ], [ 13.206569297669803, -8.847105896123026 ], [ 13.205781067158364, -8.846521304533626 ], [ 13.205053932188134, -8.845862267811865 ], [ 13.204464338125989, -8.845211751009584 ], [ 13.2034, -8.8397 ], [ 13.2149, -8.8305 ], [ 13.21791212307736, -8.830648137200527 ], [ 13.218468932841636, -8.831061095466373 ], [ 13.219196067811867, -8.831720132188133 ], [ 13.219616258656952, -8.832183741343048 ], [ 13.2149, -8.8369 ], [ 13.2128, -8.8422 ], [ 13.210428548422222, -8.848636797139685 ], [ 13.21017409677984, -8.848599052804031 ] ] ] } },
{ "type": "Feature", "properties": { "name": "Mabunda", "municipality": "Samba" }, "geometry": { "type": "Polygon", "coordinates": [ [ [ 13.204758953227456, -8.838741796642678 ], [ 13.20571089677984, -8.838503347195967 ], [ 13.206681628596705, -8.838359352733278 ], [ 13.2076618, -8.8383112 ], [ 13.208641971403296, -8.838359352733278 ], [ 13.209612703220161, -8.838503347195967 ], [ 13.210564646772545, -8.838741796642678 ], [ 13.211488634323651, -8.839072404674887 ], [ 13.212375767368261, -8.839491987356515 ], [ 13.213217502330197, -8.839996503876973 ], [ 13.21356961190777, -8.84025764613753 ], [ 13.2128, -8.8422 ], [ 13.21, -8.8498 ], [ 13.2062, -8.8542 ], [ 13.2034, -8.8397 ], [ 13.204467318462246, -8.838846145230205 ], [ 13.204758953227456, -8.838741796642678 ] ] ] } },
{ "type": "Feature", "properties": { "name": "Corimba", "municipality": "Samba" }, "geometry": { "type": "Polygon", "coordinates": [ ] } },
{ "type": "Feature", "properties": { "name": "Gamek a Direita", "municipality": "Samba" }, "geometry": { "type": "Polygon", "coordinates": [ ] } },
{ "type": "Feature", "properties": { "name": "Gamek", "municipality": "Samba" }, "geometry": { "type": "Polygon", "coordinates": [ ] } },
{ "type": "Feature", "properties": { "name": "Rocha Pinto", "municipality": "Samba" }, "geometry": { "type": "Polygon", "coordinates": [ [ [ 13.206117532188134, -8.850848732188133 ], [ 13.206844667158364, -8.850189695466373 ], [ 13.207632897669804, -8.849605103876973 ], [ 13.20847463263174, -8.849100587356515 ], [ 13.20936176567635, -8.848681004674887 ], [ 13.210285753227456, -8.848350396642678 ], [ 13.210559309439427, -8.848281874378699 ], [ 13.21, -8.8498 ], [ 13.2062, -8.8542 ], [ 13.205652035809036, -8.851362328296791 ], [ 13.206117532188134, -8.850848732188133 ] ] ] } },
{ "type": "Feature", "properties": { "name": "Miramar", "municipality": "Sambizanga" }, "geometry": { "type": "Polygon", "coordinates": [ [ [ 13.258791647266722, -8.809741271403295 ], [ 13.258647652804033, -8.810712003220161 ], [ 13.258409203357322, -8.811663946772544 ], [ 13.258078595325113, -8.81258793432365 ], [ 13.257659012643485, -8.813475067368261 ], [ 13.257154496123027, -8.814316802330197 ], [ 13.256569904533627, -8.815105032841636 ], [ 13.255910867811867, -8.815832167811866 ], [ 13.255590580019561, -8.816122459745692 ], [ 13.2561, -8.8095 ], [ 13.258802011650452, -8.807991900474166 ], [ 13.2588398, -8.8087611 ], [ 13.258791647266722, -8.809741271403295 ] ] ] } },
{ "type": "Feature", "properties": { "name": "Bairro Operario", "municipality": "Sambizanga" }, "geometry": { "type": "Polygon", "coordinates": [ [ [ 13.256663547266722, -8.814646071403295 ], [ 13.256519552804033, -8.815616803220161 ], [ 13.256281103357322, -8.816568746772544 ], [ 13.256065115157726, -8.817172393351481 ], [ 13.2555, -8.8173 ], [ 13.256052078998202, -8.810122973023375 ], [ 13.256281103357322, -8.810763053227456 ], [ 13.256519552804033, -8.811714996779839 ], [ 13.256663547266722, -8.812685728596705 ], [ 13.2567117, -8.8136659 ], [ 13.256663547266722, -8.814646071403295 ] ] ] } },
{ "type": "Feature", "properties": { "name": "São Paulo", "municipality": "Sambizanga" }, "geometry": { "type": "Polygon", "coordinates": [ [ [ 13.265874147266722, -8.814504871403296 ], [ 13.265730152804032, -8.815475603220161 ], [ 13.265503502386723, -8.816380442406743 ], [ 13.2617, -8.8159 ], [ 13.2555, -8.8173 ], [ 13.2561, -8.8095 ], [ 13.262446354793381, -8.805957848487415 ], [ 13.262993367811866, -8.806453632188134 ], [ 13.263652404533627, -8.807180767158364 ], [ 13.264236996123026, -8.807968997669803 ], [ 13.264741512643484, -8.80881073263174 ], [ 13.265161095325112, -8.80969786567635 ], [ 13.265491703357322, -8.810621853227456 ], [ 13.265730152804032, -8.81157379677984 ], [ 13.265874147266722, -8.812544528596705 ], [ 13.2659223, -8.8135247 ], [ 13.265874147266722, -8.814504871403296 ] ] ] } },
{ "type": "Feature", "properties": { "name": "Boavista", "municipality": "Sambizanga" }, "geometry": { "type": "Polygon", "coordinates": [ [ [ 13.273351247266723, -8.802655671403295 ], [ 13.273207252804033, -8.803626403220161 ], [ 13.272968803357323, -8.804578346772544 ], [ 13.272638195325113, -8.80550233432365 ], [ 13.272218612643485, -8.806389467368261 ], [ 13.271714096123027, -8.807231202330197 ], [ 13.271129504533627, -8.808019432841636 ], [ 13.270470467811867, -8.808746567811866 ], [ 13.269743332841637, -8.809405604533627 ], [ 13.268955102330198, -8.809990196123026 ], [ 13.268113367368262, -8.810494712643484 ], [ 13.267226234323651, -8.810914295325112 ], [ 13.266302246772545, -8.811244903357322 ], [ 13.265350303220162, -8.811483352804032 ], [ 13.264379571403296, -8.811627347266722 ], [ 13.2633994, -8.8116755 ], [ 13.262419228596706, -8.811627347266722 ], [ 13.26144849677984, -8.811483352804032 ], [ 13.260496553227457, -8.811244903357322 ], [ 13.259572565676351, -8.810914295325112 ], [ 13.25868543263174, -8.810494712643484 ], [ 13.257843697669804, -8.809990196123026 ], [ 13.257055467158365, -8.809405604533627 ], [ 13.256755779542338, -8.809133983511252 ], [ 13.2647, -8.8047 ], [ 13.272265391429954, -8.797060438065831 ], [ 13.272638195325113, -8.79784866567635 ], [ 13.272968803357323, -8.798772653227456 ], [ 13.273207252804033, -8.799724596779839 ], [ 13.273351247266723, -8.800695328596705 ], [ 13.2733994, -8.8016755 ], [ 13.273351247266723, -8.802655671403295 ] ] ] } },
{ "type": "Feature", "properties": { "name": "Sambizanga", "municipality": "Sambizanga" }, "geometry": { "type": "Polygon", "coordinates": [ [ [ 13.2715131, -8.8143556 ], [ 13.270532928596705, -8.814307447266721 ], [ 13.269562196779839, -8.814163452804031 ], [ 13.268610253227456, -8.813925003357321 ], [ 13.26768626567635, -8.813594395325111 ], [ 13.266799132631739, -8.813174812643483 ], [ 13.265957397669803, -8.812670296123025 ], [ 13.265169167158364, -8.812085704533626 ], [ 13.264442032188134, -8.811426667811865 ], [ 13.263782995466373, -8.810699532841635 ], [ 13.263198403876974, -8.809911302330196 ], [ 13.262693887356516, -8.80906956736826 ], [ 13.262274304674888, -8.808182434323649 ], [ 13.261943696642678, -8.807258446772543 ], [ 13.261719528850513, -8.806363518781108 ], [ 13.2647, -8.8047 ], [ 13.274490969791861, -8.794813040308219 ], [ 13.27533993432365, -8.795116804674887 ], [ 13.276227067368261, -8.795536387356515 ], [ 13.277068802330197, -8.796040903876973 ], [ 13.277857032841636, -8.796625495466373 ], [ 13.278584167811866, -8.797284532188133 ], [ 13.279243204533627, -8.798011667158363 ], [ 13.279784729607506, -8.798741829195727 ], [ 13.2781, -8.7984 ], [ 13.276, -8.8048 ], [ 13.272285799131375, -8.814317639725855 ], [ 13.2715131, -8.8143556 ] ] ] } },
{ "type": "Feature", "properties": { "name": "Iraque", "municipality": "Talatona" }, "geometry": { "type": "Polygon", "coordinates": [ [ [ 13.237561149802715, -8.919333141080042 ], [ 13.246955901106286, -8.888192841285614 ], [ 13.260699471414288, -8.896274685858756 ], [ 13.262358438250599, -8.897364498209893 ], [ 13.263901209317307, -8.898613385458765 ], [ 13.265312588851952, -8.900009046497074 ], [ 13.266578675253308, -8.901537734545357 ], [ 13.267686998007363, -8.903184392554028 ], [ 13.268626640517565, -8.904932801510103 ], [ 13.269388347629548, -8.906765740188899 ], [ 13.269964616791185, -8.908665154777138 ], [ 13.270349771950158, -8.910612336696781 ], [ 13.270540019461105, -8.912588106878063 ], [ 13.270533485451711, -8.914573004666714 ], [ 13.270330234279713, -8.916547479504677 ], [ 13.269932267898996, -8.918492083496364 ], [ 13.269343506141039, -8.920387662963714 ], [ 13.256129655114593, -8.956498179415998 ], [ 13.237561149802715, -8.919333141080042 ] ] ] } },
{ "type": "Feature", "properties": { "name": "Bairro Sossego", "municipality": "Talatona" }, "geometry": { "type": "Polygon", "coordinates": [ [ [ 13.235566970985799, -9.011564916874629 ], [ 13.23445933862749, -9.013193941710455 ], [ 13.233196821620011, -9.014706099824789 ], [ 13.231791668181707, -9.016086721123964 ], [ 13.230257510308041, -9.017322411609312 ], [ 13.228609231521764, -9.018401183318074 ], [ 13.226862822481493, -9.019312570623764 ], [ 13.225035225849476, -9.020047731767701 ], [ 13.223144171923568, -9.020599534636689 ], [ 13.221208006628018, -9.020962625954708 ], [ 13.219245513531796, -9.021133483217334 ], [ 13.217275731621145, -9.021110448865072 ], [ 13.215317770594218, -9.02089374636404 ], [ 13.213390625469716, -9.020485478038033 ], [ 13.211512992308064, -9.019889604672981 ], [ 13.209703086832926, -9.019111907091666 ], [ 13.207978467712667, -9.018159930071485 ], [ 13.206355866216189, -9.017042909149328 ], [ 13.204851023895714, -9.015771681023688 ], [ 13.203478539871258, -9.014358578423192 ], [ 13.202251729198302, -9.012817310461532 ], [ 13.201182493692745, -9.011162829639471 ], [ 13.200281206466276, -9.009411186784231 ], [ 13.199556611292383, -9.007579375333538 ], [ 13.182386374513241, -8.957023678768662 ], [ 13.190954188924355, -8.982250577568252 ], [ 13.240931283251902, -8.965378945560502 ], [ 13.252506317186876, -8.966399956240119 ], [ 13.23727620614104, -9.008020462963714 ], [ 13.236508973078934, -9.009834829185104 ], [ 13.235566970985799, -9.011564916874629 ] ] ] } },
{ "type": "Feature", "properties": { "name": "Patriota", "municipality": "Talatona" }, "geometry": { "type": "Polygon", "coordinates": [ [ [ 13.192342867123866, -8.936887466007564 ], [ 13.224912799522953, -8.94975398063885 ], [ 13.240931283251902, -8.965378945560502 ], [ 13.190954188924355, -8.982250577568252 ], [ 13.177300278352179, -8.942048280495136 ], [ 13.192342867123866, -8.936887466007564 ] ] ] } },
{ "type": "Feature", "properties": { "name": "Fubú", "municipality": "Talatona" }, "geometry": { "type": "Polygon", "coordinates": [ [ [ 13.240931283251902, -8.965378945560502 ], [ 13.224912799522953, -8.94975398063885 ], [ 13.215484574427609, -8.926731510045283 ], [ 13.227235493125585, -8.916691304773423 ], [ 13.237561149802715, -8.919333141080042 ], [ 13.256129655114593, -8.956498179415998 ], [ 13.252506317186876, -8.966399956240119 ], [ 13.240931283251902, -8.965378945560502 ] ] ] } },
{ "type": "Feature", "properties": { "name": "Dangereux", "municipality": "Talatona" }, "geometry": { "type": "Polygon", "coordinates": [ [ [ 13.20447133330469, -8.920328215085163 ], [ 13.192342867123866, -8.936887466007564 ], [ 13.224912799522953, -8.94975398063885 ], [ 13.215484574427609, -8.926731510045283 ], [ 13.20447133330469, -8.920328215085163 ] ] ] } },
{ "type": "Feature", "properties": { "name": "Talatona", "municipality": "Talatona" }, "geometry": { "type": "Polygon", "coordinates": [ [ [ 13.203010228897844, -8.908469004652238 ], [ 13.20447133330469, -8.920328215085163 ], [ 13.192342867123866, -8.936887466007564 ], [ 13.177300278352179, -8.942048280495136 ], [ 13.172185311292383, -8.926987875333539 ], [ 13.171592742473857, -8.924865734207682 ], [ 13.171237202425896, -8.922691288982564 ], [ 13.170089652425897, -8.912003788982565 ], [ 13.203010228897844, -8.908469004652238 ] ] ] } },
{ "type": "Feature", "properties": { "name": "Bairro Militar", "municipality": "Talatona" }, "geometry": { "type": "Polygon", "coordinates": [ [ [ 13.203708182438049, -8.907366024609255 ], [ 13.222862649367631, -8.911244934095791 ], [ 13.233869038841979, -8.882682333316962 ], [ 13.204071424775121, -8.90476020541159 ], [ 13.203708182438049, -8.907366024609255 ] ] ] } },
{ "type": "Feature", "properties": { "name": "Urbanização Nova Vida", "municipality": "Talatona" }, "geometry": { "type": "Polygon", "coordinates": [ [ [ 13.237561149802715, -8.919333141080042 ], [ 13.227235493125585, -8.916691304773423 ], [ 13.222862649367631, -8.911244934095791 ], [ 13.233869038841979, -8.882682333316962 ], [ 13.235139019386933, -8.881243977252851 ], [ 13.246955901106286, -8.888192841285614 ], [ 13.237561149802715, -8.919333141080042 ] ] ] } },
{ "type": "Feature", "properties": { "name": "Morro Bento II", "municipality": "Talatona" }, "geometry": { "type": "Polygon", "coordinates": [ [ [ 13.191127053869822, -8.876183465248962 ], [ 13.201678553869822, -8.871403965248962 ], [ 13.203456946101291, -8.870698854620358 ], [ 13.20529457182891, -8.870166885060412 ], [ 13.207174617420776, -8.869812923904313 ], [ 13.209079881118077, -8.869640209772687 ], [ 13.210992930425174, -8.869650322939361 ], [ 13.212896261610817, -8.869843170872397 ], [ 13.21477245986117, -8.870216989080742 ], [ 13.216604358619252, -8.870768357258692 ], [ 13.218375196652923, -8.8714922305805 ], [ 13.220068771414288, -8.872381985858757 ], [ 13.235139019386933, -8.881243977252851 ], [ 13.233869038841979, -8.882682333316962 ], [ 13.204071424775121, -8.90476020541159 ], [ 13.191127053869822, -8.876183465248962 ] ] ] } },
{ "type": "Feature", "properties": { "name": "Bairro da Cambamba", "municipality": "Talatona" }, "geometry": { "type": "Polygon", "coordinates": [ [ [ 13.203708182438049, -8.907366024609255 ], [ 13.203010228897844, -8.908469004652238 ], [ 13.20447133330469, -8.920328215085163 ], [ 13.215484574427609, -8.926731510045283 ], [ 13.227235493125585, -8.916691304773423 ], [ 13.222862649367631, -8.911244934095791 ], [ 13.203708182438049, -8.907366024609255 ] ] ] } },
{ "type": "Feature", "properties": { "name": "Morro Bento I", "municipality": "Talatona" }, "geometry": { "type": "Polygon", "coordinates": [ [ [ 13.204071424775121, -8.90476020541159 ], [ 13.203708182438049, -8.907366024609255 ], [ 13.203010228897844, -8.908469004652238 ], [ 13.170089652425897, -8.912003788982565 ], [ 13.168942102425897, -8.901316288982564 ], [ 13.168828928213186, -8.899393531764394 ], [ 13.168901233722973, -8.89746880434585 ], [ 13.169158348357135, -8.895559957629285 ], [ 13.169597887503606, -8.893684695231334 ], [ 13.17021577465248, -8.891860409290562 ], [ 13.171006279203645, -8.890104019163902 ], [ 13.171962069615285, -8.888431814507927 ], [ 13.173074281400332, -8.886859304200284 ], [ 13.174332599340236, -8.885401072502452 ], [ 13.175725353153554, -8.884070643797886 ], [ 13.177239625732081, -8.882880357159983 ], [ 13.178861372940696, -8.881841251913249 ], [ 13.180575553869822, -8.880962965248962 ], [ 13.191127053869822, -8.876183465248962 ], [ 13.204071424775121, -8.90476020541159 ] ] ] } },
{ "type": "Feature", "properties": { "name": "Centralidade do Zango V", "municipality": "Viana" }, "geometry": { "type": "Polygon", "coordinates": [ [ [ 13.37430027154052, -9.072726966066783 ], [ 13.441078599043015, -9.026735489388514 ], [ 13.477840042965296, -9.032263422553955 ], [ 13.4665, -9.0695 ], [ 13.472857134167247, -9.14366656528456 ], [ 13.37430027154052, -9.072726966066783 ] ] ] } },
{ "type": "Feature", "properties": { "name": "Calumbo", "municipality": "Viana" }, "geometry": { "type": "Polygon", "coordinates": [ [ [ 13.2502, -9.1875 ], [ 13.2287, -9.2102 ], [ 13.223261631033777, -9.231868501349796 ], [ 13.2223, -9.2357 ], [ 13.2222, -9.2471 ], [ 13.2183, -9.2569 ], [ 13.2193, -9.2672 ], [ 13.2108, -9.2734 ], [ 13.2068, -9.2848 ], [ 13.2032, -9.2902 ], [ 13.1971, -9.2907 ], [ 13.1928, -9.2934 ], [ 13.1961, -9.298 ], [ 13.1963, -9.3052 ], [ 13.1898, -9.3089 ], [ 13.1893, -9.32 ], [ 13.1862, -9.3267 ], [ 13.1808, -9.3302 ], [ 13.1737, -9.3294 ], [ 13.1706, -9.3242 ], [ 13.1727, -9.3182 ], [ 13.1647, -9.3235 ], [ 13.1592, -9.3402 ], [ 13.1528, -9.3443 ], [ 13.1407, -9.3272 ], [ 13.13, -9.3065 ], [ 13.0933, -9.2552 ], [ 13.0897, -9.2432 ], [ 13.084393729830673, -9.234187144050628 ], [ 13.0761, -9.2201 ], [ 13.055135460756926, -9.190489501142082 ], [ 13.2714606097336, -9.085293738189698 ], [ 13.37430027154052, -9.072726966066783 ], [ 13.472857134167247, -9.14366656528456 ], [ 13.4665, -9.0695 ], [ 13.4734, -9.15 ], [ 13.476, -9.1587 ], [ 13.4743, -9.1639 ], [ 13.4703, -9.1661 ], [ 13.4681, -9.1703 ], [ 13.4592, -9.1627 ], [ 13.4542, -9.161 ], [ 13.4433, -9.1615 ], [ 13.4286, -9.1562 ], [ 13.3962, -9.1548 ], [ 13.3888, -9.1564 ], [ 13.3905, -9.1764 ], [ 13.3855, -9.1793 ], [ 13.3806, -9.171 ], [ 13.3752, -9.1673 ], [ 13.3664, -9.1695 ], [ 13.3467, -9.1593 ], [ 13.3337, -9.1554 ], [ 13.3223, -9.1495 ], [ 13.3174, -9.1497 ], [ 13.3025, -9.1558 ], [ 13.2898, -9.1713 ], [ 13.2834, -9.1784 ], [ 13.2502, -9.1875 ] ] ] } },
{ "type": "Feature", "properties": { "name": "Bairro Mundimba", "municipality": "Viana" }, "geometry": { "type": "Polygon", "coordinates": [ [ [ 13.336600345452696, -8.983214612142694 ], [ 13.2714606097336, -9.085293738189698 ], [ 13.37430027154052, -9.072726966066783 ], [ 13.441078599043015, -9.026735489388514 ], [ 13.430084439415552, -8.949352837219593 ], [ 13.336600345452696, -8.983214612142694 ] ] ] } },
{ "type": "Feature", "properties": { "name": "Bairro 30", "municipality": "Viana" }, "geometry": { "type": "Polygon", "coordinates": [ [ [ 13.441078599043015, -9.026735489388514 ], [ 13.430084439415552, -8.949352837219593 ], [ 13.430269529020565, -8.948806994737311 ], [ 13.463050684291819, -8.906058074897475 ], [ 13.486511060155788, -8.878816340387013 ], [ 13.5348, -8.8886 ], [ 13.5268, -8.8979 ], [ 13.5274, -8.9517 ], [ 13.5239, -8.9573 ], [ 13.5121, -8.9678 ], [ 13.5021, -8.9699 ], [ 13.494, -8.9792 ], [ 13.477840042965296, -9.032263422553955 ], [ 13.441078599043015, -9.026735489388514 ] ] ] } },
{ "type": "Feature", "properties": { "name": "Grafanil Bar", "municipality": "Viana" }, "geometry": { "type": "Polygon", "coordinates": [ [ [ 13.297089259927549, -8.886572585151839 ], [ 13.3071, -8.8716 ], [ 13.3092, -8.8646 ], [ 13.3141, -8.8628 ], [ 13.3205, -8.8537 ], [ 13.3217, -8.8493 ], [ 13.332947751704044, -8.847237093573931 ], [ 13.304112016539381, -8.887752543496239 ], [ 13.297089259927549, -8.886572585151839 ] ] ] } },
{ "type": "Feature", "properties": { "name": "Vila Chinesa", "municipality": "Viana" }, "geometry": { "type": "Polygon", "coordinates": [ [ [ 13.385613164922782, -8.927931259399212 ], [ 13.430269529020565, -8.948806994737311 ], [ 13.430084439415552, -8.949352837219593 ], [ 13.336600345452696, -8.983214612142694 ], [ 13.337475766228691, -8.976520530693437 ], [ 13.385613164922782, -8.927931259399212 ] ] ] } },
{ "type": "Feature", "properties": { "name": "Sapu", "municipality": "Viana" }, "geometry": { "type": "Polygon", "coordinates": [ [ [ 13.316814942111066, -8.920171920852612 ], [ 13.337761034660875, -8.970314902974014 ], [ 13.337475766228691, -8.976520530693437 ], [ 13.336600345452696, -8.983214612142694 ], [ 13.2714606097336, -9.085293738189698 ], [ 13.055135460756926, -9.190489501142082 ], [ 13.0487, -9.1814 ], [ 13.0309, -9.142 ], [ 13.0132, -9.1199 ], [ 13.0751, -9.1101 ], [ 13.1106, -9.1023 ], [ 13.1818, -9.044 ], [ 13.2276, -8.9938 ], [ 13.240730985171444, -8.937453114264315 ], [ 13.316814942111066, -8.920171920852612 ] ] ] } },
{ "type": "Feature", "properties": { "name": "Kapalanga", "municipality": "Viana" }, "geometry": { "type": "Polygon", "coordinates": [ [ [ 13.361752389431816, -8.908193447532497 ], [ 13.463050684291819, -8.906058074897475 ], [ 13.430269529020565, -8.948806994737311 ], [ 13.385613164922782, -8.927931259399212 ], [ 13.361752389431816, -8.908193447532497 ] ] ] } },
{ "type": "Feature", "properties": { "name": "Sapu km 12", "municipality": "Viana" }, "geometry": { "type": "Polygon", "coordinates": [ [ [ 13.323802645294657, -8.886985749976393 ], [ 13.361845267757479, -8.896292521922742 ], [ 13.360723275267082, -8.907555640921478 ], [ 13.359027240502039, -8.909250102775275 ], [ 13.320454216777719, -8.911117698516767 ], [ 13.310740896709094, -8.891379886467568 ], [ 13.323802645294657, -8.886985749976393 ] ] ] } },
{ "type": "Feature", "properties": { "name": "500 casas", "municipality": "Viana" }, "geometry": { "type": "Polygon", "coordinates": [ [ [ 13.359027240502039, -8.909250102775275 ], [ 13.337761034660875, -8.970314902974014 ], [ 13.337475766228691, -8.976520530693437 ], [ 13.385613164922782, -8.927931259399212 ], [ 13.361752389431816, -8.908193447532497 ], [ 13.360723275267082, -8.907555640921478 ], [ 13.359027240502039, -8.909250102775275 ] ] ] } },
{ "type": "Feature", "properties": { "name": "Kapalanga II", "municipality": "Viana" }, "geometry": { "type": "Polygon", "coordinates": [ [ [ 13.360723275267082, -8.907555640921478 ], [ 13.361845267757479, -8.896292521922742 ], [ 13.377643767833934, -8.856759104620382 ], [ 13.486511060155788, -8.878816340387013 ], [ 13.463050684291819, -8.906058074897475 ], [ 13.361752389431816, -8.908193447532497 ], [ 13.360723275267082, -8.907555640921478 ] ] ] } },
{ "type": "Feature", "properties": { "name": "Jacinto Chipa", "municipality": "Viana" }, "geometry": { "type": "Polygon", "coordinates": [ [ [ 13.320454216777719, -8.911117698516767 ], [ 13.316814942111066, -8.920171920852612 ], [ 13.337761034660875, -8.970314902974014 ], [ 13.359027240502039, -8.909250102775275 ], [ 13.320454216777719, -8.911117698516767 ] ] ] } },
{ "type": "Feature", "properties": { "name": "Estalagem", "municipality": "Viana" }, "geometry": { "type": "Polygon", "coordinates": [ [ [ 13.347921353600572, -8.847280686707446 ], [ 13.3545, -8.8516 ], [ 13.366, -8.8544 ], [ 13.377643767833934, -8.856759104620382 ], [ 13.361845267757479, -8.896292521922742 ], [ 13.323802645294657, -8.886985749976393 ], [ 13.347921353600572, -8.847280686707446 ] ] ] } },
{ "type": "Feature", "properties": { "name": "Onjo-Yeto", "municipality": "Viana" }, "geometry": { "type": "Polygon", "coordinates": [ [ [ 13.304112016539381, -8.887752543496239 ], [ 13.310740896709094, -8.891379886467568 ], [ 13.320454216777719, -8.911117698516767 ], [ 13.316814942111066, -8.920171920852612 ], [ 13.240730985171444, -8.937453114264315 ], [ 13.2513, -8.8921 ], [ 13.2891, -8.8904 ], [ 13.2956, -8.8888 ], [ 13.297089259927549, -8.886572585151839 ], [ 13.304112016539381, -8.887752543496239 ] ] ] } },
{ "type": "Feature", "properties": { "name": "Bacia de Retenção do Coelho", "municipality": "Viana" }, "geometry": { "type": "Polygon", "coordinates": [ [ [ 13.323802645294657, -8.886985749976393 ], [ 13.310740896709094, -8.891379886467568 ], [ 13.304112016539381, -8.887752543496239 ], [ 13.332947751704044, -8.847237093573931 ], [ 13.3446, -8.8451 ], [ 13.347921353600572, -8.847280686707446 ], [ 13.323802645294657, -8.886985749976393 ] ] ] } }
]
}
